{"type":"FeatureCollection","features":[
{"type":"Feature","geometry":{"type":"Point","coordinates":[-60.485728,-31.7578514]},"properties":{"highway":"traffic_signals"}},
{"type":"Feature","geometry":{"type":"Point","coordinates":[-60.4623073,-31.7563966]},"properties":{"railway":"level_crossing"}},
{"type":"Feature","geometry":{"type":"Point","coordinates":[-60.4913491,-31.7569099]},"properties":{"highway":"traffic_signals"}},
{"type":"Feature","geometry":{"type":"Point","coordinates":[-60.4974885,-31.7552191]},"properties":{"name":"Plaza Vea","shop":"supermarket"}},
{"type":"Feature","geometry":{"type":"Point","coordinates":[-60.4550779,-31.7518272]},"properties":{"railway":"level_crossing"}},
{"type":"Feature","geometry":{"type":"Point","coordinates":[-60.4913712,-31.7569998]},"properties":{"highway":"traffic_signals"}},
{"type":"Feature","geometry":{"type":"Point","coordinates":[-60.4857116,-31.7577676]},"properties":{"highway":"traffic_signals"}},
{"type":"Feature","geometry":{"type":"Point","coordinates":[-60.494268,-31.74118]},"properties":{"brand":"YPF","amenity":"fuel","operator":"E/S 25 DE JUNIO SA","fuel:diesel":"yes","fuel:octane_95":"yes","fuel:octane_98":"yes"}},
{"type":"Feature","geometry":{"type":"Point","coordinates":[-60.497235,-31.75546]},"properties":{"brand":"Oil","amenity":"fuel","operator":"ZANNI SOCIEDAD DE RESPONSABILIDAD LIMITADA","fuel:diesel":"yes","fuel:octane_95":"yes","fuel:octane_98":"yes"}},
{"type":"Feature","geometry":{"type":"Point","coordinates":[-60.4855832,-31.7580242]},"properties":{"brand":"Bandera Blanca","amenity":"fuel","fuel:cng":"yes"}},
{"type":"Feature","geometry":{"type":"Point","coordinates":[-60.4619349,-31.7616774]},"properties":{"brand":"Bandera Blanca","amenity":"fuel","operator":"FERNANDEZ BURZACO BRUNO ROBERTO"}},
{"type":"Feature","geometry":{"type":"Point","coordinates":[-60.4755772,-31.7299234]},"properties":{"brand":"PDV Sur","amenity":"fuel","operator":"VENAR CARBURANTES S.A."}},
{"type":"Feature","geometry":{"type":"Point","coordinates":[-60.456294,-31.732873]},"properties":{"brand":"Shell","amenity":"fuel","operator":"MATEOS S.R.L., EDUARDO - 1417","fuel:diesel":"yes","fuel:octane_95":"yes","fuel:octane_98":"yes"}},
{"type":"Feature","geometry":{"type":"Point","coordinates":[-60.4899102,-31.7255782]},"properties":{"highway":"turning_circle"}},
{"type":"Feature","geometry":{"type":"Point","coordinates":[-60.4890991,-31.7257408]},"properties":{"highway":"turning_circle"}},
{"type":"Feature","geometry":{"type":"Point","coordinates":[-60.4878242,-31.7259319]},"properties":{"highway":"turning_circle"}},
{"type":"Feature","geometry":{"type":"Point","coordinates":[-60.4884634,-31.7258056]},"properties":{"highway":"turning_circle"}},
{"type":"Feature","geometry":{"type":"Point","coordinates":[-60.486652,-31.7261537]},"properties":{"highway":"turning_circle"}},
{"type":"Feature","geometry":{"type":"Point","coordinates":[-60.4871575,-31.7272309]},"properties":{"highway":"turning_circle"}},
{"type":"Feature","geometry":{"type":"Point","coordinates":[-60.4968658,-31.7556292]},"properties":{"atm":"yes","name":"NUEVO BERSA","amenity":"bank"}},
{"type":"Feature","geometry":{"type":"Point","coordinates":[-60.4956095,-31.7567343]},"properties":{"name":"COMISARIA 3º","amenity":"police"}},
{"type":"Feature","geometry":{"type":"Point","coordinates":[-60.4956298,-31.7567844]},"properties":{"name":"BOMBEROS ZAPADORES","amenity":"fire_station"}},
{"type":"Feature","geometry":{"type":"Point","coordinates":[-60.4569728,-31.7616787]},"properties":{"amenity":"community_centre","addr:city":"Paraná","addr:street":"Gobernador Maya","addr:country":"AR","addr:housenumber":"82"}},
{"type":"Feature","geometry":{"type":"Point","coordinates":[-60.4631899,-31.7610278]},"properties":{"name":"El Portal","amenity":"restaurant","cuisine":"grill","smoking":"outside","capacity":"100","addr:city":"Paraná","wheelchair":"yes","addr:street":"Avenida Almafuerte","addr:country":"AR","addr:postcode":"3100","opening_hours":"11:30-15:30, 20:00-24:00","addr:housenumber":"4200"}},
{"type":"Feature","geometry":{"type":"Point","coordinates":[-60.498932,-31.7553458]},"properties":{"name":"Salón del Reino de los Testigos de Jehová","amenity":"place_of_worship","website":"http://jw.org","religion":"christian","addr:city":"Paraná","addr:street":"José Martí","addr:country":"AR","denomination":"jehovahs_witness","addr:postcode":"3100","addr:housenumber":"745"}},
{"type":"Feature","geometry":{"type":"Point","coordinates":[-60.4530349,-31.7556691]},"properties":{"addr:city":"Paraná","addr:street":"Del Mate","addr:country":"AR","addr:postcode":"3100","addr:housenumber":"4742"}},
{"type":"Feature","geometry":{"type":"Point","coordinates":[-60.4541112,-31.7411801]},"properties":{"name":"Yarará Rowing Club","amenity":"community_centre","website":"http://paranarowingclub.com.ar/ubicacion-yarara","operator":"Paraná Rowing Club"}},
{"type":"Feature","geometry":{"type":"Point","coordinates":[-60.4970866,-31.7422537]},"properties":{"todo":"Continuar"}},
{"type":"Feature","geometry":{"type":"Point","coordinates":[-60.4952924,-31.7251311]},"properties":{"highway":"turning_circle"}},
{"type":"Feature","geometry":{"type":"Point","coordinates":[-60.495772,-31.7240869]},"properties":{"highway":"turning_circle"}},
{"type":"Feature","geometry":{"type":"Point","coordinates":[-60.4924871,-31.7442313]},"properties":{"name":"Escuela Nº 196 \"Marcelino Román\"","building":"school","addr:city":"Paraná","addr:street":"Juan Manuel de Rosas","isced:level":"1","addr:postcode":"3100"}},
{"type":"Feature","geometry":{"type":"Point","coordinates":[-60.4993812,-31.7538557]},"properties":{"name":"Estudio Contable Zanin","shop":"variety_store","phone":"0343 4240156","office":"accountant","addr:city":"Paraná","addr:street":"Almafuerte","addr:postcode":"3100","payment:bitcoin":"yes","addr:housenumber":"1488"}},
{"type":"Feature","geometry":{"type":"Point","coordinates":[-60.4934316,-31.7418376]},"properties":{"name":"Changomás Paraná","shop":"supermarket"}},
{"type":"Feature","geometry":{"type":"Point","coordinates":[-60.4932665,-31.7448529]},"properties":{"name":"Centro de salud","amenity":"hospital"}},
{"type":"Feature","geometry":{"type":"Point","coordinates":[-60.4851605,-31.7499966]},"properties":{"name":"Auxilio Medina","shop":"car_repair","phone":"3435161474","addr:street":"Marchesse","opening_hours":"24/7"}},
{"type":"Feature","geometry":{"type":"Point","coordinates":[-60.4692725,-31.7605159]},"properties":{"name":"JOHNSON ACERO SA","shop":"furniture","email":"info@johnsonacero.com","phone":"+543434261000","website":"www.johnsonacero.com","addr:street":"Almafuerte","addr:postcode":"3100","opening_hours":"Mo-Fr 08:00-19:00; Sa 08:00-13:00","addr:housenumber":"3658"}},
{"type":"Feature","geometry":{"type":"Point","coordinates":[-60.4546446,-31.7518741]},"properties":{"name":"Ap. Gobernador Maya","train":"yes","railway":"station","public_transport":"stop_position"}},
{"type":"Feature","geometry":{"type":"Point","coordinates":[-60.5019664,-31.7516604]},"properties":{"source":"Musimundo"}},
{"type":"Feature","geometry":{"type":"Point","coordinates":[-60.4864718,-31.7537085]},"properties":{"name":"Paraná XX","place":"neighbourhood","alt_name":"Paraná 20"}},
{"type":"Feature","geometry":{"type":"Point","coordinates":[-60.454834,-31.7309773]},"properties":{"power":"tower"}},
{"type":"Feature","geometry":{"type":"Point","coordinates":[-60.4689725,-31.7351601]},"properties":{"power":"tower"}},
{"type":"Feature","geometry":{"type":"Point","coordinates":[-60.4877367,-31.7322765]},"properties":{"power":"tower"}},
{"type":"Feature","geometry":{"type":"Point","coordinates":[-60.4905101,-31.7319115]},"properties":{"power":"tower"}},
{"type":"Feature","geometry":{"type":"Point","coordinates":[-60.4907837,-31.7320895]},"properties":{"power":"tower"}},
{"type":"Feature","geometry":{"type":"Point","coordinates":[-60.4915508,-31.7353835]},"properties":{"power":"tower"}},
{"type":"Feature","geometry":{"type":"Point","coordinates":[-60.4915937,-31.7359401]},"properties":{"power":"tower"}},
{"type":"Feature","geometry":{"type":"Point","coordinates":[-60.4917922,-31.7359027]},"properties":{"power":"portal"}},
{"type":"Feature","geometry":{"type":"Point","coordinates":[-60.4917412,-31.7352056]},"properties":{"power":"tower"}},
{"type":"Feature","geometry":{"type":"Point","coordinates":[-60.4823589,-31.7400439]},"properties":{"power":"tower"}},
{"type":"Feature","geometry":{"type":"Point","coordinates":[-60.4804887,-31.7405117]},"properties":{"power":"tower"}},
{"type":"Feature","geometry":{"type":"Point","coordinates":[-60.4840321,-31.7392435]},"properties":{"power":"tower"}},
{"type":"Feature","geometry":{"type":"Point","coordinates":[-60.4908394,-31.7381582]},"properties":{"power":"tower"}},
{"type":"Feature","geometry":{"type":"Point","coordinates":[-60.4916479,-31.736948]},"properties":{"power":"tower"}},
{"type":"Feature","geometry":{"type":"Point","coordinates":[-60.4936033,-31.739695]},"properties":{"name":"Arizona autos especiales","shop":"car_repair","name:es":"Arizona autos especiales","addr:street":"Avenida Blas Parera","addr:postcode":"3100","addr:housenumber":"1355"}},
{"type":"Feature","geometry":{"type":"Point","coordinates":[-60.4939179,-31.7463375]},"properties":{"name":"Carniceria y verduleria El Pocho","shop":"supermarket","addr:street":"Churruarín"}},
{"type":"Feature","geometry":{"type":"Point","coordinates":[-60.4759924,-31.728447]},"properties":{"name":"INGRESO QUINTA"}},
{"type":"Feature","geometry":{"type":"Point","coordinates":[-60.4766147,-31.7285565]},"properties":{"name":"LA PREMIERE","amenity":"place_of_worship"}},
{"type":"Feature","geometry":{"type":"Point","coordinates":[-60.4752796,-31.7282552]},"properties":{"name":"ESTACIONAMIENTO"}},
{"type":"Feature","geometry":{"type":"Point","coordinates":[-60.4758053,-31.7290948]},"properties":{"name":"INGRESO PREDIO"}},
{"type":"Feature","geometry":{"type":"Point","coordinates":[-60.5011503,-31.7433673]},"properties":{"name":"Reparación aire acondicionado","shop":"car_repair"}},
{"type":"Feature","geometry":{"type":"Point","coordinates":[-60.4968934,-31.7556978]},"properties":{"amenity":"atm"}},
{"type":"Feature","geometry":{"type":"Point","coordinates":[-60.4877675,-31.7271319]},"properties":{"highway":"turning_circle"}},
{"type":"Feature","geometry":{"type":"Point","coordinates":[-60.4919287,-31.7358836]},"properties":{"power":"portal"}},
{"type":"Feature","geometry":{"type":"Point","coordinates":[-60.4915391,-31.7363293]},"properties":{"power":"portal"}},
{"type":"Feature","geometry":{"type":"Point","coordinates":[-60.4918897,-31.7364605]},"properties":{"power":"transformer","voltage-high":"132000"}},
{"type":"Feature","geometry":{"type":"Point","coordinates":[-60.492009,-31.7364426]},"properties":{"power":"transformer","voltage-high":"132000"}},
{"type":"Feature","geometry":{"type":"Point","coordinates":[-60.4886649,-31.7423005]},"properties":{"name":"C.E.T.A.C.E.R","office":"company"}},
{"type":"Feature","geometry":{"type":"LineString","coordinates":[[-60.4572177,-31.7621848],[-60.4544614,-31.7626124]]},"properties":{"ref":"RN12","name":"Ruta Nacional 12","highway":"trunk","surface":"paved"}},
{"type":"Feature","geometry":{"type":"LineString","coordinates":[[-60.4895377,-31.7485152],[-60.4888228,-31.7486279],[-60.4881496,-31.748736],[-60.4875323,-31.748835],[-60.4874497,-31.7488483],[-60.4867855,-31.7489549],[-60.4864683,-31.7490058],[-60.4853667,-31.7491765],[-60.4839234,-31.7494142],[-60.4831066,-31.7495453],[-60.4824829,-31.7496368],[-60.4822499,-31.7495773],[-60.4818285,-31.7493358]]},"properties":{"name":"Israel Hoffmann","highway":"residential"}},
{"type":"Feature","geometry":{"type":"LineString","coordinates":[[-60.4887593,-31.7522917],[-60.487504,-31.7525015],[-60.4871289,-31.752559],[-60.4852954,-31.7528398],[-60.4846771,-31.7529345],[-60.4832677,-31.7531504],[-60.4808973,-31.7535135],[-60.4799013,-31.753666],[-60.4794624,-31.7537317],[-60.4793314,-31.7537391],[-60.4790913,-31.753784],[-60.4789836,-31.7538042]]},"properties":{"name":"Francia","highway":"residential"}},
{"type":"Feature","geometry":{"type":"LineString","coordinates":[[-60.4945396,-31.744046],[-60.4945084,-31.7439549],[-60.494419,-31.7435216],[-60.4942665,-31.7427693],[-60.493996,-31.7414504],[-60.4937753,-31.7404331],[-60.4935758,-31.7394583],[-60.4935353,-31.7392857],[-60.4933542,-31.7384926],[-60.4932395,-31.7379639],[-60.4931498,-31.7375502],[-60.4929385,-31.7365765],[-60.4926991,-31.735382],[-60.4926738,-31.7352558],[-60.492577,-31.7347728],[-60.4924818,-31.7342977],[-60.4924585,-31.7341902],[-60.4924253,-31.7340375],[-60.4922662,-31.7333056],[-60.4921939,-31.7329728],[-60.4920954,-31.7325196],[-60.4919136,-31.731683],[-60.4918013,-31.7311105]]},"properties":{"name":"Avenida Blas Parera","lanes":"2","highway":"secondary","surface":"asphalt","maxspeed":"40"}},
{"type":"Feature","geometry":{"type":"LineString","coordinates":[[-60.4550119,-31.7515523],[-60.4555965,-31.7515071],[-60.4567337,-31.7514341],[-60.4573131,-31.7514523],[-60.4579429,-31.7515693],[-60.458622,-31.7517352],[-60.4589868,-31.7518081],[-60.4592666,-31.7518395],[-60.4595774,-31.7518065],[-60.4609408,-31.7515861],[-60.4650541,-31.750957],[-60.466637,-31.7507149],[-60.4722797,-31.7497924],[-60.4779345,-31.748908],[-60.4786407,-31.7487987],[-60.4796015,-31.7486501],[-60.4819227,-31.748291]]},"properties":{"name":"Churruarín","oneway":"no","highway":"residential","surface":"unpaved"}},
{"type":"Feature","geometry":{"type":"LineString","coordinates":[[-60.4914858,-31.751872],[-60.4924244,-31.7517274],[-60.493254,-31.7516116],[-60.493614,-31.7515584],[-60.4945431,-31.7514318],[-60.4946824,-31.7514123],[-60.4952614,-31.7513315],[-60.49607,-31.7512187],[-60.4970419,-31.7510559],[-60.4979432,-31.750905],[-60.4987788,-31.7507473],[-60.4993568,-31.7506385],[-60.5001675,-31.7504905],[-60.500262,-31.7504732],[-60.5005447,-31.7504206],[-60.5019128,-31.750166]]},"properties":{"name":"Francia","highway":"residential"}},
{"type":"Feature","geometry":{"type":"LineString","coordinates":[[-60.4970649,-31.7276229],[-60.4970957,-31.7277684],[-60.4972561,-31.7285257],[-60.4973673,-31.7290509],[-60.4974885,-31.7296234],[-60.4976024,-31.7301615],[-60.4977393,-31.7307601],[-60.4979167,-31.7315992],[-60.4980466,-31.7322139],[-60.4980764,-31.7323549],[-60.4982563,-31.7332059],[-60.4983835,-31.7338078],[-60.4984959,-31.7343396],[-60.4985142,-31.7344262],[-60.4987789,-31.7356787],[-60.4989287,-31.7363524],[-60.4989967,-31.7366583],[-60.4990742,-31.7370072],[-60.4991625,-31.7374044],[-60.4992638,-31.7378599],[-60.4993661,-31.7383204],[-60.4996078,-31.739591],[-60.4998153,-31.7405161],[-60.4999862,-31.7413131],[-60.5001572,-31.7421107],[-60.5003277,-31.7429058],[-60.5004672,-31.7435564],[-60.5008721,-31.7453396],[-60.5009799,-31.7458392],[-60.5011073,-31.7464302],[-60.5012013,-31.7468663],[-60.5012954,-31.7473025],[-60.5013838,-31.7477125],[-60.501395,-31.7477646],[-60.501547,-31.7484693],[-60.5017577,-31.7494463],[-60.5019128,-31.750166],[-60.5020273,-31.7507828],[-60.5021229,-31.7512981],[-60.5022057,-31.7517027]]},"properties":{"name":"José Rondeau","oneway":"no","highway":"tertiary"}},
{"type":"Feature","geometry":{"type":"LineString","coordinates":[[-60.4903545,-31.7419929],[-60.4899439,-31.7420523],[-60.4896541,-31.7420943],[-60.488943,-31.7421972],[-60.4882228,-31.7423014],[-60.4875442,-31.742408],[-60.4862667,-31.7426087],[-60.4857279,-31.7426934],[-60.4846347,-31.7428652],[-60.4837515,-31.7430074],[-60.4825902,-31.7432001],[-60.4821158,-31.743271],[-60.4819743,-31.7432921]]},"properties":{"name":"Alte. Brown","oneway":"no","highway":"tertiary"}},
{"type":"Feature","geometry":{"type":"LineString","coordinates":[[-60.4777929,-31.759075],[-60.4778203,-31.758976],[-60.4779856,-31.758417],[-60.4780144,-31.7583126],[-60.4786542,-31.7567729]]},"properties":{"name":"Circunvalación","oneway":"yes","highway":"primary"}},
{"type":"Feature","geometry":{"type":"LineString","coordinates":[[-60.485042,-31.7376877],[-60.4848886,-31.7379162],[-60.4847166,-31.7381913],[-60.4844961,-31.7383966],[-60.4842456,-31.7386327],[-60.4840514,-31.7389167],[-60.4838138,-31.7393172],[-60.4835692,-31.7397812],[-60.483331,-31.7402392],[-60.4831263,-31.7406732],[-60.4829834,-31.7409879],[-60.4828482,-31.7413433],[-60.4827624,-31.741617],[-60.4827174,-31.7418464],[-60.4827087,-31.7418907],[-60.4826765,-31.7422466],[-60.4826186,-31.7427032],[-60.4825902,-31.7432001],[-60.4825366,-31.7438068],[-60.4825558,-31.7441173],[-60.4825795,-31.7445002],[-60.4826868,-31.7455221],[-60.4827221,-31.7461303],[-60.4827297,-31.7462611],[-60.4827331,-31.7466105],[-60.4826868,-31.7471949],[-60.4826546,-31.7478213],[-60.4826287,-31.7480079],[-60.4825432,-31.7481873],[-60.4821328,-31.7489118],[-60.4818285,-31.7493358],[-60.4816353,-31.7496459],[-60.4812491,-31.7503393],[-60.4808092,-31.7510783],[-60.4804659,-31.7516439],[-60.4802534,-31.7520558],[-60.4801011,-31.7524285],[-60.4800475,-31.7526383],[-60.4799402,-31.753505],[-60.4799013,-31.753666],[-60.4798542,-31.7538671],[-60.479655,-31.754717],[-60.4795861,-31.7550194],[-60.4793716,-31.7559956],[-60.479183,-31.7567105],[-60.4790495,-31.7573734],[-60.4790156,-31.7576053]]},"properties":{"name":"Vieja Circunvalación","highway":"residential"}},
{"type":"Feature","geometry":{"type":"LineString","coordinates":[[-60.4800266,-31.758625],[-60.4795137,-31.7565605],[-60.4793716,-31.7559956]]},"properties":{"name":"Bazán y Bustos","highway":"residential"}},
{"type":"Feature","geometry":{"type":"LineString","coordinates":[[-60.4903545,-31.7419929],[-60.4904599,-31.7424794],[-60.4905459,-31.7428768],[-60.4905698,-31.7429871],[-60.4906343,-31.7432908],[-60.4907229,-31.7437083],[-60.4907469,-31.7438216],[-60.4908032,-31.7441231],[-60.4908842,-31.7445571],[-60.490979,-31.7450163],[-60.4910622,-31.74542],[-60.4911119,-31.7456606],[-60.4911558,-31.7458732],[-60.491249,-31.7463124],[-60.4913502,-31.7468153]]},"properties":{"name":"Facundo Quiroga","oneway":"yes","highway":"residential"}},
{"type":"Feature","geometry":{"type":"LineString","coordinates":[[-60.4882228,-31.7423014],[-60.4884449,-31.7433112],[-60.4885443,-31.7437708],[-60.488627,-31.7441536],[-60.4887652,-31.7448776],[-60.4887774,-31.744931],[-60.4888327,-31.7451722],[-60.4889377,-31.745708],[-60.4890032,-31.7460085],[-60.4890868,-31.7464053],[-60.4892419,-31.7471421],[-60.4894201,-31.7479887],[-60.4895377,-31.7485152],[-60.4896825,-31.7492055],[-60.4896932,-31.7492566],[-60.4897674,-31.7496013],[-60.489853599999999,-31.7500018]]},"properties":{"name":"Gobernador Manuel Crespo","oneway":"no","highway":"residential"}},
{"type":"Feature","geometry":{"type":"LineString","coordinates":[[-60.4962612,-31.7429814],[-60.4968821,-31.745958],[-60.4970229,-31.746621],[-60.4971937,-31.7474254],[-60.4974073,-31.748431],[-60.4976366,-31.7495104],[-60.4977735,-31.750155],[-60.4979432,-31.750905],[-60.4982335,-31.7521534],[-60.4984133,-31.7529851],[-60.4991159,-31.7538067]]},"properties":{"name":"Río Negro","oneway":"no","highway":"residential"}},
{"type":"Feature","geometry":{"type":"LineString","coordinates":[[-60.492102,-31.7501282],[-60.4932959,-31.7499425],[-60.4943247,-31.7497961],[-60.4957267,-31.7495902]]},"properties":{"name":"Regis Martínez","highway":"residential"}},
{"type":"Feature","geometry":{"type":"LineString","coordinates":[[-60.4977735,-31.750155],[-60.4959131,-31.7504641],[-60.4945222,-31.7506832],[-60.4934668,-31.7508328],[-60.492265,-31.7510085],[-60.4917117,-31.7510947]]},"properties":{"name":"Onésimo Leguizamón","highway":"residential"}},
{"type":"Feature","geometry":{"type":"LineString","coordinates":[[-60.4976366,-31.7495104],[-60.4957759,-31.7498238]]},"properties":{"name":"Regis Martínez","highway":"residential"}},
{"type":"Feature","geometry":{"type":"LineString","coordinates":[[-60.4993251,-31.7481049],[-60.4990501,-31.7481512],[-60.4974073,-31.748431],[-60.4955491,-31.7487476]]},"properties":{"name":"José María Zuviría","highway":"residential"}},
{"type":"Feature","geometry":{"type":"LineString","coordinates":[[-60.4955348,-31.7486799],[-60.4941234,-31.7488869],[-60.4931152,-31.7490347]]},"properties":{"name":"Zuviria","highway":"residential"}},
{"type":"Feature","geometry":{"type":"LineString","coordinates":[[-60.4931152,-31.7490347],[-60.4939394,-31.7480553],[-60.4940645,-31.7479699],[-60.4942748,-31.7479134],[-60.4951225,-31.7477904],[-60.4953389,-31.7477412],[-60.4965215,-31.7475356],[-60.4971937,-31.7474254],[-60.4989517,-31.747137]]},"properties":{"name":"Salustiano Zavalia","highway":"residential"}},
{"type":"Feature","geometry":{"type":"LineString","coordinates":[[-60.4970229,-31.746621],[-60.4985292,-31.7465215],[-60.4986016,-31.746544],[-60.4986703,-31.7465993]]},"properties":{"name":"Doctor Boris Gos","highway":"residential"}},
{"type":"Feature","geometry":{"type":"LineString","coordinates":[[-60.4986703,-31.7465993],[-60.4989266,-31.7470707],[-60.4989517,-31.747137],[-60.4990501,-31.7481512]]},"properties":{"name":"Antonio Tardelli","highway":"residential"}},
{"type":"Feature","geometry":{"type":"LineString","coordinates":[[-60.4993251,-31.7481049],[-60.4997286,-31.7480005],[-60.5002105,-31.7478909]]},"properties":{"highway":"footway"}},
{"type":"Feature","geometry":{"type":"LineString","coordinates":[[-60.5027794,-31.7493162],[-60.5017577,-31.7494463],[-60.5009151,-31.7495912],[-60.5000889,-31.7497281]]},"properties":{"name":"Saucecito","highway":"residential"}},
{"type":"Feature","geometry":{"type":"LineString","coordinates":[[-60.5009151,-31.7495912],[-60.5007434,-31.748834]]},"properties":{"highway":"residential"}},
{"type":"Feature","geometry":{"type":"LineString","coordinates":[[-60.5024189,-31.7483455],[-60.501547,-31.7484693],[-60.5012976,-31.7485127],[-60.5011448,-31.7485723],[-60.5007434,-31.748834],[-60.50017,-31.7492388],[-60.5000127,-31.7493701]]},"properties":{"name":"Espinillo","highway":"residential"}},
{"type":"Feature","geometry":{"type":"LineString","coordinates":[[-60.500262,-31.7504732],[-60.5000889,-31.7497281],[-60.5000127,-31.7493701]]},"properties":{"name":"Las Tunas","highway":"residential"}},
{"type":"Feature","geometry":{"type":"LineString","coordinates":[[-60.50017,-31.7492388],[-60.4997563,-31.748396]]},"properties":{"highway":"footway"}},
{"type":"Feature","geometry":{"type":"LineString","coordinates":[[-60.5013838,-31.7477125],[-60.5004323,-31.7482683]]},"properties":{"name":"Martín Zapata","highway":"residential"}},
{"type":"Feature","geometry":{"type":"LineString","coordinates":[[-60.5012954,-31.7473025],[-60.5000889,-31.7476844]]},"properties":{"name":"Doctor Raúl Borruat","highway":"residential"}},
{"type":"Feature","geometry":{"type":"LineString","coordinates":[[-60.5012013,-31.7468663],[-60.4998529,-31.7472191]]},"properties":{"name":"José María López","highway":"residential"}},
{"type":"Feature","geometry":{"type":"LineString","coordinates":[[-60.5011073,-31.7464302],[-60.4999634,-31.7466435],[-60.4996169,-31.7467082]]},"properties":{"name":"Salustiano Zavalía","highway":"residential"}},
{"type":"Feature","geometry":{"type":"LineString","coordinates":[[-60.5004323,-31.7482683],[-60.5002105,-31.7478909],[-60.5000889,-31.7476844],[-60.4998529,-31.7472191],[-60.4996169,-31.7467082]]},"properties":{"name":"Calle 669","highway":"residential"}},
{"type":"Feature","geometry":{"type":"LineString","coordinates":[[-60.4999634,-31.7466435],[-60.4999207,-31.7465912],[-60.4992628,-31.7461334]]},"properties":{"highway":"unclassified"}},
{"type":"Feature","geometry":{"type":"LineString","coordinates":[[-60.5009799,-31.7458392],[-60.4992628,-31.7461334]]},"properties":{"name":"Doctor Boris Gos","highway":"unclassified"}},
{"type":"Feature","geometry":{"type":"LineString","coordinates":[[-60.4992628,-31.7461334],[-60.4991233,-31.7460787],[-60.4989946,-31.7458323],[-60.498912,-31.7456434]]},"properties":{"highway":"footway"}},
{"type":"Feature","geometry":{"type":"LineString","coordinates":[[-60.4963387,-31.7524936],[-60.4955347,-31.752614],[-60.494825,-31.7527203],[-60.4935129,-31.7529167],[-60.4927145,-31.7530358],[-60.4917335,-31.7531777],[-60.490669,-31.7533317],[-60.4903372,-31.7532554],[-60.4902721,-31.7532405],[-60.4889095,-31.7534503]]},"properties":{"name":"El Trebol","highway":"residential"}},
{"type":"Feature","geometry":{"type":"LineString","coordinates":[[-60.4964621,-31.7530786],[-60.4949925,-31.7534861],[-60.4945634,-31.7535877],[-60.4937912,-31.753595],[-60.4928516,-31.7536342]]},"properties":{"name":"El Talar","highway":"residential"}},
{"type":"Feature","geometry":{"type":"LineString","coordinates":[[-60.4929914,-31.7542365],[-60.4920053,-31.7543931],[-60.4908514,-31.7545724]]},"properties":{"name":"Los Tilos","highway":"residential"}},
{"type":"Feature","geometry":{"type":"LineString","coordinates":[[-60.4945634,-31.7535877],[-60.4943383,-31.7538882],[-60.4941683,-31.7539468]]},"properties":{"name":"Los Tilos","oneway":"yes","highway":"residential"}},
{"type":"Feature","geometry":{"type":"LineString","coordinates":[[-60.4941683,-31.7539468],[-60.4937912,-31.753595]]},"properties":{"name":"Los Alamos","oneway":"yes","highway":"residential"}},
{"type":"Feature","geometry":{"type":"LineString","coordinates":[[-60.49999,-31.7519566],[-60.4996075,-31.7522061],[-60.4994944,-31.7522799],[-60.4984133,-31.7529851],[-60.497579,-31.7535507],[-60.4967003,-31.7541545]]},"properties":{"name":"Cgo. Domingo Ereñu","oneway":"no","highway":"residential","surface":"asphalt","maxspeed":"40"}},
{"type":"Feature","geometry":{"type":"LineString","coordinates":[[-60.4949925,-31.7534861],[-60.494825,-31.7527203],[-60.4946895,-31.752101],[-60.4945431,-31.7514318]]},"properties":{"name":"Santa María de Oro","highway":"residential"}},
{"type":"Feature","geometry":{"type":"LineString","coordinates":[[-60.4946824,-31.7514123],[-60.4945222,-31.7506832],[-60.4943247,-31.7497961],[-60.4941234,-31.7488869],[-60.4939394,-31.7480553]]},"properties":{"name":"Santa María de Oro","highway":"residential"}},
{"type":"Feature","geometry":{"type":"LineString","coordinates":[[-60.4931152,-31.7490347],[-60.4932959,-31.7499425],[-60.4934668,-31.7508328],[-60.493614,-31.7515584]]},"properties":{"name":"Barrenechea","highway":"residential"}},
{"type":"Feature","geometry":{"type":"LineString","coordinates":[[-60.493254,-31.7516116],[-60.4933895,-31.7522947],[-60.4935129,-31.7529167]]},"properties":{"name":"Pichinchas","highway":"residential"}},
{"type":"Feature","geometry":{"type":"LineString","coordinates":[[-60.4946895,-31.752101],[-60.4933895,-31.7522947]]},"properties":{"name":"El Yerbal","highway":"residential"}},
{"type":"Feature","geometry":{"type":"LineString","coordinates":[[-60.4932607,-31.7554195],[-60.4930766,-31.7546109],[-60.4929914,-31.7542365],[-60.4928516,-31.7536342],[-60.4927145,-31.7530358],[-60.4924244,-31.7517274],[-60.492265,-31.7510085],[-60.492102,-31.7501282]]},"properties":{"name":"Las Magnolias","highway":"residential"}},
{"type":"Feature","geometry":{"type":"LineString","coordinates":[[-60.4924715,-31.7491807],[-60.4924393,-31.7489982],[-60.492332,-31.7488248],[-60.4924285,-31.7487062],[-60.4924285,-31.7485968],[-60.4921925,-31.7483322],[-60.4919457,-31.7480311]]},"properties":{"highway":"footway"}},
{"type":"Feature","geometry":{"type":"LineString","coordinates":[[-60.4913491,-31.7569099],[-60.4911196,-31.7558314],[-60.4908514,-31.7545724],[-60.490669,-31.7533317]]},"properties":{"name":"Gobernador Crespo","highway":"residential"}},
{"type":"Feature","geometry":{"type":"LineString","coordinates":[[-60.4572177,-31.7621848],[-60.456993,-31.7611206],[-60.456824,-31.7603201],[-60.4566416,-31.7594558],[-60.4561865,-31.7573001],[-60.4554159,-31.7534796],[-60.4551882,-31.7524306],[-60.4550779,-31.7518272],[-60.4550119,-31.7515523],[-60.4548548,-31.750818],[-60.4542222,-31.7475833],[-60.4538284,-31.745712],[-60.4537754,-31.7450852],[-60.4539436,-31.7438698],[-60.4542413,-31.74285],[-60.454364,-31.7425268],[-60.4546243,-31.7416383],[-60.4547847,-31.741056],[-60.4548234,-31.7402601],[-60.4547634,-31.7397235],[-60.4545207,-31.7389395],[-60.4540852,-31.7381114]]},"properties":{"name":"Gobernador Maya","highway":"secondary"}},
{"type":"Feature","geometry":{"type":"LineString","coordinates":[[-60.465585,-31.7457958],[-60.4599283,-31.7466669],[-60.4589117,-31.7468177],[-60.4585576,-31.7469089],[-60.4582143,-31.7469363],[-60.4542222,-31.7475833]]},"properties":{"name":"Alte. Brown","highway":"residential"}},
{"type":"Feature","geometry":{"type":"LineString","coordinates":[[-60.488943,-31.7421972],[-60.4891671,-31.743201],[-60.4893513,-31.7440402],[-60.4894927,-31.7447676],[-60.4897323,-31.7458882],[-60.489976,-31.7470282]]},"properties":{"name":"Calle 1487","oneway":"no","highway":"residential"}},
{"type":"Feature","geometry":{"type":"LineString","coordinates":[[-60.4896541,-31.7420943],[-60.4898751,-31.7430931],[-60.4900569,-31.7439297]]},"properties":{"name":"Calle 1485","oneway":"no","highway":"residential"}},
{"type":"Feature","geometry":{"type":"LineString","coordinates":[[-60.4906462,-31.7469254],[-60.4904288,-31.7457733],[-60.4902084,-31.7447192]]},"properties":{"name":"Calle 1485","oneway":"no","highway":"residential"}},
{"type":"Feature","geometry":{"type":"LineString","coordinates":[[-60.4900569,-31.7439297],[-60.4901962,-31.7446612],[-60.4902084,-31.7447192]]},"properties":{"name":"Calle 1485","oneway":"no","highway":"residential"}},
{"type":"Feature","geometry":{"type":"LineString","coordinates":[[-60.4905698,-31.7429871],[-60.4898751,-31.7430931],[-60.4891671,-31.743201],[-60.4884449,-31.7433112]]},"properties":{"name":"Vicegdor. Luis C. Chaile","oneway":"no","highway":"residential"}},
{"type":"Feature","geometry":{"type":"LineString","coordinates":[[-60.4907469,-31.7438216],[-60.4900569,-31.7439297],[-60.4893513,-31.7440402],[-60.488627,-31.7441536]]},"properties":{"name":"Vicegdor. José María Garaylde","oneway":"no","highway":"residential"}},
{"type":"Feature","geometry":{"type":"LineString","coordinates":[[-60.492091,-31.7443747],[-60.4917921,-31.7444185],[-60.4908842,-31.7445571],[-60.4901962,-31.7446612],[-60.4894927,-31.7447676],[-60.4887652,-31.7448776]]},"properties":{"name":"Vicegdor. Miguel Ángel Torrealday","oneway":"no","highway":"residential"}},
{"type":"Feature","geometry":{"type":"LineString","coordinates":[[-60.4911119,-31.7456606],[-60.4904288,-31.7457733],[-60.4897323,-31.7458882],[-60.4890032,-31.7460085]]},"properties":{"name":"Chacho Peñaloza","oneway":"no","highway":"residential"}},
{"type":"Feature","geometry":{"type":"LineString","coordinates":[[-60.4938124,-31.7464337],[-60.4919457,-31.7480311],[-60.4913986,-31.7483869],[-60.4911518,-31.7484417],[-60.4908018,-31.7483662],[-60.4894201,-31.7479887]]},"properties":{"name":"Guiraldes","highway":"residential"}},
{"type":"Feature","geometry":{"type":"LineString","coordinates":[[-60.491672199999999,-31.7467629],[-60.4917929,-31.7473224],[-60.491846,-31.7475688],[-60.4919457,-31.7480311]]},"properties":{"name":"Junin","highway":"residential"}},
{"type":"Feature","geometry":{"type":"LineString","coordinates":[[-60.491846,-31.7475688],[-60.4906698,-31.7477506],[-60.490154,-31.7478304]]},"properties":{"name":"Las Piedras","highway":"residential"}},
{"type":"Feature","geometry":{"type":"LineString","coordinates":[[-60.4904979,-31.7469487],[-60.4906698,-31.7477506],[-60.4908018,-31.7483662],[-60.4908943,-31.7487975]]},"properties":{"name":"Batalla de Cepeda","highway":"residential"}},
{"type":"Feature","geometry":{"type":"LineString","coordinates":[[-60.4917929,-31.7473224],[-60.4925358,-31.7471826],[-60.4926968,-31.7470731]]},"properties":{"highway":"pedestrian"}},
{"type":"Feature","geometry":{"type":"LineString","coordinates":[[-60.4908943,-31.7487975],[-60.4898858,-31.7485146],[-60.4895377,-31.7485152]]},"properties":{"highway":"residential"}},
{"type":"Feature","geometry":{"type":"LineString","coordinates":[[-60.4908943,-31.7487975],[-60.4908943,-31.7490712],[-60.4907885,-31.7491442],[-60.4896825,-31.7492055]]},"properties":{"highway":"pedestrian"}},
{"type":"Feature","geometry":{"type":"LineString","coordinates":[[-60.4897674,-31.7496013],[-60.4904914,-31.749489],[-60.4909742,-31.7494525],[-60.4907885,-31.7491442]]},"properties":{"highway":"pedestrian"}},
{"type":"Feature","geometry":{"type":"LineString","coordinates":[[-60.489853599999999,-31.7500018],[-60.4900266,-31.7508864],[-60.4901218,-31.7513337],[-60.4902077,-31.7515162]]},"properties":{"name":"Gobernador Crespo","highway":"residential"}},
{"type":"Feature","geometry":{"type":"LineString","coordinates":[[-60.489853599999999,-31.7500018],[-60.4903901,-31.749947],[-60.4913127,-31.7498558]]},"properties":{"highway":"unclassified"}},
{"type":"Feature","geometry":{"type":"LineString","coordinates":[[-60.4901218,-31.7513337],[-60.4898429,-31.751425],[-60.489639,-31.7514888],[-60.4892635,-31.7515527],[-60.4890919,-31.7515345],[-60.4889095,-31.7515527],[-60.4887807,-31.7516531]]},"properties":{"highway":"footway"}},
{"type":"Feature","geometry":{"type":"LineString","coordinates":[[-60.4900266,-31.7508864],[-60.4901433,-31.7508776],[-60.4902506,-31.7508593],[-60.4904115,-31.7507681],[-60.4905939,-31.7507134],[-60.4907441,-31.7507316],[-60.4909051,-31.7508046],[-60.4910767,-31.7508137]]},"properties":{"highway":"pedestrian"}},
{"type":"Feature","geometry":{"type":"LineString","coordinates":[[-60.4902077,-31.7515162],[-60.4902291,-31.751726],[-60.4903364,-31.751799],[-60.4905617,-31.7517717]]},"properties":{"highway":"pedestrian"}},
{"type":"Feature","geometry":{"type":"LineString","coordinates":[[-60.4896932,-31.7492566],[-60.4889793,-31.7493687],[-60.4883141,-31.7494732],[-60.487601,-31.7495853],[-60.4869357,-31.7496898],[-60.4855273,-31.749911],[-60.4840785,-31.7501386],[-60.4826658,-31.7503605]]},"properties":{"name":"Marchesse","highway":"residential"}},
{"type":"Feature","geometry":{"type":"LineString","coordinates":[[-60.489853599999999,-31.7500018],[-60.4891362,-31.7501115],[-60.488479,-31.750212],[-60.4877525,-31.7503231],[-60.4870861,-31.7504251],[-60.4856864,-31.750639],[-60.4842333,-31.7508615],[-60.4834923,-31.7509748],[-60.4828155,-31.7510783]]},"properties":{"name":"Quirós","highway":"residential"}},
{"type":"Feature","geometry":{"type":"LineString","coordinates":[[-60.4881496,-31.748736],[-60.4883141,-31.7494732],[-60.488479,-31.750212],[-60.4887807,-31.7516531],[-60.4887486,-31.7516987]]},"properties":{"highway":"residential"}},
{"type":"Feature","geometry":{"type":"LineString","coordinates":[[-60.4888228,-31.7486279],[-60.4889793,-31.7493687],[-60.4891362,-31.7501115]]},"properties":{"source":"Bing","highway":"footway"}},
{"type":"Feature","geometry":{"type":"LineString","coordinates":[[-60.4874497,-31.7488483],[-60.487601,-31.7495853],[-60.4877525,-31.7503231]]},"properties":{"source":"Bing","highway":"footway"}},
{"type":"Feature","geometry":{"type":"LineString","coordinates":[[-60.4887486,-31.7516987],[-60.4873857,-31.7519138],[-60.4860123,-31.7521294],[-60.4851651,-31.7522643]]},"properties":{"name":"Quinquela Martin","highway":"residential"}},
{"type":"Feature","geometry":{"type":"LineString","coordinates":[[-60.4860123,-31.7521294],[-60.4857974,-31.7511466],[-60.4856864,-31.750639],[-60.4855273,-31.749911],[-60.4853667,-31.7491765]]},"properties":{"highway":"residential"}},
{"type":"Feature","geometry":{"type":"LineString","coordinates":[[-60.4857974,-31.7511466],[-60.4849614,-31.7512799],[-60.4843439,-31.7513783]]},"properties":{"name":"Lola Mora","highway":"residential"}},
{"type":"Feature","geometry":{"type":"LineString","coordinates":[[-60.4849614,-31.7512799],[-60.4851651,-31.7522643],[-60.4852954,-31.7528398]]},"properties":{"name":"Alfonsina Storni","highway":"residential"}},
{"type":"Feature","geometry":{"type":"LineString","coordinates":[[-60.4845438,-31.752312],[-60.4838039,-31.7524282],[-60.4831331,-31.7525336],[-60.4827214,-31.7526013]]},"properties":{"name":"Galo Zaragoza","highway":"residential"}},
{"type":"Feature","geometry":{"type":"LineString","coordinates":[[-60.4832677,-31.7531504],[-60.4831331,-31.7525336],[-60.4828155,-31.7510783],[-60.4826658,-31.7503605],[-60.4824829,-31.7496368]]},"properties":{"name":"Fernández","highway":"residential"}},
{"type":"Feature","geometry":{"type":"LineString","coordinates":[[-60.4834923,-31.7509748],[-60.4838039,-31.7524282]]},"properties":{"name":"Hernández","highway":"residential"}},
{"type":"Feature","geometry":{"type":"LineString","coordinates":[[-60.4867855,-31.7489549],[-60.4869357,-31.7496898],[-60.4870861,-31.7504251],[-60.4873857,-31.7519138],[-60.487504,-31.7525015],[-60.487702,-31.7534424],[-60.4877466,-31.7536541],[-60.4878541,-31.754165],[-60.4878803,-31.7542894],[-60.4879804,-31.7547653],[-60.4881695,-31.7556638],[-60.4882336,-31.7559682],[-60.4882228,-31.7560229]]},"properties":{"name":"Celia Torra","highway":"residential"}},
{"type":"Feature","geometry":{"type":"LineString","coordinates":[[-60.4877466,-31.7536541],[-60.4875913,-31.7536785],[-60.4873672,-31.7537136],[-60.4872688,-31.753729],[-60.4869836,-31.7537738],[-60.4869387,-31.7537808],[-60.4866794,-31.7538214],[-60.486519,-31.7538466],[-60.4863396,-31.7538747],[-60.4860519,-31.7539198],[-60.4860171,-31.7539253],[-60.4856855,-31.7539773],[-60.4855187,-31.7540034],[-60.4853511,-31.7540297],[-60.4851961,-31.754054],[-60.4849259,-31.7540964]]},"properties":{"name":"Garcilaso","highway":"residential"}},
{"type":"Feature","geometry":{"type":"LineString","coordinates":[[-60.486519,-31.7538466],[-60.4865987,-31.7542012],[-60.4866619,-31.7544824],[-60.4867098,-31.7546954],[-60.4867686,-31.7549569],[-60.486851,-31.7553234],[-60.4869799,-31.7558969],[-60.4870596,-31.7562512],[-60.4873441,-31.7575192]]},"properties":{"name":"El Temple Argentino","highway":"residential"}},
{"type":"Feature","geometry":{"type":"LineString","coordinates":[[-60.4879804,-31.7547653],[-60.4875419,-31.7548347],[-60.4875164,-31.7548387],[-60.4871835,-31.7548913],[-60.4867686,-31.7549569]]},"properties":{"name":"Calle 1310","highway":"residential"}},
{"type":"Feature","geometry":{"type":"LineString","coordinates":[[-60.4891563,-31.7545542],[-60.4897034,-31.7544629],[-60.4897893,-31.7544356]]},"properties":{"name":"Calle 1310","highway":"residential"}},
{"type":"Feature","geometry":{"type":"LineString","coordinates":[[-60.4892957,-31.7551654],[-60.4891563,-31.7545542],[-60.4890268,-31.7539752],[-60.4889095,-31.7534503]]},"properties":{"name":"Calle 1407","highway":"residential"}},
{"type":"Feature","geometry":{"type":"LineString","coordinates":[[-60.4892957,-31.7551654],[-60.4893065,-31.7555212],[-60.4893172,-31.755658],[-60.4893816,-31.7558952],[-60.4894032,-31.7559955],[-60.4896864,-31.7571629]]},"properties":{"highway":"footway"}},
{"type":"Feature","geometry":{"type":"LineString","coordinates":[[-60.4903372,-31.7532554],[-60.490154,-31.753797],[-60.489918,-31.7543261],[-60.4897893,-31.7544356]]},"properties":{"name":"Calle 1406","highway":"residential"}},
{"type":"Feature","geometry":{"type":"LineString","coordinates":[[-60.4878541,-31.754165],[-60.4890268,-31.7539752],[-60.490154,-31.753797]]},"properties":{"name":"Calle 1338","highway":"residential"}},
{"type":"Feature","geometry":{"type":"LineString","coordinates":[[-60.4889095,-31.7534503],[-60.4885662,-31.7533043],[-60.487702,-31.7534424]]},"properties":{"highway":"footway"}},
{"type":"Feature","geometry":{"type":"LineString","coordinates":[[-60.4889202,-31.7545815],[-60.4879804,-31.7547653]]},"properties":{"source":"Bing","highway":"footway"}},
{"type":"Feature","geometry":{"type":"LineString","coordinates":[[-60.4871289,-31.752559],[-60.4873114,-31.7534433],[-60.4873672,-31.7537136]]},"properties":{"source":"Bing","highway":"footway"}},
{"type":"Feature","geometry":{"type":"LineString","coordinates":[[-60.4875913,-31.7536785],[-60.4875469,-31.7534047],[-60.4873114,-31.7534433]]},"properties":{"source":"Bing","highway":"footway"}},
{"type":"Feature","geometry":{"type":"LineString","coordinates":[[-60.4868966,-31.7533373],[-60.4869836,-31.7537738]]},"properties":{"source":"Bing","highway":"footway"}},
{"type":"Feature","geometry":{"type":"LineString","coordinates":[[-60.4866044,-31.7533843],[-60.4866794,-31.7538214]]},"properties":{"source":"Bing","highway":"footway"}},
{"type":"Feature","geometry":{"type":"LineString","coordinates":[[-60.4862595,-31.7534229],[-60.4863396,-31.7538747]]},"properties":{"source":"Bing","highway":"footway"}},
{"type":"Feature","geometry":{"type":"LineString","coordinates":[[-60.4859269,-31.7534868],[-60.4860171,-31.7539253]]},"properties":{"source":"Bing","highway":"footway"}},
{"type":"Feature","geometry":{"type":"LineString","coordinates":[[-60.485605,-31.7535324],[-60.4856855,-31.7539773]]},"properties":{"source":"Bing","highway":"footway"}},
{"type":"Feature","geometry":{"type":"LineString","coordinates":[[-60.4852617,-31.753578],[-60.4853511,-31.7540297]]},"properties":{"source":"Bing","highway":"footway"}},
{"type":"Feature","geometry":{"type":"LineString","coordinates":[[-60.4871835,-31.7548913],[-60.487079,-31.7544188],[-60.4870626,-31.7543447],[-60.4869387,-31.7537808]]},"properties":{"source":"Bing","highway":"footway"}},
{"type":"Feature","geometry":{"type":"LineString","coordinates":[[-60.487079,-31.7544188],[-60.4866619,-31.7544824]]},"properties":{"source":"Bing","highway":"footway"}},
{"type":"Feature","geometry":{"type":"LineString","coordinates":[[-60.4878803,-31.7542894],[-60.4874077,-31.7543517]]},"properties":{"source":"Bing","highway":"footway"}},
{"type":"Feature","geometry":{"type":"LineString","coordinates":[[-60.4875164,-31.7548387],[-60.4874077,-31.7543517],[-60.487394,-31.7542902],[-60.4872688,-31.753729]]},"properties":{"source":"Bing","highway":"footway"}},
{"type":"Feature","geometry":{"type":"LineString","coordinates":[[-60.487394,-31.7542902],[-60.4870626,-31.7543447]]},"properties":{"source":"Bing","highway":"footway"}},
{"type":"Feature","geometry":{"type":"LineString","coordinates":[[-60.4851961,-31.754054],[-60.4852402,-31.7542987]]},"properties":{"source":"Bing","highway":"footway"}},
{"type":"Feature","geometry":{"type":"LineString","coordinates":[[-60.4855187,-31.7540034],[-60.4855514,-31.7542257]]},"properties":{"source":"Bing","highway":"footway"}},
{"type":"Feature","geometry":{"type":"LineString","coordinates":[[-60.4836202,-31.7567984],[-60.4854424,-31.7565091],[-60.4862476,-31.7563807],[-60.4870596,-31.7562512],[-60.4881477,-31.7560777],[-60.4882228,-31.7560229]]},"properties":{"name":"Río Gualeguay","highway":"residential"}},
{"type":"Feature","geometry":{"type":"LineString","coordinates":[[-60.4855577,-31.7570479],[-60.4842746,-31.7572636]]},"properties":{"name":"Rio Victoria","highway":"residential"}},
{"type":"Feature","geometry":{"type":"LineString","coordinates":[[-60.483073,-31.7560959],[-60.4831645,-31.7561471],[-60.4832125,-31.7564103],[-60.4832714,-31.7564986],[-60.4833814,-31.7565651],[-60.4835188,-31.7565969],[-60.483588,-31.7566433],[-60.4836202,-31.7567984],[-60.4836561,-31.7569731],[-60.483877,-31.7580466]]},"properties":{"name":"Río Paraná","highway":"residential"}},
{"type":"Feature","geometry":{"type":"LineString","coordinates":[[-60.483073,-31.7560959],[-60.4803584,-31.7564502],[-60.4795137,-31.7565605]]},"properties":{"name":"Río Gualeguaychú","highway":"residential"}},
{"type":"Feature","geometry":{"type":"LineString","coordinates":[[-60.4836561,-31.7569731],[-60.4805303,-31.7570082]]},"properties":{"name":"Río Guayquiraró","highway":"residential"}},
{"type":"Feature","geometry":{"type":"LineString","coordinates":[[-60.4808562,-31.7585062],[-60.4805303,-31.7570082],[-60.4803584,-31.7564502]]},"properties":{"name":"Río Uruguay","highway":"residential"}},
{"type":"Feature","geometry":{"type":"LineString","coordinates":[[-60.4806376,-31.7544629],[-60.4806483,-31.754545],[-60.479655,-31.754717]]},"properties":{"highway":"residential"}},
{"type":"Feature","geometry":{"type":"LineString","coordinates":[[-60.4831066,-31.7495453],[-60.4827833,-31.7481497]]},"properties":{"highway":"residential"}},
{"type":"Feature","geometry":{"type":"LineString","coordinates":[[-60.4789836,-31.7538042],[-60.4781427,-31.7498797],[-60.4779345,-31.748908],[-60.4776178,-31.74743],[-60.4774052,-31.746438],[-60.4768825,-31.7439984],[-60.4758597,-31.7391328],[-60.4749028,-31.7343161],[-60.4745445,-31.7326574],[-60.4742273,-31.731094],[-60.4739551,-31.7297522]]},"properties":{"name":"Abel Bazán y Bustos","highway":"residential"}},
{"type":"Feature","geometry":{"type":"LineString","coordinates":[[-60.4745087,-31.7604458],[-60.4743365,-31.7596031],[-60.4743182,-31.7595182]]},"properties":{"name":"Soldado Héctor Bordon","highway":"residential","surface":"unpaved"}},
{"type":"Feature","geometry":{"type":"LineString","coordinates":[[-60.4712606,-31.7449656],[-60.465585,-31.7457958]]},"properties":{"name":"Alte. Brown","highway":"residential"}},
{"type":"Feature","geometry":{"type":"LineString","coordinates":[[-60.5029511,-31.755155],[-60.5015803,-31.7553675],[-60.5002073,-31.7555725],[-60.4994252,-31.7556661],[-60.4991659,-31.7556971],[-60.49913,-31.7557014],[-60.4984452,-31.7557833],[-60.4980703,-31.7557945],[-60.497076,-31.7559341]]},"properties":{"name":"Santos Dominguez","highway":"residential"}},
{"type":"Feature","geometry":{"type":"LineString","coordinates":[[-60.5004591,-31.7403993],[-60.4998153,-31.7405161],[-60.4983703,-31.7407481],[-60.493996,-31.7414504],[-60.4928084,-31.7416302],[-60.4927284,-31.7416423],[-60.4916736,-31.7417839],[-60.4913358,-31.7418318],[-60.490806,-31.7419139],[-60.4903545,-31.7419929]]},"properties":{"name":"Alte. Brown","oneway":"no","highway":"tertiary","maxspeed":"50"}},
{"type":"Feature","geometry":{"type":"LineString","coordinates":[[-60.4881542,-31.7330862],[-60.4876582,-31.7325619]]},"properties":{"ref":"RN168","layer":"1","bridge":"yes","oneway":"no","highway":"trunk_link"}},
{"type":"Feature","geometry":{"type":"LineString","coordinates":[[-60.4876962,-31.7331774],[-60.4874677,-31.7334366],[-60.4873803,-31.7335401],[-60.4873251,-31.7336321],[-60.487286,-31.7337424],[-60.4872584,-31.7338482],[-60.4872469,-31.7339402],[-60.4872492,-31.7340298],[-60.487263,-31.734154],[-60.4872929,-31.7342621],[-60.4873366,-31.7343655],[-60.4873964,-31.7344552],[-60.4874539,-31.7345242],[-60.4875275,-31.7345771],[-60.4876263,-31.7346437],[-60.4877137,-31.7346782],[-60.4878149,-31.7346966],[-60.4879206,-31.7347035],[-60.4880218,-31.7346966],[-60.4881322,-31.7346782],[-60.4882264,-31.7346437],[-60.4883161,-31.7345794],[-60.4884058,-31.734492],[-60.4884816,-31.7344023],[-60.4885391,-31.7343035],[-60.4885759,-31.7342115],[-60.4885943,-31.7341103],[-60.4886012,-31.734],[-60.488592,-31.7338758],[-60.4885529,-31.7337562],[-60.4885069,-31.7336436],[-60.4884265,-31.7334987],[-60.4883161,-31.7333332],[-60.4881542,-31.7330862]]},"properties":{"ref":"RN168","oneway":"yes","highway":"trunk_link"}},
{"type":"Feature","geometry":{"type":"LineString","coordinates":[[-60.4881542,-31.7330862],[-60.4884999,-31.7334884],[-60.4885949,-31.7336534],[-60.4886511,-31.7337771],[-60.4886924,-31.7338846],[-60.4887236,-31.7340158],[-60.4887274,-31.7341296],[-60.4887174,-31.7342346],[-60.4886974,-31.734322],[-60.4886461,-31.7344295],[-60.4885824,-31.7345295],[-60.4885199,-31.7346008],[-60.4884436,-31.7346695],[-60.4883599,-31.7347307],[-60.4882637,-31.734777],[-60.4881624,-31.7348132],[-60.4880312,-31.7348345],[-60.4879,-31.7348395],[-60.4877725,-31.7348245],[-60.4876512,-31.7347932],[-60.4875388,-31.7347445],[-60.4874313,-31.7346845],[-60.4873525,-31.7346345],[-60.4872601,-31.7345708],[-60.4871626,-31.7345145],[-60.4870851,-31.7344783],[-60.4870088,-31.7344483],[-60.4869301,-31.7344283],[-60.4868226,-31.7344158],[-60.4866889,-31.7344158],[-60.4865801,-31.734427],[-60.4864902,-31.734447],[-60.4863902,-31.734492],[-60.4862727,-31.7345645],[-60.4861727,-31.7346407],[-60.4859436,-31.7348399]]},"properties":{"ref":"RN168","oneway":"yes","highway":"trunk_link"}},
{"type":"Feature","geometry":{"type":"LineString","coordinates":[[-60.4867698,-31.7338265],[-60.4869731,-31.733584],[-60.4870515,-31.7334271],[-60.4871407,-31.7332381],[-60.4871906,-31.7330634],[-60.487212,-31.7329101],[-60.4872227,-31.7327532],[-60.487212,-31.7325713],[-60.4871835,-31.7324108],[-60.48713,-31.732229],[-60.4870231,-31.7320674],[-60.4868669,-31.7318264]]},"properties":{"ref":"RN168","oneway":"yes","highway":"trunk_link"}},
{"type":"Feature","geometry":{"type":"LineString","coordinates":[[-60.4865345,-31.7313696],[-60.4868554,-31.7316548],[-60.487023,-31.7317618],[-60.4871763,-31.7318581],[-60.4873297,-31.7319258],[-60.4874937,-31.73199],[-60.4876542,-31.7320364],[-60.4878503,-31.7320649],[-60.4880536,-31.7320792],[-60.4882069,-31.7320792],[-60.488428,-31.7320471],[-60.4885742,-31.7320079],[-60.488724,-31.7319365],[-60.4888916,-31.731851],[-60.489159,-31.731662]]},"properties":{"ref":"RN168","oneway":"yes","highway":"trunk_link"}},
{"type":"Feature","geometry":{"type":"LineString","coordinates":[[-60.4876582,-31.7325619],[-60.4874881,-31.7323775]]},"properties":{"ref":"RN168","oneway":"no","highway":"trunk"}},
{"type":"Feature","geometry":{"type":"LineString","coordinates":[[-60.496185,-31.7234236],[-60.4949077,-31.7236347],[-60.4932727,-31.7238849],[-60.4921712,-31.7240591],[-60.4913639,-31.7241938],[-60.4903432,-31.7243518]]},"properties":{"name":"Ambrosetti","highway":"residential","surface":"paved"}},
{"type":"Feature","geometry":{"type":"LineString","coordinates":[[-60.4578745,-31.7520759],[-60.4576224,-31.7520759],[-60.4574923,-31.7520552],[-60.4572077,-31.7520552],[-60.4568906,-31.7521036],[-60.4560857,-31.7522349],[-60.4555551,-31.7523327],[-60.4551882,-31.7524306]]},"properties":{"name":"Convención Constituyente 2008","highway":"residential"}},
{"type":"Feature","geometry":{"type":"LineString","coordinates":[[-60.4527371,-31.7578282],[-60.4534341,-31.7577215],[-60.4541756,-31.757608],[-60.4561865,-31.7573001]]},"properties":{"name":"Francia","highway":"residential"}},
{"type":"Feature","geometry":{"type":"LineString","coordinates":[[-60.4815851,-31.7382288],[-60.4831672,-31.7379731],[-60.4839747,-31.737844]]},"properties":{"name":"Don Bosco","oneway":"no","highway":"residential","maxspeed":"50"}},
{"type":"Feature","geometry":{"type":"LineString","coordinates":[[-60.4981224,-31.744054],[-60.4988353,-31.7438311],[-60.4996007,-31.7437023],[-60.5004672,-31.7435564],[-60.5013025,-31.7434301],[-60.5013643,-31.7434552]]},"properties":{"name":"Presbitero Juan M. Pérez","highway":"residential"}},
{"type":"Feature","geometry":{"type":"LineString","coordinates":[[-60.5021598,-31.7476379],[-60.501395,-31.7477646]]},"properties":{"name":"Martin Zapata","oneway":"no","highway":"residential"}},
{"type":"Feature","geometry":{"type":"LineString","coordinates":[[-60.5017409,-31.7452071],[-60.5018019,-31.7454679],[-60.5021357,-31.746272]]},"properties":{"name":"Padilla","highway":"residential"}},
{"type":"Feature","geometry":{"type":"LineString","coordinates":[[-60.5027794,-31.7493162],[-60.5024189,-31.7483455],[-60.5021598,-31.7476379]]},"properties":{"name":"Campamento del Cala","highway":"residential"}},
{"type":"Feature","geometry":{"type":"LineString","coordinates":[[-60.4935758,-31.7394583],[-60.4931999,-31.7395003],[-60.4923758,-31.7396473],[-60.4912521,-31.739803],[-60.4903528,-31.7399396],[-60.4895162,-31.7400765]]},"properties":{"name":"Juan de Solis","oneway":"no","highway":"residential"}},
{"type":"Feature","geometry":{"type":"LineString","coordinates":[[-60.4979167,-31.7315992],[-60.4964563,-31.7318218],[-60.4953455,-31.7320071],[-60.4944515,-31.732144],[-60.493256,-31.7323173],[-60.4920954,-31.7325196]]},"properties":{"name":"19 de Abril","highway":"residential"}},
{"type":"Feature","geometry":{"type":"LineString","coordinates":[[-60.4933542,-31.7384926],[-60.4921713,-31.7387098],[-60.4910504,-31.7388465],[-60.4901896,-31.7389963],[-60.4892945,-31.7391546]]},"properties":{"name":"Juan de la Madrid","oneway":"no","highway":"residential"}},
{"type":"Feature","geometry":{"type":"LineString","coordinates":[[-60.4916736,-31.7417839],[-60.4914513,-31.7407477],[-60.4912521,-31.739803],[-60.4910504,-31.7388465],[-60.4908576,-31.7379321],[-60.4906404,-31.7368927]]},"properties":{"name":"Francisco Beiró","oneway":"no","highway":"residential"}},
{"type":"Feature","geometry":{"type":"LineString","coordinates":[[-60.4940682,-31.7303395],[-60.4942861,-31.7313169],[-60.4944515,-31.732144],[-60.4946044,-31.7328901],[-60.4947814,-31.7336678],[-60.49494,-31.7343644],[-60.4950629,-31.7349042],[-60.4953257,-31.7362095]]},"properties":{"name":"Sosa y Loyola","oneway":"yes","highway":"residential"}},
{"type":"Feature","geometry":{"type":"LineString","coordinates":[[-60.4884844,-31.7352677],[-60.4886073,-31.7359309],[-60.4888149,-31.7371505],[-60.4890435,-31.7382387],[-60.4891204,-31.7384999],[-60.4892505,-31.738989],[-60.4892945,-31.7391546],[-60.4895162,-31.7400765],[-60.4896277,-31.7405907],[-60.4897287,-31.7410564],[-60.4899439,-31.7420523]]},"properties":{"name":"Maestro Normal","oneway":"no","highway":"residential"}},
{"type":"Feature","geometry":{"type":"LineString","coordinates":[[-60.49494,-31.7343644],[-60.4949021,-31.734371199999999],[-60.4937688,-31.7345862],[-60.492577,-31.7347728]]},"properties":{"name":"Gendarmeria Nacional","highway":"residential"}},
{"type":"Feature","geometry":{"type":"LineString","coordinates":[[-60.4937753,-31.7404331],[-60.4925772,-31.7405706],[-60.4914513,-31.7407477],[-60.4905765,-31.7409045],[-60.4897287,-31.7410564]]},"properties":{"name":"Hipolito Vieytes","oneway":"no","highway":"residential"}},
{"type":"Feature","geometry":{"type":"LineString","coordinates":[[-60.4941448,-31.7363911],[-60.4938803,-31.7350796],[-60.4937688,-31.7345862],[-60.4936016,-31.7338465],[-60.493432,-31.7330961],[-60.493256,-31.7323173],[-60.4930903,-31.7315014],[-60.492889,-31.7305186]]},"properties":{"name":"Magallanes","oneway":"yes","highway":"residential"}},
{"type":"Feature","geometry":{"type":"LineString","coordinates":[[-60.4919136,-31.731683],[-60.4930903,-31.7315014],[-60.4942861,-31.7313169],[-60.4951784,-31.7311706],[-60.4962805,-31.730986],[-60.4977393,-31.7307601],[-60.4989594,-31.7305869]]},"properties":{"name":"Fraternidad","highway":"residential"}},
{"type":"Feature","geometry":{"type":"LineString","coordinates":[[-60.4875613,-31.7352012],[-60.4877492,-31.7360763],[-60.4880023,-31.7372556]]},"properties":{"name":"C. C. Boedo","highway":"residential"}},
{"type":"Feature","geometry":{"type":"LineString","coordinates":[[-60.4982915,-31.7378562],[-60.4981118,-31.7371699],[-60.4979705,-31.7365088],[-60.4978244,-31.7358254]]},"properties":{"name":"Villanueva","oneway":"yes","highway":"residential"}},
{"type":"Feature","geometry":{"type":"LineString","coordinates":[[-60.490806,-31.7419139],[-60.4905765,-31.7409045],[-60.4903528,-31.7399396],[-60.4901896,-31.7389963],[-60.4899783,-31.7380761],[-60.4897281,-31.7370182]]},"properties":{"name":"Agustin H. Montano","oneway":"no","highway":"residential"}},
{"type":"Feature","geometry":{"type":"LineString","coordinates":[[-60.4896787,-31.7358209],[-60.4894202,-31.7358294],[-60.4886073,-31.7359309],[-60.4877492,-31.7360763],[-60.4868933,-31.7362094]]},"properties":{"highway":"residential"}},
{"type":"Feature","geometry":{"type":"LineString","coordinates":[[-60.48962,-31.7370331],[-60.4894202,-31.7358294],[-60.4893246,-31.735382],[-60.4892121,-31.7348424]]},"properties":{"name":"Agustin H. Montano","highway":"residential"}},
{"type":"Feature","geometry":{"type":"LineString","coordinates":[[-60.4866889,-31.7349992],[-60.4868839,-31.7361565],[-60.4868933,-31.7362094],[-60.487102,-31.7373795],[-60.4873096,-31.7382817],[-60.4874162,-31.7387448],[-60.4875336,-31.7392553],[-60.487708,-31.7400021],[-60.4878949,-31.7408381],[-60.4880025,-31.7413193],[-60.4880089,-31.741384],[-60.4882228,-31.7423014]]},"properties":{"name":"Gobernador Manuel Crespo","oneway":"no","highway":"residential"}},
{"type":"Feature","geometry":{"type":"LineString","coordinates":[[-60.4917418,-31.7367411],[-60.4919622,-31.7377513],[-60.4921713,-31.7387098],[-60.4923758,-31.7396473],[-60.4925772,-31.7405706],[-60.4928084,-31.7416302]]},"properties":{"name":"Roque Saenz Peña","oneway":"no","highway":"residential"}},
{"type":"Feature","geometry":{"type":"LineString","coordinates":[[-60.4931498,-31.7375502],[-60.4919622,-31.7377513],[-60.4908576,-31.7379321],[-60.4899783,-31.7380761],[-60.4890435,-31.7382387]]},"properties":{"name":"Dean Funes","oneway":"no","highway":"residential"}},
{"type":"Feature","geometry":{"type":"LineString","coordinates":[[-60.4984959,-31.7343396],[-60.4979046,-31.7344365],[-60.4973308,-31.7345309],[-60.4968114,-31.7346164],[-60.4962818,-31.7347036],[-60.4956158,-31.7348132],[-60.4950629,-31.7349042],[-60.4938803,-31.7350796],[-60.4926738,-31.7352558]]},"properties":{"name":"Alvar Nuñez Cabeza de Vaca","oneway":"no","highway":"residential"}},
{"type":"Feature","geometry":{"type":"LineString","coordinates":[[-60.4932395,-31.7379639],[-60.4939831,-31.7378248],[-60.4947147,-31.7377009],[-60.4953594,-31.7375987],[-60.4960865,-31.7374835],[-60.4967531,-31.7373795],[-60.4974466,-31.7372725],[-60.4981118,-31.7371699],[-60.4990742,-31.7370072]]},"properties":{"name":"Randisi","highway":"residential"}},
{"type":"Feature","geometry":{"type":"LineString","coordinates":[[-60.4989287,-31.7363524],[-60.4979705,-31.7365088]]},"properties":{"name":"Venturino","highway":"residential"}},
{"type":"Feature","geometry":{"type":"LineString","coordinates":[[-60.4979046,-31.7344365],[-60.4981875,-31.7357696]]},"properties":{"name":"Lerena Diaz","oneway":"yes","highway":"residential"}},
{"type":"Feature","geometry":{"type":"LineString","coordinates":[[-60.4956914,-31.733614],[-60.4955108,-31.7327593],[-60.4953455,-31.7320071],[-60.4951784,-31.7311706]]},"properties":{"name":"Coronel Manuel Baños","highway":"residential"}},
{"type":"Feature","geometry":{"type":"LineString","coordinates":[[-60.4983835,-31.7338078],[-60.4972162,-31.7339983],[-60.4966919,-31.734084],[-60.4954997,-31.734279]]},"properties":{"name":"Gendarmeria Nacional","highway":"residential"}},
{"type":"Feature","geometry":{"type":"LineString","coordinates":[[-60.4922662,-31.7333056],[-60.493432,-31.7330961],[-60.4946044,-31.7328901],[-60.4955108,-31.7327593],[-60.4966087,-31.7325955],[-60.4980764,-31.7323549]]},"properties":{"name":"Guillermo Bonaparte","highway":"residential"}},
{"type":"Feature","geometry":{"type":"LineString","coordinates":[[-60.4989309,-31.7331099],[-60.4991876,-31.7343172],[-60.4994556,-31.7355774]]},"properties":{"name":"Gonzalez Pecotche","oneway":"yes","highway":"residential"}},
{"type":"Feature","geometry":{"type":"LineString","coordinates":[[-60.4976398,-31.7358538],[-60.4973308,-31.7345309],[-60.4972162,-31.7339983]]},"properties":{"name":"A. Villanueva","oneway":"yes","highway":"residential"}},
{"type":"Feature","geometry":{"type":"LineString","coordinates":[[-60.4953706,-31.7336113],[-60.4954997,-31.734279],[-60.4956158,-31.7348132]]},"properties":{"name":"Coronel Baños","highway":"residential"}},
{"type":"Feature","geometry":{"type":"LineString","coordinates":[[-60.4971788,-31.7359247],[-60.4974466,-31.7372725],[-60.4976775,-31.7382284]]},"properties":{"name":"Zaccaro","oneway":"yes","highway":"residential"}},
{"type":"Feature","geometry":{"type":"LineString","coordinates":[[-60.4924253,-31.7340375],[-60.4936016,-31.7338465],[-60.4947814,-31.7336678],[-60.4951124,-31.7336113],[-60.4953706,-31.7336113],[-60.4956914,-31.733614],[-60.496558,-31.7334819],[-60.4967897,-31.7334464],[-60.4982563,-31.7332059],[-60.4988778,-31.7331175],[-60.4989309,-31.7331099],[-60.4995227,-31.7330255]]},"properties":{"name":"Monseñor Dobler","highway":"residential"}},
{"type":"Feature","geometry":{"type":"LineString","coordinates":[[-60.4970205,-31.7385195],[-60.4967531,-31.7373795],[-60.4964994,-31.7361603],[-60.4965404,-31.7360228],[-60.4965563,-31.7359626],[-60.4962818,-31.7347036]]},"properties":{"name":"Salcerini","oneway":"yes","highway":"residential"}},
{"type":"Feature","geometry":{"type":"LineString","coordinates":[[-60.4962805,-31.730986],[-60.4964563,-31.7318218],[-60.4966087,-31.7325955],[-60.4967897,-31.7334464]]},"properties":{"name":"Raúl Zaccaro","highway":"residential"}},
{"type":"Feature","geometry":{"type":"LineString","coordinates":[[-60.496558,-31.7334819],[-60.4966919,-31.734084],[-60.4968114,-31.7346164],[-60.4970815,-31.7359396]]},"properties":{"name":"Raúl Zaccaro","oneway":"yes","highway":"residential"}},
{"type":"Feature","geometry":{"type":"LineString","coordinates":[[-60.4985686,-31.7288565],[-60.4973673,-31.7290509]]},"properties":{"name":"Agrim. S. Satulofky","highway":"residential"}},
{"type":"Feature","geometry":{"type":"LineString","coordinates":[[-60.4986972,-31.7294258],[-60.4974885,-31.7296234]]},"properties":{"name":"Ciudad Hermana de Muscatine","highway":"residential"}},
{"type":"Feature","geometry":{"type":"LineString","coordinates":[[-60.4988239,-31.7299871],[-60.4976024,-31.7301615]]},"properties":{"name":"Doctor E. L. Maradona","highway":"residential"}},
{"type":"Feature","geometry":{"type":"LineString","coordinates":[[-60.5000626,-31.7354863],[-60.4997858,-31.7342246],[-60.4995227,-31.7330255],[-60.4992836,-31.7319904],[-60.4989594,-31.7305869],[-60.4988239,-31.7299871],[-60.4986972,-31.7294258],[-60.4985686,-31.7288565],[-60.4984547,-31.7283482]]},"properties":{"name":"Lavalleja","oneway":"yes","highway":"residential"}},
{"type":"Feature","geometry":{"type":"LineString","coordinates":[[-60.5012161,-31.7525386],[-60.5019822,-31.7533201]]},"properties":{"name":"Scattini","highway":"residential"}},
{"type":"Feature","geometry":{"type":"LineString","coordinates":[[-60.5022616,-31.7519758],[-60.5028833,-31.7521192]]},"properties":{"name":"Confederacion Argentina","oneway":"yes","highway":"residential"}},
{"type":"Feature","geometry":{"type":"LineString","coordinates":[[-60.497579,-31.7535507],[-60.4970419,-31.7510559]]},"properties":{"name":"Secundino Salinas","highway":"residential"}},
{"type":"Feature","geometry":{"type":"LineString","coordinates":[[-60.5017505,-31.756226],[-60.5015803,-31.7553675],[-60.5014364,-31.7545881]]},"properties":{"name":"Miguel Unamuno","highway":"residential"}},
{"type":"Feature","geometry":{"type":"LineString","coordinates":[[-60.5024741,-31.7529909],[-60.5019822,-31.7533201],[-60.5010355,-31.7539535],[-60.5005077,-31.7543066]]},"properties":{"name":"Bartolome Zapata","highway":"residential"}},
{"type":"Feature","geometry":{"type":"LineString","coordinates":[[-60.5036211,-31.7539451],[-60.5027085,-31.7540544]]},"properties":{"name":"Coronel Enriquez","oneway":"yes","highway":"residential"}},
{"type":"Feature","geometry":{"type":"LineString","coordinates":[[-60.5003679,-31.7564432],[-60.5017505,-31.756226],[-60.5031339,-31.7560338]]},"properties":{"name":"Fray Castañeda","highway":"residential"}},
{"type":"Feature","geometry":{"type":"LineString","coordinates":[[-60.4997507,-31.7535262],[-60.5002073,-31.7555725],[-60.5003679,-31.7564432]]},"properties":{"name":"Fray Mocho","highway":"residential"}},
{"type":"Feature","geometry":{"type":"LineString","coordinates":[[-60.4952614,-31.7513315],[-60.4955347,-31.752614]]},"properties":{"highway":"residential"}},
{"type":"Feature","geometry":{"type":"LineString","coordinates":[[-60.4887964,-31.7585926],[-60.4885529,-31.7574216]]},"properties":{"name":"Ovidio Lagos","highway":"residential"}},
{"type":"Feature","geometry":{"type":"LineString","coordinates":[[-60.4913712,-31.7569998],[-60.4913491,-31.7569099]]},"properties":{"name":"Gobernador E. Parera","highway":"residential"}},
{"type":"Feature","geometry":{"type":"LineString","coordinates":[[-60.4626355,-31.7313488],[-60.4635733,-31.7360346],[-60.4645555,-31.7409177],[-60.465585,-31.7457958],[-60.466637,-31.7507149],[-60.4668675,-31.7517742],[-60.4674137,-31.7543905],[-60.4676253,-31.7555691],[-60.4678547,-31.7565714],[-60.4680524,-31.7575211],[-60.4682365,-31.7584823],[-60.4684375,-31.7594639],[-60.4686356,-31.7604418]]},"properties":{"name":"Jorge Luis Borges","highway":"residential"}},
{"type":"Feature","geometry":{"type":"LineString","coordinates":[[-60.484493,-31.7580497],[-60.4847225,-31.7592385]]},"properties":{"name":"Juan Ortiz","highway":"residential"}},
{"type":"Feature","geometry":{"type":"LineString","coordinates":[[-60.480542,-31.743485],[-60.4806514,-31.7439953],[-60.4807448,-31.7444312],[-60.4808461,-31.7449035]]},"properties":{"highway":"residential"}},
{"type":"Feature","geometry":{"type":"LineString","coordinates":[[-60.4815946,-31.7438519],[-60.4806514,-31.7439953],[-60.4797296,-31.744138]]},"properties":{"highway":"residential"}},
{"type":"Feature","geometry":{"type":"LineString","coordinates":[[-60.4816708,-31.7443064],[-60.4807448,-31.7444312],[-60.4800993,-31.7445311]]},"properties":{"highway":"residential"}},
{"type":"Feature","geometry":{"type":"LineString","coordinates":[[-60.4821103,-31.7407739],[-60.4815851,-31.7382288],[-60.4812948,-31.7368634],[-60.481033,-31.7356324],[-60.4808367,-31.7347091],[-60.4806042,-31.7334412],[-60.4803616,-31.7322942],[-60.4803551,-31.7322562],[-60.4801093,-31.7311012],[-60.4800918,-31.7310183],[-60.479815,-31.729766],[-60.4795396,-31.7286057]]},"properties":{"highway":"unclassified"}},
{"type":"Feature","geometry":{"type":"LineString","coordinates":[[-60.4962043,-31.7232957],[-60.4962779,-31.7233448],[-60.4967029,-31.7232862]]},"properties":{"name":"C.A.E.","sport":"golf","leisure":"golf_course"}},
{"type":"Feature","geometry":{"type":"LineString","coordinates":[[-60.4831672,-31.7379731],[-60.4830312,-31.7383227],[-60.4829368,-31.7386414],[-60.4828896,-31.7389955],[-60.4828394,-31.7391873],[-60.4827243,-31.7394411],[-60.4825119,-31.7398366],[-60.4823436,-31.7401877],[-60.4821725,-31.7405861],[-60.4821103,-31.7407739],[-60.4818508,-31.7415836],[-60.4816767,-31.7422387],[-60.4815646,-31.7427788],[-60.4815363,-31.7433576],[-60.4815946,-31.7438519],[-60.4816608,-31.7442467],[-60.4816708,-31.7443064],[-60.4817387,-31.7447117],[-60.4817092,-31.7447707],[-60.4808461,-31.7449035],[-60.4802513,-31.744995]]},"properties":{"highway":"residential"}},
{"type":"Feature","geometry":{"type":"LineString","coordinates":[[-60.4932721,-31.7294263],[-60.4929295,-31.7296734],[-60.4927128,-31.7298116],[-60.4922029,-31.7301951],[-60.4919536,-31.7304028],[-60.4917322,-31.7305131],[-60.491612,-31.7305337],[-60.4911471,-31.7307277],[-60.4907882,-31.7308844],[-60.4905578,-31.7309977],[-60.4903293,-31.7310997],[-60.4900479,-31.7312149],[-60.4897846,-31.731294]]},"properties":{"ref":"RN168","oneway":"yes","highway":"trunk_link"}},
{"type":"Feature","geometry":{"type":"LineString","coordinates":[[-60.4896429,-31.7312585],[-60.4898533,-31.7310147],[-60.4902934,-31.730603],[-60.4905994,-31.7303254],[-60.4908128,-31.7301705],[-60.4911943,-31.729976],[-60.4914719,-31.7298328],[-60.4915803,-31.7297846],[-60.4919082,-31.7296341],[-60.4922765,-31.7294679],[-60.4925428,-31.729381],[-60.4928337,-31.729313],[-60.4930282,-31.7292809],[-60.4933153,-31.7292129],[-60.4934821,-31.7291864]]},"properties":{"ref":"RN168","oneway":"yes","highway":"trunk_link"}},
{"type":"Feature","geometry":{"type":"LineString","coordinates":[[-60.4855926,-31.729491],[-60.4851731,-31.7276836],[-60.4848907,-31.7261857]]},"properties":{"highway":"unclassified"}},
{"type":"Feature","geometry":{"type":"LineString","coordinates":[[-60.4996078,-31.739591],[-60.4981921,-31.7398526]]},"properties":{"name":"Batalla del Cerrito","highway":"residential"}},
{"type":"Feature","geometry":{"type":"LineString","coordinates":[[-60.4959972,-31.7460951],[-60.495444,-31.7435599]]},"properties":{"name":"Profesor Gumersindo Aguer","highway":"residential"}},
{"type":"Feature","geometry":{"type":"LineString","coordinates":[[-60.4957974,-31.736137],[-60.4960865,-31.7374835],[-60.4963896,-31.7387783]]},"properties":{"name":"Vasquez","highway":"residential"}},
{"type":"Feature","geometry":{"type":"LineString","coordinates":[[-60.4991625,-31.7374044],[-60.4982915,-31.7378562],[-60.4982929,-31.7379779],[-60.4978039,-31.7382136],[-60.4976775,-31.7382284],[-60.4970205,-31.7385195],[-60.4963896,-31.7387783],[-60.4963099,-31.7388089],[-60.495789,-31.7388269],[-60.4956733,-31.7388657],[-60.4950439,-31.7390943],[-60.4947857,-31.7391819],[-60.4946616,-31.7392118],[-60.4945321,-31.7392281],[-60.4943061,-31.7392234],[-60.4938312,-31.7392281],[-60.4936652,-31.7392557],[-60.4935353,-31.7392857]]},"properties":{"name":"Jechesfield","highway":"residential"}},
{"type":"Feature","geometry":{"type":"LineString","coordinates":[[-60.5004591,-31.7403993],[-60.5000008,-31.7383335],[-60.4999316,-31.7382597],[-60.4993661,-31.7383204]]},"properties":{"name":"Benjamin Gorostiaga","highway":"residential"}},
{"type":"Feature","geometry":{"type":"LineString","coordinates":[[-60.4992305,-31.745594],[-60.4988353,-31.7438311],[-60.4987253,-31.7433329],[-60.4986727,-31.7430949]]},"properties":{"name":"Gaspar Benavento","highway":"residential"}},
{"type":"Feature","geometry":{"type":"LineString","coordinates":[[-60.4993444,-31.7424063],[-60.4994717,-31.7430504],[-60.4996007,-31.7437023],[-60.4999836,-31.7454773]]},"properties":{"name":"Benjamín Lavaise","highway":"residential"}},
{"type":"Feature","geometry":{"type":"LineString","coordinates":[[-60.4950656,-31.7362495],[-60.4953594,-31.7375987],[-60.4956733,-31.7388657]]},"properties":{"name":"Sosa y Loyola","highway":"residential"}},
{"type":"Feature","geometry":{"type":"LineString","coordinates":[[-60.4965215,-31.7475356],[-60.4964236,-31.747085],[-60.4963546,-31.7467677]]},"properties":{"name":"Enrique Grossman","highway":"residential"}},
{"type":"Feature","geometry":{"type":"LineString","coordinates":[[-60.4937153,-31.7364571],[-60.4939831,-31.7378248],[-60.4943061,-31.7392234]]},"properties":{"name":"P. Damonte","highway":"residential"}},
{"type":"Feature","geometry":{"type":"LineString","coordinates":[[-60.4944467,-31.7363447],[-60.4947147,-31.7377009],[-60.4950439,-31.7390943]]},"properties":{"name":"Magallanes","highway":"residential"}},
{"type":"Feature","geometry":{"type":"LineString","coordinates":[[-60.5003277,-31.7429058],[-60.4994717,-31.7430504]]},"properties":{"name":"Luciano Torrent","highway":"residential"}},
{"type":"Feature","geometry":{"type":"LineString","coordinates":[[-60.4532406,-31.7427042],[-60.454364,-31.7425268],[-60.4546727,-31.7424781],[-60.4554639,-31.7423529],[-60.456178,-31.7422411],[-60.4568256,-31.7421392],[-60.4574472,-31.7420401],[-60.4581583,-31.7419279],[-60.4589009,-31.7418105],[-60.4645555,-31.7409177],[-60.4702111,-31.7400247],[-60.4758597,-31.7391328],[-60.4772672,-31.7389106],[-60.4777482,-31.7388346],[-60.4787309,-31.7386795],[-60.4799132,-31.7384928],[-60.4815851,-31.7382288]]},"properties":{"highway":"residential"}},
{"type":"Feature","geometry":{"type":"LineString","coordinates":[[-60.4712606,-31.7449656],[-60.4702111,-31.7400247],[-60.4691872,-31.7351651],[-60.4682278,-31.730577]]},"properties":{"highway":"residential"}},
{"type":"Feature","geometry":{"type":"LineString","coordinates":[[-60.5001675,-31.7504905],[-60.500272,-31.7509254],[-60.5003891,-31.7512872],[-60.5005655,-31.7515508],[-60.5007438,-31.7518433]]},"properties":{"name":"Las Tunas","lanes":"1","oneway":"yes","highway":"residential","surface":"asphalt","maxspeed":"30"}},
{"type":"Feature","geometry":{"type":"LineString","coordinates":[[-60.5007438,-31.7518433],[-60.5008963,-31.7521931],[-60.5010298,-31.7525077]]},"properties":{"name":"Las Tunas","oneway":"yes","highway":"residential","maxspeed":"30"}},
{"type":"Feature","geometry":{"type":"LineString","coordinates":[[-60.4978891,-31.7547942],[-60.498173,-31.7552907],[-60.4984452,-31.7557833]]},"properties":{"name":"Bradsen","highway":"residential"}},
{"type":"Feature","geometry":{"type":"LineString","coordinates":[[-60.497076,-31.7559341],[-60.4969635,-31.7554012],[-60.4969371,-31.7552759]]},"properties":{"name":"Avenida Zanni","highway":"secondary","maxspeed":"50","short_name":"Zanni"}},
{"type":"Feature","geometry":{"type":"LineString","coordinates":[[-60.4502945,-31.7381168],[-60.4506583,-31.7378879],[-60.4509864,-31.737679],[-60.4512693,-31.7374919],[-60.4519943,-31.7369122],[-60.4524196,-31.7365721],[-60.4530074,-31.736151],[-60.456129,-31.7338613],[-60.4569849,-31.7332336],[-60.4570874,-31.7331622],[-60.4573339,-31.7329852],[-60.4578996,-31.7326022],[-60.4584121,-31.7322702],[-60.4587144,-31.7321229],[-60.4590076,-31.7319782],[-60.4593536,-31.7318256],[-60.4596527,-31.7317294],[-60.4600086,-31.7316109],[-60.4604163,-31.7315196],[-60.4609364,-31.7314437],[-60.4615004,-31.7313475],[-60.4625044,-31.7311969],[-60.4664052,-31.7305912],[-60.4688688,-31.7302175],[-60.4739036,-31.7295025],[-60.4760098,-31.7292052],[-60.476714,-31.7291085],[-60.4773875,-31.7289454],[-60.4786384,-31.7286416],[-60.4795043,-31.7284635],[-60.4795446,-31.7284548],[-60.4804618,-31.728376],[-60.4810138,-31.7283828],[-60.4817819,-31.7284559],[-60.4822191,-31.7285207],[-60.4826866,-31.7286328],[-60.4831988,-31.728788],[-60.48372,-31.7290156],[-60.4841646,-31.7292504],[-60.484678,-31.7295564],[-60.485127,-31.7299273],[-60.4853827,-31.7301869],[-60.4858099,-31.7305698],[-60.4865345,-31.7313696],[-60.4874211,-31.7322722],[-60.4874881,-31.7323775]]},"properties":{"ref":"RN168","name":"Acceso Norte","oneway":"yes","highway":"trunk","maxspeed":"110"}},
{"type":"Feature","geometry":{"type":"LineString","coordinates":[[-60.4626406,-31.7563226],[-60.4624827,-31.7558047],[-60.4620271,-31.7544579],[-60.4618149,-31.7540213],[-60.4615024,-31.753543],[-60.4613517,-31.7533127],[-60.4611873,-31.7526217],[-60.4609408,-31.7515861],[-60.4599283,-31.7466669],[-60.4595192,-31.7446375],[-60.4591966,-31.7431801],[-60.4589009,-31.7418105],[-60.4581266,-31.7381982],[-60.4578612,-31.7369257],[-60.4571007,-31.7333136]]},"properties":{"name":"Pedro Londero","highway":"residential","surface":"unpaved"}},
{"type":"Feature","geometry":{"type":"LineString","coordinates":[[-60.4629569,-31.7532845],[-60.4639923,-31.7531268],[-60.4657864,-31.7528308]]},"properties":{"name":"Los Alelies","highway":"residential"}},
{"type":"Feature","geometry":{"type":"LineString","coordinates":[[-60.4631327,-31.7541547],[-60.4641713,-31.7539997],[-60.4659751,-31.7537305]]},"properties":{"name":"Las Marimoñas","highway":"residential"}},
{"type":"Feature","geometry":{"type":"LineString","coordinates":[[-60.463146,-31.7550804],[-60.4633018,-31.7550565],[-60.4643549,-31.7548949],[-60.4661715,-31.754616]]},"properties":{"name":"Las Madreselvas","highway":"residential"}},
{"type":"Feature","geometry":{"type":"LineString","coordinates":[[-60.4638085,-31.7522306],[-60.4639923,-31.7531268],[-60.4641713,-31.7539997],[-60.4643549,-31.7548949],[-60.4645858,-31.7560207]]},"properties":{"highway":"residential"}},
{"type":"Feature","geometry":{"type":"LineString","coordinates":[[-60.4656154,-31.7519532],[-60.4657864,-31.7528308],[-60.4659751,-31.7537305],[-60.4661715,-31.754616],[-60.4664218,-31.7557356]]},"properties":{"name":"Las Orquideas","highway":"residential"}},
{"type":"Feature","geometry":{"type":"LineString","coordinates":[[-60.4668675,-31.7517742],[-60.4656154,-31.7519532],[-60.4652662,-31.7520102],[-60.4638085,-31.7522306],[-60.4627948,-31.7523802],[-60.4611873,-31.7526217]]},"properties":{"name":"Los Junquillos","highway":"residential"}},
{"type":"Feature","geometry":{"type":"LineString","coordinates":[[-60.4917752,-31.7299898],[-60.4934821,-31.7291864],[-60.4959712,-31.7280149],[-60.4982395,-31.726963]]},"properties":{"ref":"RN168","oneway":"yes","highway":"trunk","maxspeed":"60"}},
{"type":"Feature","geometry":{"type":"LineString","coordinates":[[-60.4913998,-31.7303168],[-60.4903094,-31.7309161],[-60.4901391,-31.7310286],[-60.4899458,-31.7311625],[-60.4897846,-31.731294],[-60.4897587,-31.7313151],[-60.4895843,-31.7314545],[-60.4876962,-31.7331774]]},"properties":{"ref":"RN168","oneway":"yes","highway":"trunk"}},
{"type":"Feature","geometry":{"type":"LineString","coordinates":[[-60.4918066,-31.730129],[-60.4913998,-31.7303168]]},"properties":{"ref":"RN168","layer":"1","bridge":"yes","oneway":"yes","highway":"trunk"}},
{"type":"Feature","geometry":{"type":"LineString","coordinates":[[-60.4913519,-31.7302089],[-60.4917752,-31.7299898]]},"properties":{"ref":"RN168","layer":"1","bridge":"yes","oneway":"yes","highway":"trunk"}},
{"type":"Feature","geometry":{"type":"LineString","coordinates":[[-60.4876962,-31.7331774],[-60.4864078,-31.7343151],[-60.4861574,-31.7345811],[-60.4859436,-31.7348399],[-60.4858104,-31.7349976],[-60.4857193,-31.7351053],[-60.4854141,-31.7355357],[-60.484736,-31.7367475],[-60.4841338,-31.7378235],[-60.4828396,-31.7403544],[-60.4824955,-31.741079],[-60.4823702,-31.7414791],[-60.4822875,-31.7418139],[-60.4821755,-31.7425318],[-60.4821158,-31.743271],[-60.4821074,-31.7434708],[-60.4822115,-31.7445629],[-60.4823275,-31.7457945],[-60.4823755,-31.7465021],[-60.4823515,-31.7469104],[-60.4822995,-31.7473765],[-60.4821514,-31.7479582],[-60.482063,-31.7482624],[-60.4819514,-31.7485332],[-60.4816754,-31.74904],[-60.4812033,-31.7498055],[-60.4807552,-31.7505369],[-60.4803712,-31.7511731],[-60.4800271,-31.751765],[-60.4797871,-31.7523773],[-60.479607,-31.7530543],[-60.4794624,-31.7537317],[-60.4788502,-31.7567533]]},"properties":{"name":"Circunvalación","oneway":"yes","highway":"primary"}},
{"type":"Feature","geometry":{"type":"LineString","coordinates":[[-60.4788502,-31.7567533],[-60.4788612,-31.7578119],[-60.4786695,-31.7588368],[-60.4786498,-31.7589367]]},"properties":{"name":"Circunvalación","oneway":"yes","highway":"primary"}},
{"type":"Feature","geometry":{"type":"LineString","coordinates":[[-60.46574,-31.7607471],[-60.4659624,-31.7609556]]},"properties":{"ref":"U-15","name":"FC Urquiza","gauge":"1435","layer":"1","bridge":"yes","network":"Urquiza","railway":"rail","description":"Urquiza","electrified":"no","passenger_lines":"1"}},
{"type":"Feature","geometry":{"type":"LineString","coordinates":[[-60.478368,-31.7588259],[-60.4783028,-31.759106]]},"properties":{"layer":"1","bridge":"yes","oneway":"yes","highway":"construction","construction":"motorway"}},
{"type":"Feature","geometry":{"type":"LineString","coordinates":[[-60.4781601,-31.7591295],[-60.4782213,-31.7588378]]},"properties":{"layer":"1","bridge":"yes","oneway":"yes","highway":"construction","construction":"motorway"}},
{"type":"Feature","geometry":{"type":"LineString","coordinates":[[-60.4788502,-31.7567533],[-60.478368,-31.7588259]]},"properties":{"oneway":"yes","highway":"construction","construction":"motorway"}},
{"type":"Feature","geometry":{"type":"LineString","coordinates":[[-60.4782213,-31.7588378],[-60.4786542,-31.7567729]]},"properties":{"oneway":"yes","highway":"construction","construction":"motorway"}},
{"type":"Feature","geometry":{"type":"LineString","coordinates":[[-60.4786542,-31.7567729],[-60.4793314,-31.7537391],[-60.4794765,-31.7530387],[-60.4796614,-31.7523545],[-60.4799149,-31.7517158],[-60.4802662,-31.7511228],[-60.4806272,-31.7505001],[-60.4810673,-31.7497783],[-60.4815581,-31.7490062],[-60.4818341,-31.7484976],[-60.4819227,-31.748291],[-60.4819414,-31.7482],[-60.4820085,-31.7479536],[-60.4821385,-31.7473708],[-60.4822122,-31.7469089],[-60.4822362,-31.7464983],[-60.4821825,-31.7458232],[-60.4820859,-31.7445732],[-60.4819801,-31.7434693],[-60.4819743,-31.7432921],[-60.4819911,-31.7428961],[-60.4820194,-31.742508],[-60.4821238,-31.7417883],[-60.4822354,-31.7414015],[-60.4823556,-31.7410292],[-60.4827091,-31.740291],[-60.4839747,-31.737844],[-60.4845641,-31.7367727],[-60.485341,-31.7354679],[-60.4856298,-31.7350645],[-60.486083,-31.7345217],[-60.4863171,-31.7342577],[-60.4865013,-31.7340822],[-60.4867698,-31.7338265],[-60.489159,-31.731662]]},"properties":{"name":"Circunvalación","oneway":"yes","highway":"primary"}},
{"type":"Feature","geometry":{"type":"LineString","coordinates":[[-60.4855712,-31.7393221],[-60.4856184,-31.7395204],[-60.4857661,-31.7402895],[-60.4858686,-31.7407642],[-60.4859681,-31.7412254],[-60.486066,-31.7416791],[-60.4861641,-31.7421332],[-60.4862667,-31.7426087]]},"properties":{"name":"Islas del Ibicuy","oneway":"no","highway":"residential"}},
{"type":"Feature","geometry":{"type":"LineString","coordinates":[[-60.4874413,-31.7419328],[-60.4861641,-31.7421332],[-60.4845325,-31.7423892]]},"properties":{"name":"Chubut","oneway":"no","highway":"residential"}},
{"type":"Feature","geometry":{"type":"LineString","coordinates":[[-60.4835667,-31.741138],[-60.4842433,-31.7410281],[-60.4858686,-31.7407642]]},"properties":{"oneway":"no","highway":"residential"}},
{"type":"Feature","geometry":{"type":"LineString","coordinates":[[-60.4885443,-31.7437708],[-60.4879375,-31.743868],[-60.487863,-31.7438799],[-60.4873863,-31.7439562],[-60.4861871,-31.7441444],[-60.4860493,-31.7441692],[-60.4849507,-31.744336]]},"properties":{"name":"1058","highway":"residential"}},
{"type":"Feature","geometry":{"type":"LineString","coordinates":[[-60.4876597,-31.7429537],[-60.4858481,-31.7432506],[-60.484756,-31.7434296]]},"properties":{"name":"Tierra del Fuego","oneway":"no","highway":"residential"}},
{"type":"Feature","geometry":{"type":"LineString","coordinates":[[-60.4873432,-31.7414802],[-60.4874413,-31.7419328],[-60.4875442,-31.742408],[-60.4876597,-31.7429537],[-60.4877663,-31.743437],[-60.487863,-31.7438799]]},"properties":{"name":"Departamento Federal","oneway":"no","highway":"residential"}},
{"type":"Feature","geometry":{"type":"LineString","coordinates":[[-60.4880089,-31.741384],[-60.4873432,-31.7414802],[-60.486066,-31.7416791],[-60.4844345,-31.7419332]]},"properties":{"name":"La Pampa","oneway":"no","bicycle":"yes","highway":"residential"}},
{"type":"Feature","geometry":{"type":"LineString","coordinates":[[-60.484137,-31.7405252],[-60.4842433,-31.7410281],[-60.4843389,-31.7414808],[-60.4844345,-31.7419332],[-60.4845325,-31.7423892],[-60.4846347,-31.7428652],[-60.484756,-31.7434296],[-60.4848525,-31.7438788],[-60.4849507,-31.744336],[-60.4850352,-31.7447545],[-60.4850967,-31.7450591],[-60.4851331,-31.7452392],[-60.4852403,-31.7457319]]},"properties":{"name":"Provincia de Entre Ríos","oneway":"no","highway":"residential"}},
{"type":"Feature","geometry":{"type":"LineString","coordinates":[[-60.483674,-31.7415851],[-60.4843389,-31.7414808],[-60.4859681,-31.7412254]]},"properties":{"name":"Doctor A. Sabattini","oneway":"no","highway":"residential"}},
{"type":"Feature","geometry":{"type":"LineString","coordinates":[[-60.4877663,-31.743437],[-60.4873191,-31.7435048],[-60.4859478,-31.7437127],[-60.4848525,-31.7438788],[-60.4839671,-31.744013],[-60.4828049,-31.7441892]]},"properties":{"name":"Bruno Alarcón","oneway":"no","highway":"residential"}},
{"type":"Feature","geometry":{"type":"LineString","coordinates":[[-60.487708,-31.7400021],[-60.4857661,-31.7402895],[-60.484137,-31.7405252],[-60.4831263,-31.7406732]]},"properties":{"name":"Gualeguay","oneway":"no","bicycle":"yes","highway":"residential"}},
{"type":"Feature","geometry":{"type":"LineString","coordinates":[[-60.4940686,-31.7449166],[-60.4942283,-31.7449555],[-60.494274,-31.7450431],[-60.4943413,-31.7453674],[-60.4943947,-31.7456247],[-60.4943347,-31.7458217],[-60.4941637,-31.7463826]]},"properties":{"name":"Calle 1202","highway":"residential"}},
{"type":"Feature","geometry":{"type":"LineString","coordinates":[[-60.4848934,-31.7396136],[-60.4856184,-31.7395204],[-60.4875336,-31.7392553],[-60.4892505,-31.738989]]},"properties":{"name":"Juan de la Lamadrid","highway":"residential"}},
{"type":"Feature","geometry":{"type":"LineString","coordinates":[[-60.4929469,-31.7465693],[-60.4928372,-31.7460549]]},"properties":{"name":"Juan Manuel de Rosas","highway":"residential"}},
{"type":"Feature","geometry":{"type":"LineString","coordinates":[[-60.4837515,-31.7430074],[-60.4839671,-31.744013],[-60.4840674,-31.744481],[-60.4841564,-31.7448959],[-60.4842591,-31.7453752],[-60.4843659,-31.7458732],[-60.4844221,-31.7459989],[-60.4844922,-31.7462473],[-60.4845382,-31.7464263],[-60.4847024,-31.7470935]]},"properties":{"highway":"residential"}},
{"type":"Feature","geometry":{"type":"LineString","coordinates":[[-60.488116,-31.7473091],[-60.4879576,-31.7465852],[-60.487806,-31.7458927],[-60.4876848,-31.7453433],[-60.4875409,-31.7446743],[-60.4873863,-31.7439562],[-60.4873191,-31.7435048]]},"properties":{"name":"Isla Gran Malvina","highway":"residential"}},
{"type":"Feature","geometry":{"type":"LineString","coordinates":[[-60.4851331,-31.7452392],[-60.4842591,-31.7453752],[-60.4836847,-31.7454696],[-60.4830975,-31.745556]]},"properties":{"highway":"residential"}},
{"type":"Feature","geometry":{"type":"LineString","coordinates":[[-60.4850352,-31.7447545],[-60.4841564,-31.7448959]]},"properties":{"highway":"residential"}},
{"type":"Feature","geometry":{"type":"LineString","coordinates":[[-60.4836847,-31.7454696],[-60.4834917,-31.7445732]]},"properties":{"highway":"residential"}},
{"type":"Feature","geometry":{"type":"LineString","coordinates":[[-60.4880025,-31.7413193],[-60.4897287,-31.7410564]]},"properties":{"highway":"residential"}},
{"type":"Feature","geometry":{"type":"LineString","coordinates":[[-60.4874162,-31.7387448],[-60.4891204,-31.7384999]]},"properties":{"name":"Dean Funes","highway":"residential"}},
{"type":"Feature","geometry":{"type":"LineString","coordinates":[[-60.4852403,-31.7457319],[-60.4843659,-31.7458732],[-60.4832016,-31.7460423],[-60.4827221,-31.7461303]]},"properties":{"highway":"residential"}},
{"type":"Feature","geometry":{"type":"LineString","coordinates":[[-60.4849507,-31.744336],[-60.4840674,-31.744481],[-60.4834917,-31.7445732],[-60.4829071,-31.7446668]]},"properties":{"highway":"residential"}},
{"type":"Feature","geometry":{"type":"LineString","coordinates":[[-60.4883765,-31.7457996],[-60.4882481,-31.7452568],[-60.488196,-31.7450237],[-60.4879375,-31.743868]]},"properties":{"name":"Departamento Federal","highway":"residential"}},
{"type":"Feature","geometry":{"type":"LineString","coordinates":[[-60.4888327,-31.7451722],[-60.4882481,-31.7452568],[-60.4876848,-31.7453433],[-60.4863568,-31.7455502],[-60.4852403,-31.7457319]]},"properties":{"highway":"residential"}},
{"type":"Feature","geometry":{"type":"LineString","coordinates":[[-60.4806109,-31.7415896],[-60.4803566,-31.7405286],[-60.4802085,-31.7398651],[-60.4800669,-31.7392102],[-60.4799132,-31.7384928]]},"properties":{"oneway":"no","highway":"residential"}},
{"type":"Feature","geometry":{"type":"LineString","coordinates":[[-60.4800669,-31.7392102],[-60.4788763,-31.7393997],[-60.4779018,-31.7395412]]},"properties":{"oneway":"no","highway":"residential"}},
{"type":"Feature","geometry":{"type":"LineString","coordinates":[[-60.48118,-31.7397246],[-60.4802085,-31.7398651],[-60.4790337,-31.7400704],[-60.4780413,-31.7402072]]},"properties":{"oneway":"no","highway":"residential"}},
{"type":"Feature","geometry":{"type":"LineString","coordinates":[[-60.4784168,-31.7419636],[-60.4781915,-31.7408687],[-60.4780413,-31.7402072],[-60.4779018,-31.7395412],[-60.4777482,-31.7388346]]},"properties":{"name":"1679","oneway":"no","highway":"residential"}},
{"type":"Feature","geometry":{"type":"LineString","coordinates":[[-60.4793846,-31.7417823],[-60.4791786,-31.7407182],[-60.4790337,-31.7400704],[-60.4788763,-31.7393997],[-60.4787309,-31.7386795]]},"properties":{"oneway":"no","highway":"residential"}},
{"type":"Feature","geometry":{"type":"LineString","coordinates":[[-60.483674,-31.7415851],[-60.4836498,-31.7415805],[-60.4835988,-31.741544],[-60.4835264,-31.7412156],[-60.4835345,-31.7411608],[-60.4835667,-31.741138]]},"properties":{"oneway":"no","highway":"residential"}},
{"type":"Feature","geometry":{"type":"LineString","coordinates":[[-60.4809876,-31.740431],[-60.4803566,-31.7405286],[-60.4791786,-31.7407182],[-60.4781915,-31.7408687],[-60.4776881,-31.740937]]},"properties":{"oneway":"no","highway":"residential"}},
{"type":"Feature","geometry":{"type":"LineString","coordinates":[[-60.4844345,-31.7419332],[-60.483564,-31.742039],[-60.4827174,-31.7418464]]},"properties":{"oneway":"no","highway":"residential"}},
{"type":"Feature","geometry":{"type":"LineString","coordinates":[[-60.4806109,-31.7415896],[-60.4793846,-31.7417823],[-60.4784168,-31.7419636]]},"properties":{"oneway":"no","highway":"residential"}},
{"type":"Feature","geometry":{"type":"LineString","coordinates":[[-60.496028,-31.7559025],[-60.4950896,-31.7547012],[-60.4943383,-31.7538882]]},"properties":{"name":"Los Naranjos","highway":"residential"}},
{"type":"Feature","geometry":{"type":"LineString","coordinates":[[-60.4954717,-31.7562636],[-60.495507,-31.7563442]]},"properties":{"name":"Alejandro Carbo","oneway":"no","highway":"residential"}},
{"type":"Feature","geometry":{"type":"LineString","coordinates":[[-60.485728,-31.7578514],[-60.4857116,-31.7577676],[-60.4855577,-31.7570479],[-60.4854424,-31.7565091],[-60.4853629,-31.7561378],[-60.4852403,-31.7555652],[-60.4849259,-31.7540964],[-60.4846771,-31.7529345],[-60.4845438,-31.752312],[-60.4843439,-31.7513783],[-60.4842333,-31.7508615],[-60.4840785,-31.7501386],[-60.4839234,-31.7494142],[-60.4836246,-31.7480184],[-60.4834715,-31.747303],[-60.4832016,-31.7460423],[-60.4830975,-31.745556],[-60.4829071,-31.7446668],[-60.4828049,-31.7441892],[-60.4825902,-31.7432001]]},"properties":{"name":"López Jordan","highway":"residential"}},
{"type":"Feature","geometry":{"type":"LineString","coordinates":[[-60.4987788,-31.7507473],[-60.499032,-31.7517774],[-60.4994944,-31.7522799]]},"properties":{"name":"Osvaldo Magnasco","oneway":"no","highway":"residential"}},
{"type":"Feature","geometry":{"type":"LineString","coordinates":[[-60.4925274,-31.7567307],[-60.4923047,-31.7556631],[-60.4920053,-31.7543931],[-60.4917335,-31.7531777],[-60.4914963,-31.7519789],[-60.4914858,-31.751872],[-60.4917117,-31.7510947],[-60.492102,-31.7501282],[-60.4924715,-31.7491807]]},"properties":{"name":"Los Sauces","highway":"residential"}},
{"type":"Feature","geometry":{"type":"LineString","coordinates":[[-60.499032,-31.7517774],[-60.4985529,-31.7521175],[-60.4982335,-31.7521534]]},"properties":{"name":"Luís Viale","oneway":"no","highway":"residential"}},
{"type":"Feature","geometry":{"type":"LineString","coordinates":[[-60.5013643,-31.7434552],[-60.5017409,-31.7452071]]},"properties":{"name":"Pedro Vargas","highway":"residential"}},
{"type":"Feature","geometry":{"type":"LineString","coordinates":[[-60.5027938,-31.7543897],[-60.5014364,-31.7545881]]},"properties":{"highway":"residential"}},
{"type":"Feature","geometry":{"type":"LineString","coordinates":[[-60.5028833,-31.7521192],[-60.5031969,-31.7521007]]},"properties":{"oneway":"yes","highway":"residential"}},
{"type":"Feature","geometry":{"type":"LineString","coordinates":[[-60.4689339,-31.7304811],[-60.4687873,-31.7304578],[-60.4687341,-31.7304478],[-60.4687009,-31.7304124],[-60.4686911,-31.7303641],[-60.4687074,-31.7303229],[-60.4687753,-31.730264],[-60.4688688,-31.7302175]]},"properties":{"ref":"RN168","oneway":"yes","highway":"trunk_link"}},
{"type":"Feature","geometry":{"type":"LineString","coordinates":[[-60.4795043,-31.7284635],[-60.4791408,-31.7266858]]},"properties":{"highway":"unclassified"}},
{"type":"Feature","geometry":{"type":"LineString","coordinates":[[-60.456129,-31.7338613],[-60.4560049,-31.733441],[-60.4560043,-31.733013],[-60.4559834,-31.732711],[-60.4560687,-31.7325203],[-60.4563798,-31.7325203],[-60.4564978,-31.732721],[-60.4565856,-31.7328342],[-60.4566695,-31.7329583],[-60.4567875,-31.7331134],[-60.4569849,-31.7332336]]},"properties":{"highway":"service"}},
{"type":"Feature","geometry":{"type":"LineString","coordinates":[[-60.4565856,-31.7328342],[-60.4560043,-31.733013]]},"properties":{"highway":"service"}},
{"type":"Feature","geometry":{"type":"LineString","coordinates":[[-60.4502945,-31.7381168],[-60.4502079,-31.7381612],[-60.4499625,-31.7382639],[-60.4496969,-31.7383654],[-60.4493979,-31.7384624],[-60.4490653,-31.738557],[-60.4487004,-31.7386352],[-60.4483622,-31.7386877],[-60.4479409,-31.738753]]},"properties":{"ref":"RN168","name":"Acceso Norte","oneway":"no","highway":"trunk","maxspeed":"110"}},
{"type":"Feature","geometry":{"type":"LineString","coordinates":[[-60.4540852,-31.7381114],[-60.4539138,-31.7378719],[-60.453706,-31.7375558],[-60.4533016,-31.7369869],[-60.4531636,-31.7368733],[-60.4530594,-31.7368328],[-60.4529342,-31.7368079],[-60.452739,-31.7368281]]},"properties":{"oneway":"yes","highway":"secondary"}},
{"type":"Feature","geometry":{"type":"LineString","coordinates":[[-60.4532004,-31.7365028],[-60.4532475,-31.7366529],[-60.4532991,-31.7368108],[-60.4533689,-31.7369545],[-60.4537591,-31.7375465],[-60.4539523,-31.7378681],[-60.4540852,-31.7381114]]},"properties":{"oneway":"yes","highway":"secondary"}},
{"type":"Feature","geometry":{"type":"LineString","coordinates":[[-60.4570874,-31.7331622],[-60.4566062,-31.7306811]]},"properties":{"highway":"unclassified"}},
{"type":"Feature","geometry":{"type":"LineString","coordinates":[[-60.4530074,-31.736151],[-60.4530703,-31.736143],[-60.4531603,-31.7361363],[-60.4532553,-31.7361789],[-60.4533045,-31.7362643],[-60.4533044,-31.7363695]]},"properties":{"ref":"RN168","oneway":"yes","highway":"trunk_link"}},
{"type":"Feature","geometry":{"type":"LineString","coordinates":[[-60.4664052,-31.7305912],[-60.4664779,-31.7306055],[-60.4665259,-31.7306383],[-60.4665474,-31.7306634],[-60.4665591,-31.7306882],[-60.4665534,-31.7307256],[-60.4665316,-31.7307481],[-60.4664547,-31.7308111]]},"properties":{"ref":"RN168","oneway":"yes","highway":"trunk_link"}},
{"type":"Feature","geometry":{"type":"LineString","coordinates":[[-60.483057,-31.7594463],[-60.4828023,-31.7583105]]},"properties":{"name":"Carlos Mastronardi","highway":"residential"}},
{"type":"Feature","geometry":{"type":"LineString","coordinates":[[-60.4819227,-31.748291],[-60.482063,-31.7482624],[-60.4825432,-31.7481873],[-60.4827833,-31.7481497],[-60.4836246,-31.7480184],[-60.4858303,-31.7476743],[-60.4867957,-31.747521],[-60.4872118,-31.7474563],[-60.488116,-31.7473091],[-60.4892419,-31.7471421],[-60.489976,-31.7470282],[-60.4904979,-31.7469487],[-60.4906462,-31.7469254],[-60.4913502,-31.7468153],[-60.491672199999999,-31.7467629],[-60.492567,-31.746627],[-60.4929469,-31.7465693],[-60.4938124,-31.7464337],[-60.4941637,-31.7463826],[-60.4950249,-31.7462611],[-60.4959972,-31.7460951],[-60.4968821,-31.745958],[-60.4984672,-31.7457123],[-60.498912,-31.7456434],[-60.4992305,-31.745594],[-60.4999836,-31.7454773],[-60.5008721,-31.7453396],[-60.5017409,-31.7452071]]},"properties":{"name":"Churruarín","oneway":"no","highway":"tertiary","maxspeed":"50"}},
{"type":"Feature","geometry":{"type":"LineString","coordinates":[[-60.4975477,-31.7430598],[-60.4993444,-31.7424063],[-60.5001572,-31.7421107]]},"properties":{"name":"José Salvarini","highway":"residential"}},
{"type":"Feature","geometry":{"type":"LineString","coordinates":[[-60.4982763,-31.7446875],[-60.4981224,-31.744054],[-60.4980042,-31.743567],[-60.4977552,-31.7435532],[-60.4976784,-31.7435133],[-60.4976077,-31.7434472],[-60.497565,-31.7433619],[-60.4975098,-31.7431349],[-60.4975477,-31.7430598]]},"properties":{"name":"Juan Carlos Alles","highway":"residential"}},
{"type":"Feature","geometry":{"type":"LineString","coordinates":[[-60.4987253,-31.7433329],[-60.4984837,-31.743401],[-60.4980042,-31.743567]]},"properties":{"name":"Luciano Torrent","highway":"residential"}},
{"type":"Feature","geometry":{"type":"LineString","coordinates":[[-60.4983703,-31.7407481],[-60.4982809,-31.741114],[-60.4981333,-31.7415659],[-60.4981245,-31.7417012],[-60.4981794,-31.7418102],[-60.4983546,-31.7419025]]},"properties":{"name":"Tratado del Cuadrilatero","highway":"residential"}},
{"type":"Feature","geometry":{"type":"LineString","coordinates":[[-60.4997858,-31.7342246],[-60.4991876,-31.7343172],[-60.4985142,-31.7344262]]},"properties":{"name":"Alvarez Nuñez Cabeza de Vaca","highway":"residential"}},
{"type":"Feature","geometry":{"type":"LineString","coordinates":[[-60.4983703,-31.7407481],[-60.4983657,-31.7406248],[-60.4981921,-31.7398526],[-60.4980734,-31.7392557],[-60.4981379,-31.7391404],[-60.4993661,-31.7383204]]},"properties":{"name":"Tratado del Cuadrilatero","oneway":"yes","highway":"residential"}},
{"type":"Feature","geometry":{"type":"LineString","coordinates":[[-60.4999625,-31.7355029],[-60.5000016,-31.7359608],[-60.4999626,-31.7365133]]},"properties":{"name":"Austria","highway":"residential"}},
{"type":"Feature","geometry":{"type":"LineString","coordinates":[[-60.4983546,-31.7419025],[-60.4985206,-31.7418886],[-60.4999862,-31.7413131]]},"properties":{"name":"Damián P. Garat","highway":"residential"}},
{"type":"Feature","geometry":{"type":"LineString","coordinates":[[-60.4992836,-31.7319904],[-60.4980466,-31.7322139]]},"properties":{"name":"Guillermo Bonaparte","source":"Bing","highway":"residential"}},
{"type":"Feature","geometry":{"type":"LineString","coordinates":[[-60.4819743,-31.7432921],[-60.4815363,-31.7433576],[-60.480542,-31.743485],[-60.4799616,-31.7435696],[-60.4791248,-31.7436609],[-60.4768825,-31.7439984],[-60.4712606,-31.7449656]]},"properties":{"name":"Alte. Brown","oneway":"no","highway":"residential"}},
{"type":"Feature","geometry":{"type":"LineString","coordinates":[[-60.4789836,-31.7538042],[-60.4761985,-31.7542449],[-60.4751196,-31.7544156],[-60.4733161,-31.754701],[-60.4722896,-31.7548567],[-60.4712433,-31.7550155],[-60.4701975,-31.7551741],[-60.4693919,-31.7552893],[-60.4686417,-31.7554024],[-60.4684678,-31.7554296],[-60.4676253,-31.7555691],[-60.4664218,-31.7557356],[-60.4645858,-31.7560207],[-60.4626406,-31.7563226],[-60.4623073,-31.7563966],[-60.4620175,-31.7564394],[-60.4596908,-31.7567828],[-60.4561865,-31.7573001]]},"properties":{"name":"Francia","highway":"residential","surface":"unpaved"}},
{"type":"Feature","geometry":{"type":"LineString","coordinates":[[-60.4522159,-31.7521369],[-60.4546446,-31.7518741],[-60.4550779,-31.7518272],[-60.455907,-31.7517645],[-60.4573302,-31.7517645],[-60.4586284,-31.7520172],[-60.4595987,-31.7524859],[-60.4605745,-31.7531665],[-60.461495,-31.7542486],[-60.461911,-31.7552453],[-60.4623073,-31.7563966],[-60.4625526,-31.75714],[-60.46296,-31.7579628],[-60.4643001,-31.7593624]]},"properties":{"ref":"U-15","name":"FC Urquiza","gauge":"1435","network":"Urquiza","railway":"rail","description":"Urquiza","electrified":"no","passenger_lines":"1"}},
{"type":"Feature","geometry":{"type":"LineString","coordinates":[[-60.480048,-31.7587197],[-60.4800266,-31.758625]]},"properties":{"name":"Salvador Caputo","highway":"tertiary","surface":"asphalt","maxspeed":"50"}},
{"type":"Feature","geometry":{"type":"LineString","coordinates":[[-60.5031339,-31.7560338],[-60.5029511,-31.755155],[-60.5027938,-31.7543897],[-60.5027085,-31.7540544],[-60.5024741,-31.7529909],[-60.5022616,-31.7519758],[-60.5022341,-31.7518413],[-60.5022057,-31.7517027]]},"properties":{"name":"Juan Garrigó","highway":"tertiary","maxspeed":"50"}},
{"type":"Feature","geometry":{"type":"LineString","coordinates":[[-60.4686356,-31.7604418],[-60.4691416,-31.7603172],[-60.4696302,-31.760241],[-60.4704293,-31.7601176],[-60.4712315,-31.7599956],[-60.4743182,-31.7595182],[-60.4778203,-31.758976],[-60.4786695,-31.7588368],[-60.4800266,-31.758625],[-60.4808562,-31.7585062],[-60.483877,-31.7580466],[-60.4857116,-31.7577676],[-60.4873441,-31.7575192],[-60.4896864,-31.7571629],[-60.4913491,-31.7569099],[-60.4925274,-31.7567307],[-60.4953072,-31.7563078],[-60.4954717,-31.7562636],[-60.496028,-31.7559025],[-60.4969371,-31.7552759],[-60.4991159,-31.7538067],[-60.5003339,-31.75298],[-60.5006383,-31.7527734],[-60.5010298,-31.7525077],[-60.5014553,-31.7522126],[-60.5022057,-31.7517027]]},"properties":{"name":"Almafuerte","oneway":"yes","highway":"primary","maxspeed":"60"}},
{"type":"Feature","geometry":{"type":"LineString","coordinates":[[-60.4914384,-31.7293182],[-60.4912637,-31.7284893],[-60.4911991,-31.7282332],[-60.4908836,-31.7268025],[-60.4906059,-31.7255432],[-60.4903432,-31.7243518]]},"properties":{"name":"Blas Parera","oneway":"no","highway":"residential","maxspeed":"50"}},
{"type":"Feature","geometry":{"type":"LineString","coordinates":[[-60.4918013,-31.7311105],[-60.491612,-31.7305337],[-60.4914719,-31.7298328]]},"properties":{"name":"Blas Parera","oneway":"yes","highway":"secondary","maxspeed":"50"}},
{"type":"Feature","geometry":{"type":"LineString","coordinates":[[-60.4969745,-31.728019],[-60.4975051,-31.7306483],[-60.494656,-31.731129],[-60.4943215,-31.7294906],[-60.4969745,-31.728019]]},"properties":{"name":"Escuela de Policias Salvador Macia","amenity":"police"}},
{"type":"Feature","geometry":{"type":"LineString","coordinates":[[-60.4965708,-31.7260372],[-60.4968707,-31.7273323],[-60.4953422,-31.7279889],[-60.4951505,-31.7268627],[-60.4940844,-31.7270617],[-60.493923,-31.7264317],[-60.4965708,-31.7260372]]},"properties":{"name":"Parana Rowing Club","sport":"multi","leisure":"sports_centre"}},
{"type":"Feature","geometry":{"type":"LineString","coordinates":[[-60.486652,-31.7261537],[-60.4867844,-31.726682],[-60.4870266,-31.7266574],[-60.4873721,-31.7266045],[-60.4876602,-31.7265604],[-60.4879705,-31.7265129],[-60.4882759,-31.7264662],[-60.4886126,-31.7264078],[-60.488903,-31.7263648],[-60.4892297,-31.726315],[-60.4895065,-31.7262699],[-60.4900544,-31.7261914]]},"properties":{"name":"Doctor Ferreyra Bertozzi","highway":"residential"}},
{"type":"Feature","geometry":{"type":"LineString","coordinates":[[-60.4966985,-31.7258938],[-60.4938082,-31.7263454],[-60.4934043,-31.7264086],[-60.492695,-31.7265194],[-60.4918928,-31.7266448],[-60.4908836,-31.7268025],[-60.4902091,-31.7269079],[-60.4900119,-31.7269387],[-60.4899001,-31.7269562],[-60.4896583,-31.7269939],[-60.4895777,-31.7270065],[-60.4890634,-31.7270869],[-60.4884404,-31.7271896],[-60.4878247,-31.7272805],[-60.4872061,-31.727381],[-60.4851731,-31.7276836],[-60.4843429,-31.7278089],[-60.4835591,-31.7279273],[-60.4827426,-31.7280507]]},"properties":{"name":"Antonio Crespo","highway":"residential","surface":"paved"}},
{"type":"Feature","geometry":{"type":"LineString","coordinates":[[-60.4911991,-31.7282332],[-60.4903557,-31.7283913]]},"properties":{"highway":"residential"}},
{"type":"Feature","geometry":{"type":"LineString","coordinates":[[-60.488903,-31.7263648],[-60.4890157,-31.7269653]]},"properties":{"highway":"residential"}},
{"type":"Feature","geometry":{"type":"LineString","coordinates":[[-60.4884404,-31.7271896],[-60.4882759,-31.7264662]]},"properties":{"highway":"residential"}},
{"type":"Feature","geometry":{"type":"LineString","coordinates":[[-60.4886126,-31.7264078],[-60.4885905,-31.726302],[-60.4884634,-31.7258056]]},"properties":{"highway":"residential"}},
{"type":"Feature","geometry":{"type":"LineString","coordinates":[[-60.4935515,-31.7272551],[-60.4930499,-31.7273453],[-60.4925847,-31.727429]]},"properties":{"name":"Del Payador","highway":"residential"}},
{"type":"Feature","geometry":{"type":"LineString","coordinates":[[-60.4879705,-31.7265129],[-60.4879449,-31.7264119],[-60.4878242,-31.7259319]]},"properties":{"highway":"residential"}},
{"type":"Feature","geometry":{"type":"LineString","coordinates":[[-60.4895065,-31.7262699],[-60.4896583,-31.7269939]]},"properties":{"highway":"residential"}},
{"type":"Feature","geometry":{"type":"LineString","coordinates":[[-60.4903435,-31.7303164],[-60.4895777,-31.7270065]]},"properties":{"highway":"residential"}},
{"type":"Feature","geometry":{"type":"LineString","coordinates":[[-60.4892297,-31.726315],[-60.4890991,-31.7257408]]},"properties":{"highway":"residential"}},
{"type":"Feature","geometry":{"type":"LineString","coordinates":[[-60.4876602,-31.7265604],[-60.4877675,-31.7271319]]},"properties":{"highway":"residential"}},
{"type":"Feature","geometry":{"type":"LineString","coordinates":[[-60.4873721,-31.7266045],[-60.4872475,-31.7260825]]},"properties":{"highway":"residential"}},
{"type":"Feature","geometry":{"type":"LineString","coordinates":[[-60.4870266,-31.7266574],[-60.4871575,-31.7272309]]},"properties":{"highway":"residential"}},
{"type":"Feature","geometry":{"type":"LineString","coordinates":[[-60.4932727,-31.7238849],[-60.4935082,-31.7250717],[-60.4938082,-31.7263454]]},"properties":{"highway":"residential"}},
{"type":"Feature","geometry":{"type":"LineString","coordinates":[[-60.4913639,-31.7241938],[-60.4916265,-31.7253837],[-60.4918928,-31.7266448]]},"properties":{"name":"Paris","highway":"residential"}},
{"type":"Feature","geometry":{"type":"LineString","coordinates":[[-60.4899102,-31.7255782],[-60.4900544,-31.7261914],[-60.4902091,-31.7269079]]},"properties":{"highway":"residential"}},
{"type":"Feature","geometry":{"type":"LineString","coordinates":[[-60.4921712,-31.7240591],[-60.4924071,-31.725259],[-60.492695,-31.7265194]]},"properties":{"highway":"residential"}},
{"type":"Feature","geometry":{"type":"LineString","coordinates":[[-60.4935082,-31.7250717],[-60.4924071,-31.725259],[-60.4916265,-31.7253837],[-60.4906059,-31.7255432]]},"properties":{"highway":"residential"}},
{"type":"Feature","geometry":{"type":"LineString","coordinates":[[-60.4912637,-31.7284893],[-60.4914553,-31.7284568],[-60.4926925,-31.7282449],[-60.4937445,-31.7280647]]},"properties":{"name":"Martín Fierro","highway":"residential"}},
{"type":"Feature","geometry":{"type":"LineString","coordinates":[[-60.4914557,-31.729584],[-60.4908492,-31.7298585],[-60.4907678,-31.7299322],[-60.4903435,-31.7303164],[-60.4899724,-31.7305592],[-60.4897931,-31.730733],[-60.4896673,-31.7308456],[-60.4891905,-31.731285]]},"properties":{"highway":"residential"}},
{"type":"Feature","geometry":{"type":"LineString","coordinates":[[-60.4908492,-31.7298585],[-60.4906086,-31.7296574],[-60.4903557,-31.7283913],[-60.4900119,-31.7269387]]},"properties":{"highway":"residential"}},
{"type":"Feature","geometry":{"type":"LineString","coordinates":[[-60.4915803,-31.7297846],[-60.4917322,-31.7305131],[-60.4918013,-31.7311105]]},"properties":{"name":"Blas Parera","oneway":"yes","highway":"secondary","maxspeed":"50"}},
{"type":"Feature","geometry":{"type":"LineString","coordinates":[[-60.4970957,-31.7277684],[-60.4968397,-31.7278606],[-60.496655,-31.7279504],[-60.4964536,-31.7280758],[-60.4957241,-31.7285935],[-60.4955442,-31.728696],[-60.4944369,-31.7292454],[-60.4924299,-31.7302853],[-60.4921994,-31.730418],[-60.4918702,-31.7305737],[-60.4917322,-31.7305131]]},"properties":{"highway":"residential"}},
{"type":"Feature","geometry":{"type":"LineString","coordinates":[[-60.4915626,-31.7297174],[-60.4921152,-31.7294246],[-60.4924768,-31.729276],[-60.4932035,-31.7290111],[-60.4934901,-31.7288848],[-60.494702,-31.7283533],[-60.4960756,-31.7278265],[-60.4970583,-31.7273915],[-60.4982395,-31.726963]]},"properties":{"highway":"residential","surface":"paved"}},
{"type":"Feature","geometry":{"type":"LineString","coordinates":[[-60.4970583,-31.7273915],[-60.4966985,-31.7258938],[-60.496185,-31.7234236]]},"properties":{"name":"J. Rondeau","highway":"residential","surface":"paved"}},
{"type":"Feature","geometry":{"type":"LineString","coordinates":[[-60.4992638,-31.7378599],[-60.499784,-31.7377701],[-60.4997912,-31.7377497],[-60.4998896,-31.7377109],[-60.4998896,-31.7376394],[-60.4998224,-31.7375169],[-60.4998344,-31.7375026],[-60.4998008,-31.7374434],[-60.4998992,-31.7373577],[-60.4999376,-31.7373413],[-60.4999977,-31.7373372],[-60.5001225,-31.737276]]},"properties":{"note":"Senda a travez del arroyo de la zona para acortar el camino. Hay un puente sobre el arroyo.","highway":"footway"}},
{"type":"Feature","geometry":{"type":"LineString","coordinates":[[-60.5001225,-31.737276],[-60.5002156,-31.7372379],[-60.5002876,-31.7372502],[-60.5004581,-31.737244],[-60.5004773,-31.7372257]]},"properties":{"highway":"footway"}},
{"type":"Feature","geometry":{"type":"LineString","coordinates":[[-60.4926991,-31.735382],[-60.4914701,-31.7354869]]},"properties":{"highway":"service"}},
{"type":"Feature","geometry":{"type":"LineString","coordinates":[[-60.4921939,-31.7329728],[-60.4895533,-31.733332]]},"properties":{"highway":"residential"}},
{"type":"Feature","geometry":{"type":"LineString","coordinates":[[-60.4940682,-31.7303395],[-60.492889,-31.7305186],[-60.4926871,-31.7305409],[-60.4921994,-31.730418]]},"properties":{"name":"Calle Nelson R. Mandela","highway":"residential"}},
{"type":"Feature","geometry":{"type":"LineString","coordinates":[[-60.4868839,-31.7361565],[-60.485996,-31.7362795],[-60.4853906,-31.7363462]]},"properties":{"highway":"residential"}},
{"type":"Feature","geometry":{"type":"LineString","coordinates":[[-60.485996,-31.7362795],[-60.4860936,-31.7368055],[-60.4862245,-31.7375108]]},"properties":{"highway":"residential"}},
{"type":"Feature","geometry":{"type":"LineString","coordinates":[[-60.4860936,-31.7368055],[-60.4851828,-31.7369234],[-60.485163,-31.7368618],[-60.4853906,-31.7363462],[-60.4855235,-31.7360432],[-60.4857112,-31.7357302],[-60.4861167,-31.7352229],[-60.4864622,-31.7348651]]},"properties":{"highway":"residential"}},
{"type":"Feature","geometry":{"type":"LineString","coordinates":[[-60.4875613,-31.7352012],[-60.4873334,-31.7351222],[-60.4870769,-31.7349656],[-60.4869692,-31.7349465],[-60.4868139,-31.7349544],[-60.4866889,-31.7349992]]},"properties":{"highway":"residential"}},
{"type":"Feature","geometry":{"type":"LineString","coordinates":[[-60.4896277,-31.7405907],[-60.4878949,-31.7408381]]},"properties":{"highway":"residential"}},
{"type":"Feature","geometry":{"type":"LineString","coordinates":[[-60.4889377,-31.745708],[-60.4883765,-31.7457996],[-60.487806,-31.7458927],[-60.4864802,-31.7461045],[-60.4853918,-31.7462869],[-60.4845382,-31.7464263]]},"properties":{"highway":"residential"}},
{"type":"Feature","geometry":{"type":"LineString","coordinates":[[-60.4890868,-31.7464053],[-60.4879576,-31.7465852],[-60.4866342,-31.746796],[-60.4847024,-31.7470935],[-60.4834715,-31.747303]]},"properties":{"name":"1630","highway":"residential"}},
{"type":"Feature","geometry":{"type":"LineString","coordinates":[[-60.4867957,-31.747521],[-60.4866342,-31.746796],[-60.4864802,-31.7461045],[-60.4863568,-31.7455502],[-60.4862075,-31.7448799],[-60.4860493,-31.7441692],[-60.4860264,-31.7440768],[-60.4859478,-31.7437127],[-60.4858481,-31.7432506],[-60.4857279,-31.7426934]]},"properties":{"name":"San Juan Bautista de la Salle","highway":"residential"}},
{"type":"Feature","geometry":{"type":"LineString","coordinates":[[-60.4853918,-31.7462869],[-60.4852403,-31.7457319]]},"properties":{"highway":"service"}},
{"type":"Feature","geometry":{"type":"LineString","coordinates":[[-60.4872118,-31.7474563],[-60.4875323,-31.748835]]},"properties":{"highway":"residential"}},
{"type":"Feature","geometry":{"type":"LineString","coordinates":[[-60.4847225,-31.7592385],[-60.4833775,-31.7594594],[-60.483057,-31.7594463]]},"properties":{"name":"Alfonso Solá González","highway":"residential"}},
{"type":"Feature","geometry":{"type":"LineString","coordinates":[[-60.4745087,-31.7604458],[-60.4755736,-31.7602836],[-60.4764887,-31.7601412],[-60.4766079,-31.7601219],[-60.4774541,-31.759991]]},"properties":{"highway":"residential"}},
{"type":"Feature","geometry":{"type":"LineString","coordinates":[[-60.4777929,-31.759075],[-60.4774541,-31.759991]]},"properties":{"highway":"service"}},
{"type":"Feature","geometry":{"type":"LineString","coordinates":[[-60.4786498,-31.7589367],[-60.4787091,-31.7591045],[-60.4787046,-31.7592],[-60.4785063,-31.7594269],[-60.4784657,-31.7595068]]},"properties":{"highway":"service"}},
{"type":"Feature","geometry":{"type":"LineString","coordinates":[[-60.4642631,-31.761134],[-60.4645125,-31.7622749]]},"properties":{"name":"Enrique Rodou","highway":"residential"}},
{"type":"Feature","geometry":{"type":"LineString","coordinates":[[-60.4652781,-31.7609827],[-60.46549,-31.7621233]]},"properties":{"highway":"residential"}},
{"type":"Feature","geometry":{"type":"LineString","coordinates":[[-60.4666033,-31.7619507],[-60.4664463,-31.761975],[-60.46549,-31.7621233],[-60.4645125,-31.7622749]]},"properties":{"highway":"residential"}},
{"type":"Feature","geometry":{"type":"LineString","coordinates":[[-60.4666033,-31.7619507],[-60.4658197,-31.7611467],[-60.4658126,-31.760903]]},"properties":{"highway":"service"}},
{"type":"Feature","geometry":{"type":"LineString","coordinates":[[-60.4632746,-31.7624934],[-60.4630357,-31.7613171]]},"properties":{"name":"Antonio Bonell","highway":"residential"}},
{"type":"Feature","geometry":{"type":"LineString","coordinates":[[-60.4735417,-31.7557105],[-60.4724995,-31.7558698],[-60.4714534,-31.7560297],[-60.4704089,-31.7561894],[-60.4696109,-31.7563087],[-60.4688324,-31.7564304],[-60.4678547,-31.7565714]]},"properties":{"name":"José Eduardo Seri","highway":"residential"}},
{"type":"Feature","geometry":{"type":"LineString","coordinates":[[-60.4722896,-31.7548567],[-60.4724995,-31.7558698]]},"properties":{"name":"L. Ruiz","highway":"residential","surface":"compacted"}},
{"type":"Feature","geometry":{"type":"LineString","coordinates":[[-60.4712433,-31.7550155],[-60.4714534,-31.7560297]]},"properties":{"highway":"residential"}},
{"type":"Feature","geometry":{"type":"LineString","coordinates":[[-60.4701975,-31.7551741],[-60.4704089,-31.7561894]]},"properties":{"name":"Alvarez","highway":"residential","surface":"compacted"}},
{"type":"Feature","geometry":{"type":"LineString","coordinates":[[-60.4693919,-31.7552893],[-60.4696109,-31.7563087],[-60.4698123,-31.7572459],[-60.4700201,-31.758213],[-60.4702283,-31.759182],[-60.4704293,-31.7601176]]},"properties":{"name":"Ruben Antonio Turi","highway":"residential"}},
{"type":"Feature","geometry":{"type":"LineString","coordinates":[[-60.4696302,-31.760241],[-60.4694298,-31.7593024],[-60.4692462,-31.7583347],[-60.4690352,-31.7573639],[-60.4688324,-31.7564304],[-60.4686417,-31.7554024]]},"properties":{"name":"Poeta José Murga","highway":"residential"}},
{"type":"Feature","geometry":{"type":"LineString","coordinates":[[-60.4698123,-31.7572459],[-60.4690352,-31.7573639],[-60.4680524,-31.7575211]]},"properties":{"highway":"residential"}},
{"type":"Feature","geometry":{"type":"LineString","coordinates":[[-60.4707803,-31.7580906],[-60.4700201,-31.758213],[-60.4692462,-31.7583347],[-60.4682365,-31.7584823]]},"properties":{"highway":"residential"}},
{"type":"Feature","geometry":{"type":"LineString","coordinates":[[-60.4712315,-31.7599956],[-60.4710142,-31.7590484],[-60.4707803,-31.7580906]]},"properties":{"highway":"residential"}},
{"type":"Feature","geometry":{"type":"LineString","coordinates":[[-60.4710142,-31.7590484],[-60.4702283,-31.759182],[-60.4694298,-31.7593024],[-60.4684375,-31.7594639]]},"properties":{"highway":"residential"}},
{"type":"Feature","geometry":{"type":"LineString","coordinates":[[-60.4666172,-31.760783],[-60.4661701,-31.7587474]]},"properties":{"highway":"residential","surface":"paved"}},
{"type":"Feature","geometry":{"type":"LineString","coordinates":[[-60.4684678,-31.7554296],[-60.4682665,-31.7543849],[-60.4682432,-31.7542778],[-60.4680779,-31.7534446],[-60.4680027,-31.7531308]]},"properties":{"highway":"residential"}},
{"type":"Feature","geometry":{"type":"LineString","coordinates":[[-60.4682432,-31.7542778],[-60.4674137,-31.7543905]]},"properties":{"highway":"residential"}},
{"type":"Feature","geometry":{"type":"LineString","coordinates":[[-60.4652662,-31.7520102],[-60.4650541,-31.750957]]},"properties":{"highway":"residential"}},
{"type":"Feature","geometry":{"type":"LineString","coordinates":[[-60.4734966,-31.7555085],[-60.4748663,-31.7553176],[-60.4762382,-31.7551139]]},"properties":{"highway":"residential"}},
{"type":"Feature","geometry":{"type":"LineString","coordinates":[[-60.4736337,-31.7561732],[-60.474996,-31.7559944],[-60.4763591,-31.7558057]]},"properties":{"highway":"residential"}},
{"type":"Feature","geometry":{"type":"LineString","coordinates":[[-60.4763591,-31.7558057],[-60.4762382,-31.7551139]]},"properties":{"highway":"residential"}},
{"type":"Feature","geometry":{"type":"LineString","coordinates":[[-60.474996,-31.7559944],[-60.4748663,-31.7553176],[-60.4747939,-31.7549245]]},"properties":{"highway":"residential"}},
{"type":"Feature","geometry":{"type":"LineString","coordinates":[[-60.4732388,-31.7543349],[-60.4744454,-31.7541357],[-60.4744332,-31.7539004],[-60.4746249,-31.7538475],[-60.4749105,-31.7538315],[-60.4750351,-31.7542352],[-60.4751196,-31.7544156]]},"properties":{"highway":"footway"}},
{"type":"Feature","geometry":{"type":"LineString","coordinates":[[-60.4786407,-31.7487987],[-60.4788459,-31.7496059],[-60.478886,-31.7497638]]},"properties":{"highway":"residential"}},
{"type":"Feature","geometry":{"type":"LineString","coordinates":[[-60.4781427,-31.7498797],[-60.478886,-31.7497638],[-60.4795772,-31.7496598],[-60.4796689,-31.7496234],[-60.4796689,-31.749561],[-60.4796567,-31.7494986],[-60.4795527,-31.7494986],[-60.4788459,-31.7496059]]},"properties":{"highway":"residential"}},
{"type":"Feature","geometry":{"type":"LineString","coordinates":[[-60.4865013,-31.7340822],[-60.4864146,-31.733839],[-60.4861937,-31.7325453],[-60.4861068,-31.7320317]]},"properties":{"highway":"residential"}},
{"type":"Feature","geometry":{"type":"LineString","coordinates":[[-60.4864146,-31.733839],[-60.4855711,-31.7339693],[-60.4847579,-31.7340919],[-60.4840029,-31.7342149],[-60.4833865,-31.7343111],[-60.482604,-31.7344333],[-60.4818452,-31.7345517],[-60.4808367,-31.7347091]]},"properties":{"highway":"residential"}},
{"type":"Feature","geometry":{"type":"LineString","coordinates":[[-60.4861937,-31.7325453],[-60.4853407,-31.7326808],[-60.4846731,-31.7327868],[-60.4845092,-31.7328128],[-60.4837471,-31.7329338],[-60.4831203,-31.7330334],[-60.4823446,-31.7331565],[-60.4815764,-31.7332785],[-60.4806042,-31.7334412],[-60.477883,-31.7338727],[-60.4768876,-31.734021],[-60.4759389,-31.7341506],[-60.4749028,-31.7343161],[-60.4691872,-31.7351651],[-60.4635733,-31.7360346],[-60.4578612,-31.7369257],[-60.4539473,-31.737516],[-60.4537591,-31.7375465]]},"properties":{"highway":"residential"}},
{"type":"Feature","geometry":{"type":"LineString","coordinates":[[-60.4855711,-31.7339693],[-60.4853407,-31.7326808]]},"properties":{"highway":"residential"}},
{"type":"Feature","geometry":{"type":"LineString","coordinates":[[-60.4847579,-31.7340919],[-60.4845092,-31.7328128]]},"properties":{"highway":"residential"}},
{"type":"Feature","geometry":{"type":"LineString","coordinates":[[-60.479815,-31.729766],[-60.4789116,-31.7299031],[-60.4782688,-31.7300007]]},"properties":{"highway":"residential"}},
{"type":"Feature","geometry":{"type":"LineString","coordinates":[[-60.4780728,-31.7289348],[-60.4782688,-31.7300007],[-60.4783619,-31.7304437]]},"properties":{"highway":"residential"}},
{"type":"Feature","geometry":{"type":"LineString","coordinates":[[-60.4783619,-31.7304437],[-60.4772561,-31.7306176],[-60.4762502,-31.7307758],[-60.4752761,-31.730929],[-60.4742273,-31.731094]]},"properties":{"highway":"residential"}},
{"type":"Feature","geometry":{"type":"LineString","coordinates":[[-60.4800918,-31.7310183],[-60.4791502,-31.7311549],[-60.4774214,-31.7314147]]},"properties":{"highway":"residential"}},
{"type":"Feature","geometry":{"type":"LineString","coordinates":[[-60.4803551,-31.7322562],[-60.4793991,-31.7324077],[-60.4787624,-31.7324786]]},"properties":{"highway":"residential"}},
{"type":"Feature","geometry":{"type":"LineString","coordinates":[[-60.4789116,-31.7299031],[-60.4791502,-31.7311549],[-60.4793991,-31.7324077]]},"properties":{"highway":"residential"}},
{"type":"Feature","geometry":{"type":"LineString","coordinates":[[-60.476957,-31.7291851],[-60.4772561,-31.7306176],[-60.4774214,-31.7314147],[-60.477591,-31.7322213],[-60.477883,-31.7338727]]},"properties":{"highway":"residential"}},
{"type":"Feature","geometry":{"type":"LineString","coordinates":[[-60.4787624,-31.7324786],[-60.4786494,-31.7320681],[-60.477591,-31.7322213],[-60.4765738,-31.7323669],[-60.4756011,-31.7325061],[-60.4745445,-31.7326574]]},"properties":{"highway":"residential"}},
{"type":"Feature","geometry":{"type":"LineString","coordinates":[[-60.4759709,-31.7294025],[-60.4762502,-31.7307758],[-60.4765738,-31.7323669],[-60.4768876,-31.734021]]},"properties":{"highway":"residential"}},
{"type":"Feature","geometry":{"type":"LineString","coordinates":[[-60.4749964,-31.7295716],[-60.4752761,-31.730929],[-60.4756011,-31.7325061],[-60.4759389,-31.7341506]]},"properties":{"highway":"residential"}},
{"type":"Feature","geometry":{"type":"LineString","coordinates":[[-60.4615833,-31.7615337],[-60.4618153,-31.7627503]]},"properties":{"highway":"residential"}},
{"type":"Feature","geometry":{"type":"LineString","coordinates":[[-60.4534341,-31.7577215],[-60.4538854,-31.7598873],[-60.4540658,-31.760753],[-60.4542298,-31.7615399],[-60.4544614,-31.7626124]]},"properties":{"name":"Del Recado","highway":"residential"}},
{"type":"Feature","geometry":{"type":"LineString","coordinates":[[-60.4566416,-31.7594558],[-60.4552661,-31.7596712],[-60.4538854,-31.7598873]]},"properties":{"highway":"residential"}},
{"type":"Feature","geometry":{"type":"LineString","coordinates":[[-60.456824,-31.7603201],[-60.455458,-31.7605345],[-60.4540658,-31.760753]]},"properties":{"highway":"residential"}},
{"type":"Feature","geometry":{"type":"LineString","coordinates":[[-60.456993,-31.7611206],[-60.4556341,-31.7613268],[-60.4542298,-31.7615399]]},"properties":{"highway":"residential"}},
{"type":"Feature","geometry":{"type":"LineString","coordinates":[[-60.4552661,-31.7596712],[-60.455458,-31.7605345],[-60.4556341,-31.7613268]]},"properties":{"highway":"residential"}},
{"type":"Feature","geometry":{"type":"LineString","coordinates":[[-60.4554159,-31.7534796],[-60.4533949,-31.7537966],[-60.4519634,-31.7540212]]},"properties":{"name":"Del Poncho","highway":"residential"}},
{"type":"Feature","geometry":{"type":"LineString","coordinates":[[-60.4533949,-31.7537966],[-60.4535911,-31.7547548],[-60.4537726,-31.7556407],[-60.4539778,-31.7566426],[-60.4541756,-31.757608]]},"properties":{"name":"De la Sortija","highway":"residential"}},
{"type":"Feature","geometry":{"type":"LineString","coordinates":[[-60.4519634,-31.7540212],[-60.4521549,-31.7549634],[-60.4523396,-31.7558722],[-60.452537,-31.7568437],[-60.4527371,-31.7578282]]},"properties":{"name":"De la Yerra","highway":"residential"}},
{"type":"Feature","geometry":{"type":"LineString","coordinates":[[-60.4535911,-31.7547548],[-60.4521549,-31.7549634]]},"properties":{"name":"Del Estribo","highway":"residential"}},
{"type":"Feature","geometry":{"type":"LineString","coordinates":[[-60.4537726,-31.7556407],[-60.4523396,-31.7558722]]},"properties":{"name":"Del Mate","highway":"residential"}},
{"type":"Feature","geometry":{"type":"LineString","coordinates":[[-60.4539778,-31.7566426],[-60.452537,-31.7568437],[-60.4519356,-31.756866],[-60.4515789,-31.7568458]]},"properties":{"name":"De la Taba","highway":"residential"}},
{"type":"Feature","geometry":{"type":"LineString","coordinates":[[-60.4970649,-31.7276229],[-60.4959998,-31.7281159],[-60.4939114,-31.7291197],[-60.4932721,-31.7294263],[-60.4918066,-31.730129]]},"properties":{"ref":"RN168","name":"Ruta Nacional 168","oneway":"yes","highway":"trunk","maxspeed":"60"}},
{"type":"Feature","geometry":{"type":"LineString","coordinates":[[-60.489159,-31.731662],[-60.4895143,-31.7313593],[-60.4896429,-31.7312585],[-60.4896985,-31.7312149],[-60.4898978,-31.7310555],[-60.490097,-31.7309161],[-60.4902563,-31.7308165],[-60.4913519,-31.7302089]]},"properties":{"ref":"RN168","oneway":"yes","highway":"trunk"}},
{"type":"Feature","geometry":{"type":"LineString","coordinates":[[-60.453706,-31.7375558],[-60.4522142,-31.7378333],[-60.4532406,-31.7427042],[-60.4537754,-31.7450852]]},"properties":{"highway":"residential","surface":"unpaved","maxspeed":"40"}},
{"type":"Feature","geometry":{"type":"LineString","coordinates":[[-60.4686356,-31.7604418],[-60.4666172,-31.760783],[-60.4658126,-31.760903],[-60.4652781,-31.7609827],[-60.4642631,-31.761134],[-60.4630357,-31.7613171],[-60.4615833,-31.7615337],[-60.4599879,-31.7617716],[-60.4585699,-31.7619831],[-60.4572177,-31.7621848]]},"properties":{"name":"Avenida Almafuerte","oneway":"no","highway":"primary","maxspeed":"60"}},
{"type":"Feature","geometry":{"type":"LineString","coordinates":[[-60.484736,-31.7367475],[-60.4846374,-31.7371205],[-60.4846153,-31.7373398],[-60.4847,-31.7374839],[-60.4848105,-31.7375528],[-60.485042,-31.7376877]]},"properties":{"lanes":"1","oneway":"yes","highway":"primary_link","surface":"paved","maxspeed":"40"}},
{"type":"Feature","geometry":{"type":"LineString","coordinates":[[-60.452739,-31.7368281],[-60.4525778,-31.7368482],[-60.4525003,-31.7368345],[-60.4524436,-31.7368136],[-60.4524092,-31.7367762],[-60.4523827,-31.7367097],[-60.4523886,-31.7366643],[-60.4524196,-31.7365721]]},"properties":{"ref":"RN168","oneway":"yes","highway":"trunk_link"}},
{"type":"Feature","geometry":{"type":"LineString","coordinates":[[-60.4991659,-31.7556971],[-60.4988525,-31.754836],[-60.4988179,-31.7548591],[-60.498173,-31.7552907]]},"properties":{"name":"José Martí","oneway":"no","highway":"residential"}},
{"type":"Feature","geometry":{"type":"LineString","coordinates":[[-60.4988408,-31.7549313],[-60.4989202,-31.7551497],[-60.498591,-31.755243],[-60.4983738,-31.7553304],[-60.4983388,-31.7552689],[-60.4988408,-31.7549313]]},"properties":{"amenity":"parking"}},
{"type":"Feature","geometry":{"type":"LineString","coordinates":[[-60.4930766,-31.7546109],[-60.4937657,-31.7545183]]},"properties":{"name":"Los Tilos","highway":"residential"}},
{"type":"Feature","geometry":{"type":"LineString","coordinates":[[-60.4531103,-31.7411739],[-60.45436,-31.7409827],[-60.4542283,-31.7403606],[-60.4529787,-31.7405518],[-60.4531103,-31.7411739]]},"properties":{"leisure":"pitch"}},
{"type":"Feature","geometry":{"type":"LineString","coordinates":[[-60.4545753,-31.7402939],[-60.454246500000007,-31.7403365],[-60.454297,-31.7406185],[-60.4546258,-31.7405759],[-60.4545753,-31.7402939]]},"properties":{"sport":"tennis","leisure":"pitch"}},
{"type":"Feature","geometry":{"type":"LineString","coordinates":[[-60.453119,-31.7412952],[-60.4533222,-31.7424168],[-60.4541332,-31.7423105],[-60.45393,-31.7411889],[-60.453119,-31.7412952]]},"properties":{"leisure":"pitch"}},
{"type":"Feature","geometry":{"type":"LineString","coordinates":[[-60.4544869,-31.7406108],[-60.4543201,-31.7406331],[-60.4543737,-31.7409231],[-60.4545406,-31.7409008],[-60.4544869,-31.7406108]]},"properties":{"sport":"tennis","leisure":"pitch"}},
{"type":"Feature","geometry":{"type":"LineString","coordinates":[[-60.4523396,-31.7558722],[-60.4515789,-31.7568458]]},"properties":{"name":"De la Pulpería","highway":"residential"}},
{"type":"Feature","geometry":{"type":"LineString","coordinates":[[-60.4541697,-31.7412272],[-60.4540644,-31.7412415],[-60.4540911,-31.7413839],[-60.4541965,-31.7413696],[-60.4541697,-31.7412272]]},"properties":{"building":"yes"}},
{"type":"Feature","geometry":{"type":"LineString","coordinates":[[-60.4819388,-31.7441024],[-60.4816608,-31.7442467]]},"properties":{"highway":"footway"}},
{"type":"Feature","geometry":{"type":"LineString","coordinates":[[-60.4823174,-31.744076],[-60.4819716,-31.7441116]]},"properties":{"layer":"1","bridge":"yes","highway":"footway"}},
{"type":"Feature","geometry":{"type":"LineString","coordinates":[[-60.4828049,-31.7441892],[-60.4825558,-31.7441173],[-60.4824539,-31.7440977]]},"properties":{"highway":"footway"}},
{"type":"Feature","geometry":{"type":"LineString","coordinates":[[-60.4819716,-31.7441116],[-60.4819643,-31.7438671],[-60.4819352,-31.7438718],[-60.4819388,-31.7441024]]},"properties":{"highway":"steps"}},
{"type":"Feature","geometry":{"type":"LineString","coordinates":[[-60.4824539,-31.7440977],[-60.4823829,-31.7440977],[-60.4823756,-31.7442695],[-60.4823501,-31.744271],[-60.4823174,-31.744076]]},"properties":{"highway":"steps"}},
{"type":"Feature","geometry":{"type":"LineString","coordinates":[[-60.4975792,-31.740756],[-60.4975091,-31.7403714],[-60.497334,-31.7400693],[-60.4972877,-31.7396141],[-60.4969995,-31.7392683],[-60.4970201,-31.7389662],[-60.4973495,-31.7387867],[-60.4975605,-31.7384759],[-60.4978797,-31.7383052],[-60.4983584,-31.7380732],[-60.4990481,-31.7376321]]},"properties":{"name":"Colorado","waterway":"stream"}},
{"type":"Feature","geometry":{"type":"LineString","coordinates":[[-60.4976081,-31.7409505],[-60.4975792,-31.740756]]},"properties":{"layer":"-1","tunnel":"culvert","waterway":"stream"}},
{"type":"Feature","geometry":{"type":"LineString","coordinates":[[-60.4990481,-31.7376321],[-60.4992198,-31.7375374]]},"properties":{"layer":"-1","tunnel":"culvert","waterway":"stream"}},
{"type":"Feature","geometry":{"type":"LineString","coordinates":[[-60.4945084,-31.7439549],[-60.4946473,-31.7437815],[-60.4948061,-31.743575],[-60.4950863,-31.7433605],[-60.4957027,-31.7431143],[-60.4961043,-31.742884],[-60.4962071,-31.7425821],[-60.4964499,-31.7424709],[-60.4970866,-31.7422537],[-60.4975035,-31.7417372],[-60.4976322,-31.7411681],[-60.4976081,-31.7409505]]},"properties":{"waterway":"stream"}},
{"type":"Feature","geometry":{"type":"LineString","coordinates":[[-60.4992198,-31.7375374],[-60.4995114,-31.7373465],[-60.4998151,-31.737132],[-60.5000313,-31.7368781],[-60.5000916,-31.7367413],[-60.5001394,-31.7366329],[-60.5001033,-31.7362477],[-60.5001394,-31.7357311],[-60.5002647,-31.7355045]]},"properties":{"name":"Colorado","waterway":"stream"}},
{"type":"Feature","geometry":{"type":"LineString","coordinates":[[-60.4978618,-31.7232569],[-60.4982741,-31.7249819],[-60.496699,-31.7252694],[-60.4963205,-31.7234927],[-60.4978618,-31.7232569]]},"properties":{"name":"Doctor Antonio Roballos","amenity":"hospital"}},
{"type":"Feature","geometry":{"type":"LineString","coordinates":[[-60.4941683,-31.7539468],[-60.4938126,-31.754098]]},"properties":{"name":"Los Tilos","oneway":"no","highway":"residential"}},
{"type":"Feature","geometry":{"type":"LineString","coordinates":[[-60.4981365,-31.7558772],[-60.4980703,-31.7557945]]},"properties":{"name":"Sagastume","oneway":"no","highway":"residential"}},
{"type":"Feature","geometry":{"type":"LineString","coordinates":[[-60.4951025,-31.756424],[-60.495141,-31.7565514],[-60.4951163,-31.756651],[-60.4944133,-31.7573716]]},"properties":{"highway":"residential","surface":"unpaved"}},
{"type":"Feature","geometry":{"type":"LineString","coordinates":[[-60.4643001,-31.7593624],[-60.46574,-31.7607471]]},"properties":{"ref":"U-15","name":"FC Urquiza","gauge":"1435","network":"Urquiza","railway":"rail","embankment":"yes","description":"Urquiza","electrified":"no","passenger_lines":"1"}},
{"type":"Feature","geometry":{"type":"LineString","coordinates":[[-60.4984547,-31.7283482],[-60.4983622,-31.7283215],[-60.4972561,-31.7285257]]},"properties":{"name":"Cataluña","oneway":"yes","highway":"residential"}},
{"type":"Feature","geometry":{"type":"LineString","coordinates":[[-60.4907678,-31.7299322],[-60.4904986,-31.7297146],[-60.4902733,-31.7286195],[-60.4901123,-31.7279808],[-60.4899001,-31.7269562],[-60.4898748,-31.7266582],[-60.489688,-31.7263365],[-60.489632,-31.7261776],[-60.4895105,-31.7256413]]},"properties":{"tunnel":"culvert","waterway":"stream"}},
{"type":"Feature","geometry":{"type":"LineString","coordinates":[[-60.4895105,-31.7256413],[-60.4895432,-31.7254785],[-60.4897954,-31.7250336],[-60.4899402,-31.7248588],[-60.4898561,-31.724696],[-60.4898515,-31.7244735],[-60.4897627,-31.724398],[-60.4899729,-31.7241915],[-60.490197,-31.7240962],[-60.4903838,-31.7240564],[-60.49065,-31.7239929],[-60.4910143,-31.7239373]]},"properties":{"waterway":"stream"}},
{"type":"Feature","geometry":{"type":"LineString","coordinates":[[-60.4943528,-31.7465196],[-60.4944655,-31.7462185]]},"properties":{"tunnel":"culvert","waterway":"stream"}},
{"type":"Feature","geometry":{"type":"LineString","coordinates":[[-60.488006,-31.7573213],[-60.4879247,-31.7567406],[-60.488071,-31.7561806],[-60.4882662,-31.7561114],[-60.4883393,-31.7560008],[-60.4885345,-31.755904],[-60.4885914,-31.7556551],[-60.4887622,-31.7556413],[-60.4891524,-31.7555929],[-60.4897053,-31.7556551],[-60.4901038,-31.7554339],[-60.4901688,-31.7550398],[-60.4901607,-31.7546457],[-60.4901525,-31.754307],[-60.490307,-31.7539889],[-60.490429,-31.7538783],[-60.4904615,-31.7533805],[-60.4905591,-31.7531247],[-60.4907298,-31.7528274],[-60.4907624,-31.7523711],[-60.4908274,-31.7520254],[-60.4911445,-31.751168],[-60.4913153,-31.7505941],[-60.4915104,-31.7501309],[-60.4917218,-31.749557],[-60.4919332,-31.7490315],[-60.4922687,-31.7486865],[-60.492566,-31.7485119],[-60.492658,-31.7483614],[-60.4930686,-31.7482531],[-60.4933658,-31.7477595],[-60.4937481,-31.7474646],[-60.4940029,-31.7473923],[-60.4941374,-31.7469951],[-60.4943528,-31.7465196]]},"properties":{"waterway":"stream"}},
{"type":"Feature","geometry":{"type":"LineString","coordinates":[[-60.5006383,-31.7527734],[-60.5004241,-31.7524224],[-60.5003214,-31.75193],[-60.5000319,-31.7515805],[-60.4995368,-31.7514217],[-60.4994341,-31.750969],[-60.4993568,-31.7506385],[-60.4991726,-31.7498094],[-60.4992753,-31.7491979],[-60.4994621,-31.7485704],[-60.4996022,-31.7482527],[-60.4997286,-31.7480005],[-60.4996209,-31.747665],[-60.4995555,-31.7471328],[-60.4992006,-31.7464736],[-60.498827,-31.7460924],[-60.4984672,-31.7457123],[-60.498304,-31.7453696],[-60.4981545,-31.7448533],[-60.4976969,-31.7444562],[-60.4972952,-31.7438843],[-60.4969777,-31.7428358],[-60.4969777,-31.7426134],[-60.4970866,-31.7422537]]},"properties":{"name":"Cuenca de Unamuno","waterway":"stream"}},
{"type":"Feature","geometry":{"type":"LineString","coordinates":[[-60.5004203,-31.7363585],[-60.5004063,-31.7364817]]},"properties":{"name":"Pasaje Scapelato","highway":"footway","surface":"paved"}},
{"type":"Feature","geometry":{"type":"LineString","coordinates":[[-60.5014523,-31.7431619],[-60.5012235,-31.7427687],[-60.5009713,-31.7423001],[-60.50092,-31.7420498],[-60.501046,-31.7418791],[-60.5011254,-31.7416011],[-60.5009853,-31.7413509],[-60.5008172,-31.7391586],[-60.5007145,-31.7388885],[-60.5007238,-31.7384913],[-60.5007098,-31.7380544],[-60.5003689,-31.7374984],[-60.5002708,-31.7371886],[-60.5000916,-31.7367413]]},"properties":{"waterway":"drain"}},
{"type":"Feature","geometry":{"type":"LineString","coordinates":[[-60.4874881,-31.7323775],[-60.4873776,-31.7322919],[-60.4868669,-31.7318264],[-60.4865478,-31.7315111],[-60.4856379,-31.7305666],[-60.4849619,-31.7299336],[-60.4845387,-31.7296221],[-60.484072,-31.7293374],[-60.4834709,-31.7290715],[-60.4826333,-31.7287698],[-60.4817643,-31.7285782],[-60.4808242,-31.7285095],[-60.4799132,-31.7285487],[-60.4795396,-31.7286057],[-60.4780728,-31.7289348],[-60.476957,-31.7291851],[-60.4760463,-31.7293894],[-60.4759709,-31.7294025],[-60.4749964,-31.7295716],[-60.4739551,-31.7297522],[-60.4693182,-31.7304238],[-60.4689339,-31.7304811],[-60.4682278,-31.730577],[-60.4664547,-31.7308111],[-60.4626355,-31.7313488],[-60.4608508,-31.7316008],[-60.4598614,-31.7318111],[-60.4591915,-31.7320486],[-60.4586108,-31.732301],[-60.4579954,-31.7327113],[-60.4571007,-31.7333136],[-60.4540461,-31.7356153],[-60.4535738,-31.7360733],[-60.4533044,-31.7363695],[-60.4532425,-31.7364647],[-60.4532004,-31.7365028],[-60.4530893,-31.7366123],[-60.4529083,-31.7367259],[-60.452739,-31.7368281],[-60.4526011,-31.7368908],[-60.4523322,-31.7370218],[-60.4518119,-31.7373207],[-60.451029,-31.7377665],[-60.4502945,-31.7381168]]},"properties":{"ref":"RN168","name":"Acceso Norte","oneway":"yes","highway":"trunk","maxspeed":"110"}},
{"type":"Feature","geometry":{"type":"LineString","coordinates":[[-60.4632746,-31.7624934],[-60.4618153,-31.7627503],[-60.4602626,-31.7630106],[-60.458844,-31.7632467],[-60.4582322,-31.7633451]]},"properties":{"highway":"residential"}},
{"type":"Feature","geometry":{"type":"LineString","coordinates":[[-60.4777673,-31.7604948],[-60.4781601,-31.7591295]]},"properties":{"highway":"proposed"}},
{"type":"Feature","geometry":{"type":"LineString","coordinates":[[-60.4848907,-31.7261857],[-60.4840311,-31.7263274],[-60.4832262,-31.7264601],[-60.4824412,-31.7265895],[-60.4827426,-31.7280507]]},"properties":{"highway":"residential"}},
{"type":"Feature","geometry":{"type":"LineString","coordinates":[[-60.4840311,-31.7263274],[-60.4843429,-31.7278089]]},"properties":{"highway":"residential"}},
{"type":"Feature","geometry":{"type":"LineString","coordinates":[[-60.4832262,-31.7264601],[-60.4835591,-31.7279273]]},"properties":{"highway":"residential"}},
{"type":"Feature","geometry":{"type":"LineString","coordinates":[[-60.4999626,-31.7365133],[-60.4989967,-31.7366583]]},"properties":{"highway":"residential"}},
{"type":"Feature","geometry":{"type":"LineString","coordinates":[[-60.5010355,-31.7539535],[-60.5003093,-31.7531482]]},"properties":{"highway":"residential"}},
{"type":"Feature","geometry":{"type":"LineString","coordinates":[[-60.4949077,-31.7236347],[-60.4949326,-31.7240918],[-60.4949552,-31.7241823],[-60.4949726,-31.724252],[-60.4951724,-31.7247426],[-60.4952295,-31.724966],[-60.4952924,-31.7251311]]},"properties":{"highway":"residential"}},
{"type":"Feature","geometry":{"type":"LineString","coordinates":[[-60.4949552,-31.7241823],[-60.495772,-31.7240869]]},"properties":{"highway":"residential"}},
{"type":"Feature","geometry":{"type":"LineString","coordinates":[[-60.4924585,-31.7341902],[-60.4916403,-31.7342903]]},"properties":{"highway":"residential"}},
{"type":"Feature","geometry":{"type":"LineString","coordinates":[[-60.4942665,-31.7427693],[-60.4936125,-31.7428578],[-60.49298,-31.7429433],[-60.491662,-31.743129]]},"properties":{"name":"Fermín Garay","highway":"residential"}},
{"type":"Feature","geometry":{"type":"LineString","coordinates":[[-60.4899833,-31.7440123],[-60.4894287,-31.7440961],[-60.489558100000007,-31.744704],[-60.4901127,-31.7445992],[-60.4899833,-31.7440123]]},"properties":{"leisure":"park"}},
{"type":"Feature","geometry":{"type":"LineString","coordinates":[[-60.4907229,-31.7437083],[-60.4916036,-31.7435674],[-60.4916735,-31.7435562],[-60.4919249,-31.7435107]]},"properties":{"name":"Vicegdor. José María Garaylde","highway":"footway"}},
{"type":"Feature","geometry":{"type":"LineString","coordinates":[[-60.4917965,-31.7434044],[-60.4927686,-31.7432524]]},"properties":{"name":"Calle 1239","highway":"footway"}},
{"type":"Feature","geometry":{"type":"LineString","coordinates":[[-60.4914576,-31.7423156],[-60.4904599,-31.7424794]]},"properties":{"name":"Vicegobernador Doctor Teodoro E. Marco","highway":"footway"}},
{"type":"Feature","geometry":{"type":"LineString","coordinates":[[-60.4915572,-31.742715],[-60.4905459,-31.7428768]]},"properties":{"name":"Vicegdor. Luis C. Chaile","highway":"footway"}},
{"type":"Feature","geometry":{"type":"LineString","coordinates":[[-60.491662,-31.743129],[-60.4906343,-31.7432908]]},"properties":{"name":"Diputado Fermín J. Garay","highway":"footway"}},
{"type":"Feature","geometry":{"type":"LineString","coordinates":[[-60.4920184,-31.7439605],[-60.4916974,-31.7440047],[-60.4908032,-31.7441231]]},"properties":{"name":"Julio César Ferrarotti","highway":"footway"}},
{"type":"Feature","geometry":{"type":"LineString","coordinates":[[-60.493777,-31.7436028],[-60.4938659,-31.7440553],[-60.4939211,-31.7443359],[-60.4940686,-31.7449166]]},"properties":{"name":"Calle 1202","highway":"residential"}},
{"type":"Feature","geometry":{"type":"LineString","coordinates":[[-60.490979,-31.7450163],[-60.491893,-31.7448732],[-60.492189,-31.7448224]]},"properties":{"name":"Vicegdor. Roberto Lanús","highway":"footway"}},
{"type":"Feature","geometry":{"type":"LineString","coordinates":[[-60.4943413,-31.7453674],[-60.4930547,-31.7455713],[-60.4927445,-31.7456204],[-60.492365,-31.7456808],[-60.4911558,-31.7458732]]},"properties":{"name":"Doctor Pedro Masetich","highway":"footway"}},
{"type":"Feature","geometry":{"type":"LineString","coordinates":[[-60.4910622,-31.74542],[-60.4919938,-31.7452736],[-60.4922633,-31.7452312],[-60.4926486,-31.7451609]]},"properties":{"name":"Chacho Peñaloza","highway":"footway"}},
{"type":"Feature","geometry":{"type":"LineString","coordinates":[[-60.4869799,-31.7558969],[-60.4861788,-31.7560162],[-60.4853629,-31.7561378]]},"properties":{"highway":"footway"}},
{"type":"Feature","geometry":{"type":"LineString","coordinates":[[-60.486851,-31.7553234],[-60.4863651,-31.7553963],[-60.4852403,-31.7555652]]},"properties":{"highway":"footway"}},
{"type":"Feature","geometry":{"type":"LineString","coordinates":[[-60.4875409,-31.7446743],[-60.4862075,-31.7448799],[-60.4850967,-31.7450591]]},"properties":{"highway":"residential"}},
{"type":"Feature","geometry":{"type":"LineString","coordinates":[[-60.4794026,-31.7254819],[-60.4794461,-31.7256956]]},"properties":{"access":"private","highway":"residential"}},
{"type":"Feature","geometry":{"type":"LineString","coordinates":[[-60.4794026,-31.7254819],[-60.479822,-31.7254598],[-60.4799699,-31.7254126]]},"properties":{"access":"private","highway":"residential"}},
{"type":"Feature","geometry":{"type":"LineString","coordinates":[[-60.4791408,-31.7266858],[-60.477951,-31.7268593],[-60.4769813,-31.7270007]]},"properties":{"highway":"residential"}},
{"type":"Feature","geometry":{"type":"LineString","coordinates":[[-60.4778686,-31.7264242],[-60.477951,-31.7268593],[-60.478035,-31.7272313]]},"properties":{"highway":"residential"}},
{"type":"Feature","geometry":{"type":"LineString","coordinates":[[-60.4761985,-31.7542449],[-60.4760262,-31.7535648],[-60.4756441,-31.7527422]]},"properties":{"highway":"service"}},
{"type":"Feature","geometry":{"type":"LineString","coordinates":[[-60.4599879,-31.7617716],[-60.4602626,-31.7630106]]},"properties":{"highway":"residential"}},
{"type":"Feature","geometry":{"type":"LineString","coordinates":[[-60.47914,-31.7538765],[-60.4796133,-31.7539613]]},"properties":{"layer":"1","bridge":"yes","highway":"footway"}},
{"type":"Feature","geometry":{"type":"LineString","coordinates":[[-60.4790913,-31.753784],[-60.4790789,-31.7538955],[-60.4790685,-31.7541322],[-60.47914,-31.7538765]]},"properties":{"highway":"footway"}},
{"type":"Feature","geometry":{"type":"LineString","coordinates":[[-60.4796133,-31.7539613],[-60.479576,-31.7541448],[-60.4796415,-31.7539715],[-60.4798542,-31.7538671]]},"properties":{"highway":"footway"}},
{"type":"Feature","geometry":{"type":"LineString","coordinates":[[-60.5022341,-31.7518413],[-60.5012161,-31.7525386],[-60.5003093,-31.7531482],[-60.5001319,-31.7532675],[-60.4997507,-31.7535262],[-60.4978891,-31.7547942],[-60.4969635,-31.7554012],[-60.4956378,-31.7562748],[-60.495507,-31.7563442],[-60.4953697,-31.7563794],[-60.4951025,-31.756424],[-60.4942267,-31.7565702],[-60.4934254,-31.756702400000003],[-60.4922435,-31.7568811],[-60.4913712,-31.7569998],[-60.4899759,-31.757209],[-60.4885529,-31.7574216],[-60.4873563,-31.7575989],[-60.485728,-31.7578514],[-60.484493,-31.7580497],[-60.4828023,-31.7583105],[-60.480048,-31.7587197],[-60.4786498,-31.7589367],[-60.4777929,-31.759075],[-60.4764388,-31.7592819],[-60.4743365,-31.7596031],[-60.4718726,-31.7599848],[-60.469155,-31.7604075],[-60.4686356,-31.7604418]]},"properties":{"name":"Almafuerte","oneway":"yes","highway":"primary","maxspeed":"60"}},
{"type":"Feature","geometry":{"type":"LineString","coordinates":[[-60.5018722,-31.7455211],[-60.5020208,-31.7458603]]},"properties":{"name":"ERSA Paraná","source":"GPS, Bing","amenity":"bus_station","alt_name":"Galpón de ERSA Urbano","building":"garages","old_name":"La Victoria","addr:city":"Paraná","addr:street":"Gervasio Mendez","designation":"Deposito de AutoBuses","addr:postcode":"3100","addr:housename":"ERSA Urbanos S.A.","addr:housenumber":"748"}},
{"type":"Feature","geometry":{"type":"LineString","coordinates":[[-60.4749884,-31.7355935],[-60.4751866,-31.7366169],[-60.4743726,-31.7367373],[-60.4741815,-31.7357199],[-60.4749884,-31.7355935]]},"properties":{"name":"Estadio de Belgrano","sport":"soccer","leisure":"stadium"}},
{"type":"Feature","geometry":{"type":"LineString","coordinates":[[-60.4926486,-31.7451609],[-60.4929487,-31.7451109],[-60.4935061,-31.7450129],[-60.4940686,-31.7449166]]},"properties":{"name":"Chacho Peñaloza","oneway":"no","highway":"residential"}},
{"type":"Feature","geometry":{"type":"LineString","coordinates":[[-60.4927445,-31.7456204],[-60.4926486,-31.7451609],[-60.4922146,-31.7449061],[-60.492189,-31.7448224],[-60.492091,-31.7443747],[-60.4920184,-31.7439605],[-60.4920008,-31.7438647],[-60.4919249,-31.7435107],[-60.4917965,-31.7434044],[-60.4917154,-31.743329],[-60.491662,-31.743129],[-60.4915572,-31.742715],[-60.4914576,-31.7423156],[-60.4913358,-31.7418318]]},"properties":{"name":"Juan Manuel de Rosas","highway":"residential"}},
{"type":"Feature","geometry":{"type":"LineString","coordinates":[[-60.4928372,-31.7460549],[-60.4927445,-31.7456204]]},"properties":{"name":"Juan Manuel de Rosas","highway":"residential"}},
{"type":"Feature","geometry":{"type":"LineString","coordinates":[[-60.4943347,-31.7458217],[-60.4931566,-31.7460052],[-60.4928372,-31.7460549],[-60.4924583,-31.7461163],[-60.491249,-31.7463124]]},"properties":{"name":"Luis César Corte","highway":"footway"}},
{"type":"Feature","geometry":{"type":"LineString","coordinates":[[-60.4841338,-31.7378235],[-60.485042,-31.7376877],[-60.4862245,-31.7375108],[-60.487102,-31.7373795],[-60.4880023,-31.7372556],[-60.4888149,-31.7371505],[-60.48962,-31.7370331],[-60.4897281,-31.7370182],[-60.4906404,-31.7368927],[-60.4917418,-31.7367411],[-60.4929385,-31.7365765],[-60.4937153,-31.7364571],[-60.4941448,-31.7363911],[-60.4944467,-31.7363447],[-60.4950656,-31.7362495],[-60.4953257,-31.7362095],[-60.4957974,-31.736137],[-60.4965404,-31.7360228],[-60.4970815,-31.7359396],[-60.4971788,-31.7359247],[-60.4976398,-31.7358538],[-60.4978244,-31.7358254],[-60.4981875,-31.7357696],[-60.4987789,-31.7356787],[-60.4994556,-31.7355774],[-60.4999625,-31.7355029],[-60.5000626,-31.7354863]]},"properties":{"name":"Don Bosco","oneway":"no","highway":"tertiary","maxspeed":"50"}},
{"type":"Feature","geometry":{"type":"LineString","coordinates":[[-60.4839747,-31.737844],[-60.4841338,-31.7378235]]},"properties":{"name":"Don Bosco","oneway":"no","highway":"tertiary","maxspeed":"50"}},
{"type":"Feature","geometry":{"type":"LineString","coordinates":[[-60.4937445,-31.7280647],[-60.4935515,-31.7272551],[-60.4934043,-31.7264086]]},"properties":{"name":"Del Fogon","highway":"residential"}},
{"type":"Feature","geometry":{"type":"LineString","coordinates":[[-60.4585699,-31.7619831],[-60.458844,-31.7632467]]},"properties":{"name":"Carlitos Chaplin","highway":"residential"}},
{"type":"Feature","geometry":{"type":"LineString","coordinates":[[-60.4925847,-31.727429],[-60.4925424,-31.727541],[-60.4926925,-31.7282449],[-60.4928168,-31.728645],[-60.4928293,-31.7287769],[-60.4928204,-31.728879],[-60.4928014,-31.7288996],[-60.4924391,-31.7289652]]},"properties":{"name":"Del Baqueano","highway":"residential"}},
{"type":"Feature","geometry":{"type":"LineString","coordinates":[[-60.4945396,-31.744046],[-60.494946,-31.745904]]},"properties":{"name":"Blas Parera","oneway":"no","source":"http://www.openstreetmap.org/note/504138","highway":"secondary","maxspeed":"110","construction":"secondary"}},
{"type":"Feature","geometry":{"type":"LineString","coordinates":[[-60.4944655,-31.7462185],[-60.49464,-31.7458213],[-60.4947461,-31.7453819],[-60.494555,-31.744485],[-60.4945084,-31.7439549]]},"properties":{"layer":"-1","source":"http://www.openstreetmap.org/note/504138","tunnel":"yes","waterway":"stream"}},
{"type":"Feature","geometry":{"type":"LineString","coordinates":[[-60.4969371,-31.7552759],[-60.4967003,-31.7541545],[-60.4966862,-31.7540727],[-60.4964621,-31.7530786],[-60.4963387,-31.7524936],[-60.49607,-31.7512187],[-60.4959131,-31.7504641],[-60.4957759,-31.7498238],[-60.4957267,-31.7495902],[-60.4955491,-31.7487476],[-60.4955348,-31.7486799],[-60.4953389,-31.7477412],[-60.4951614,-31.7469089],[-60.4950249,-31.7462611],[-60.494946,-31.745904]]},"properties":{"name":"Blas Parera","lanes":"2","oneway":"no","highway":"secondary","surface":"asphalt","maxspeed":"60"}},
{"type":"Feature","geometry":{"type":"LineString","coordinates":[[-60.494946,-31.745904],[-60.4950653,-31.7455973],[-60.4950819,-31.7454869],[-60.4950825,-31.7453856],[-60.4948765,-31.7444805],[-60.4946705,-31.7442104],[-60.4945396,-31.744046]]},"properties":{"highway":"residential"}},
{"type":"Feature","geometry":{"type":"LineString","coordinates":[[-60.4958011,-31.737574],[-60.4958257,-31.7378832],[-60.4955268,-31.7379461],[-60.4954375,-31.7376185],[-60.4958011,-31.737574]]},"properties":{"name":"Plazoleta","leisure":"playground"}},
{"type":"Feature","geometry":{"type":"LineString","coordinates":[[-60.4926535,-31.7356547],[-60.4928166,-31.7364613],[-60.4912773,-31.7366864],[-60.4911142,-31.7358798],[-60.4926535,-31.7356547]]},"properties":{"name":"Planta transformadora de energía ENERSA","power":"substation","operator":"ENERSA","substation":"transmission"}},
{"type":"Feature","geometry":{"type":"LineString","coordinates":[[-60.49298,-31.7429433],[-60.4927284,-31.7416423]]},"properties":{"name":"Roque Saenz Peña","oneway":"no","highway":"residential"}},
{"type":"Feature","geometry":{"type":"LineString","coordinates":[[-60.4934345,-31.7435897],[-60.4932923,-31.742967],[-60.4941211,-31.7428461],[-60.4942552,-31.7434278],[-60.4942257,-31.7434734],[-60.4934345,-31.7435897]]},"properties":{"name":"E.E.T. Nº 21 Libertador General San Martín","amenity":"school","short_name":"EET Nº 21 Libertador General San Martín","addr:street":"Fermín Garay","description":"Tipo de Institución: Secundario Técnico Orientación: Industrial Ámbito de Gestión: Estatal Tipo de Dependencia: Jurisdicción Educativa Provincial","operator:type":"government"}},
{"type":"Feature","geometry":{"type":"LineString","coordinates":[[-60.5021229,-31.7512981],[-60.5015876,-31.7513859]]},"properties":{"name":"Antonio Bouzada","highway":"residential"}},
{"type":"Feature","geometry":{"type":"LineString","coordinates":[[-60.5020273,-31.7507828],[-60.5013962,-31.7508776]]},"properties":{"name":"Humberto Ercilio Savoia","highway":"residential"}},
{"type":"Feature","geometry":{"type":"LineString","coordinates":[[-60.4863651,-31.7553963],[-60.4862347,-31.7547814],[-60.4861271,-31.7542742],[-60.4860519,-31.7539198]]},"properties":{"footway":"sidewalk","highway":"footway"}},
{"type":"Feature","geometry":{"type":"LineString","coordinates":[[-60.4861788,-31.7560162],[-60.4862476,-31.7563807]]},"properties":{"footway":"sidewalk","highway":"footway"}},
{"type":"Feature","geometry":{"type":"LineString","coordinates":[[-60.4867098,-31.7546954],[-60.4862347,-31.7547814]]},"properties":{"footway":"sidewalk","highway":"footway"}},
{"type":"Feature","geometry":{"type":"LineString","coordinates":[[-60.4865987,-31.7542012],[-60.4861271,-31.7542742]]},"properties":{"footway":"sidewalk","highway":"footway"}},
{"type":"Feature","geometry":{"type":"LineString","coordinates":[[-60.4861271,-31.7542742],[-60.4856855,-31.7539773]]},"properties":{"footway":"sidewalk","highway":"footway"}},
{"type":"Feature","geometry":{"type":"LineString","coordinates":[[-60.486851,-31.7553234],[-60.4872666,-31.7552555],[-60.4871835,-31.7548913]]},"properties":{"footway":"sidewalk","highway":"footway"}},
{"type":"Feature","geometry":{"type":"LineString","coordinates":[[-60.4875419,-31.7548347],[-60.487601,-31.7550998]]},"properties":{"footway":"sidewalk","highway":"footway"}},
{"type":"Feature","geometry":{"type":"LineString","coordinates":[[-60.4864683,-31.7490058],[-60.4860793,-31.7485687],[-60.4859955,-31.7483289],[-60.4858303,-31.7476743]]},"properties":{"highway":"residential"}},
{"type":"Feature","geometry":{"type":"LineString","coordinates":[[-60.4746249,-31.7538475],[-60.474385,-31.753402]]},"properties":{"highway":"footway"}},
{"type":"Feature","geometry":{"type":"LineString","coordinates":[[-60.4790685,-31.7541322],[-60.4787776,-31.7551807],[-60.4785677,-31.7558415],[-60.4784939,-31.7561673]]},"properties":{"highway":"footway"}},
{"type":"Feature","geometry":{"type":"LineString","coordinates":[[-60.4784939,-31.7561673],[-60.4783195,-31.7566029],[-60.4782044,-31.757149],[-60.4780856,-31.757733],[-60.4780151,-31.758036]]},"properties":{"highway":"footway"}},
{"type":"Feature","geometry":{"type":"LineString","coordinates":[[-60.4763591,-31.7558057],[-60.4777194,-31.7555949]]},"properties":{"highway":"footway"}},
{"type":"Feature","geometry":{"type":"LineString","coordinates":[[-60.4763591,-31.7558057],[-60.4764885,-31.7564489],[-60.4766229,-31.7571175]]},"properties":{"highway":"residential"}},
{"type":"Feature","geometry":{"type":"LineString","coordinates":[[-60.4766229,-31.7571175],[-60.4768234,-31.7580013],[-60.4769199,-31.7580833],[-60.4772429,-31.7581244],[-60.4774434,-31.7582538],[-60.4779856,-31.758417]]},"properties":{"highway":"residential"}},
{"type":"Feature","geometry":{"type":"LineString","coordinates":[[-60.4764885,-31.7564489],[-60.4751006,-31.7566394],[-60.4737586,-31.7568179]]},"properties":{"highway":"residential"}},
{"type":"Feature","geometry":{"type":"LineString","coordinates":[[-60.4766229,-31.7571175],[-60.4752282,-31.7573154],[-60.4739118,-31.7575013]]},"properties":{"highway":"residential"}},
{"type":"Feature","geometry":{"type":"LineString","coordinates":[[-60.474996,-31.7559944],[-60.4751006,-31.7566394],[-60.4752282,-31.7573154]]},"properties":{"highway":"residential"}},
{"type":"Feature","geometry":{"type":"LineString","coordinates":[[-60.4764885,-31.7564489],[-60.4777362,-31.7562641]]},"properties":{"highway":"footway"}},
{"type":"Feature","geometry":{"type":"LineString","coordinates":[[-60.4766229,-31.7571175],[-60.4777206,-31.7569639]]},"properties":{"highway":"footway"}},
{"type":"Feature","geometry":{"type":"LineString","coordinates":[[-60.4777206,-31.7569639],[-60.4777362,-31.7562641],[-60.4777194,-31.7555949]]},"properties":{"highway":"footway"}},
{"type":"Feature","geometry":{"type":"LineString","coordinates":[[-60.4762382,-31.7551139],[-60.4773857,-31.7549401]]},"properties":{"highway":"footway"}},
{"type":"Feature","geometry":{"type":"LineString","coordinates":[[-60.4963546,-31.7467677],[-60.4963287,-31.7467309],[-60.4962546,-31.7467077],[-60.4958852,-31.7467757],[-60.4951614,-31.7469089]]},"properties":{"name":"Alfredo Villamonte","highway":"residential"}},
{"type":"Feature","geometry":{"type":"LineString","coordinates":[[-60.4966862,-31.7540727],[-60.4950896,-31.7547012],[-60.4950464,-31.7547184],[-60.4932607,-31.7554195],[-60.4932214,-31.7554883],[-60.4931493,-31.7555269],[-60.4923047,-31.7556631],[-60.4911196,-31.7558314]]},"properties":{"name":"Las Acacias","highway":"residential"}},
{"type":"Feature","geometry":{"type":"LineString","coordinates":[[-60.5005655,-31.7515508],[-60.500827,-31.751427]]},"properties":{"lanes":"1","highway":"residential","surface":"unpaved","maxspeed":"20"}},
{"type":"Feature","geometry":{"type":"LineString","coordinates":[[-60.500827,-31.751427],[-60.5006581,-31.7509646],[-60.5005447,-31.7504206]]},"properties":{"name":"Los Lanceros","lanes":"1","access":"permissive","highway":"residential","surface":"unpaved","maxspeed":"20","motor_vehicle":"no"}},
{"type":"Feature","geometry":{"type":"LineString","coordinates":[[-60.5013994,-31.7503629],[-60.5014264,-31.7504823],[-60.5011114,-31.7505338],[-60.5012826,-31.7512918],[-60.5010972,-31.751322],[-60.5010738,-31.7512185],[-60.5010129,-31.7512285],[-60.5011576,-31.7518692],[-60.5013222,-31.7518424],[-60.5013876,-31.7521666],[-60.5012796,-31.7522388],[-60.5012257,-31.7520348],[-60.501123,-31.7520516],[-60.5009158,-31.7511347],[-60.5008481,-31.7508346],[-60.5006777,-31.7508624],[-60.5005946,-31.7504944],[-60.5013994,-31.7503629]]},"properties":{"name":"Cotapa","landuse":"residential","building":"yes","addr:city":"Paraná","addr:street":"Almafuerte","addr:postcode":"3100"}},
{"type":"Feature","geometry":{"type":"LineString","coordinates":[[-60.4916439,-31.7362032],[-60.4916283,-31.7361163],[-60.4916137,-31.7360343],[-60.4915937,-31.7359401],[-60.4915508,-31.7353835],[-60.4907837,-31.7320895],[-60.4905101,-31.7319115],[-60.4877367,-31.7322765],[-60.4689725,-31.7351601],[-60.454834,-31.7309773]]},"properties":{"power":"line","wires":"single","cables":"3","voltage":"132000","frequency":"50"}},
{"type":"Feature","geometry":{"type":"LineString","coordinates":[[-60.4944133,-31.7573716],[-60.4942267,-31.7565702]]},"properties":{"name":"Gobernador Ramon Mihura","highway":"residential","surface":"unpaved"}},
{"type":"Feature","geometry":{"type":"LineString","coordinates":[[-60.4944213,-31.7271272],[-60.4943238,-31.7271663],[-60.4943614,-31.7272339],[-60.4943159,-31.7272527],[-60.4942813,-31.7271921],[-60.4942046,-31.7272237],[-60.4942394,-31.7272848],[-60.4942785,-31.7272686],[-60.4943264,-31.7273526],[-60.4944835,-31.7272878],[-60.494436,-31.7272045],[-60.494459,-31.7271952],[-60.4944213,-31.7271272]]},"properties":{"building":"yes"}},
{"type":"Feature","geometry":{"type":"LineString","coordinates":[[-60.4953422,-31.7279889],[-60.4951505,-31.7268627],[-60.4940844,-31.7270617],[-60.4943776,-31.7283816],[-60.4953422,-31.7279889]]},"properties":{"name":"Escuela 206 Los Constituyentes","amenity":"school","isced:level":"1"}},
{"type":"Feature","geometry":{"type":"LineString","coordinates":[[-60.4920008,-31.7438647],[-60.4928749,-31.7437344],[-60.493777,-31.7436028],[-60.494419,-31.7435216]]},"properties":{"highway":"residential"}},
{"type":"Feature","geometry":{"type":"LineString","coordinates":[[-60.4873096,-31.7382817],[-60.4885523,-31.7380729]]},"properties":{"highway":"residential"}},
{"type":"Feature","geometry":{"type":"LineString","coordinates":[[-60.4900159,-31.7368075],[-60.4898375,-31.7357773]]},"properties":{"highway":"service","service":"alley"}},
{"type":"Feature","geometry":{"type":"LineString","coordinates":[[-60.4795841,-31.7471254],[-60.4776178,-31.74743]]},"properties":{"highway":"residential"}},
{"type":"Feature","geometry":{"type":"LineString","coordinates":[[-60.4772672,-31.7389106],[-60.4776881,-31.740937],[-60.477714,-31.7410613]]},"properties":{"highway":"residential"}},
{"type":"Feature","geometry":{"type":"LineString","coordinates":[[-60.4605577,-31.737832],[-60.4581266,-31.7381982]]},"properties":{"highway":"residential"}},
{"type":"Feature","geometry":{"type":"LineString","coordinates":[[-60.4591966,-31.7431801],[-60.4584236,-31.7433009],[-60.4577284,-31.7434029],[-60.4570956,-31.7434958],[-60.4564364,-31.7435921],[-60.4557348,-31.743695],[-60.454406,-31.7438897],[-60.4542967,-31.7438738],[-60.4542725,-31.7437857],[-60.4546727,-31.7424781]]},"properties":{"highway":"residential"}},
{"type":"Feature","geometry":{"type":"LineString","coordinates":[[-60.4595192,-31.7446375],[-60.4587048,-31.7447563],[-60.458028,-31.7448551],[-60.4573847,-31.744949],[-60.4567146,-31.7450468],[-60.4560278,-31.745147],[-60.4557348,-31.743695],[-60.4554639,-31.7423529]]},"properties":{"highway":"residential"}},
{"type":"Feature","geometry":{"type":"LineString","coordinates":[[-60.4581583,-31.7419279],[-60.4584236,-31.7433009],[-60.4587048,-31.7447563]]},"properties":{"highway":"residential"}},
{"type":"Feature","geometry":{"type":"LineString","coordinates":[[-60.4574472,-31.7420401],[-60.4577284,-31.7434029],[-60.458028,-31.7448551]]},"properties":{"highway":"residential"}},
{"type":"Feature","geometry":{"type":"LineString","coordinates":[[-60.4573847,-31.744949],[-60.4570956,-31.7434958],[-60.4568256,-31.7421392]]},"properties":{"highway":"residential"}},
{"type":"Feature","geometry":{"type":"LineString","coordinates":[[-60.4567146,-31.7450468],[-60.4564364,-31.7435921],[-60.456178,-31.7422411]]},"properties":{"highway":"residential"}},
{"type":"Feature","geometry":{"type":"LineString","coordinates":[[-60.4519943,-31.7369122],[-60.4514673,-31.7342292]]},"properties":{"highway":"residential"}},
{"type":"Feature","geometry":{"type":"LineString","coordinates":[[-60.4771356,-31.7288758],[-60.4761164,-31.7290537],[-60.4759752,-31.7278264],[-60.4770803,-31.7277625],[-60.4771356,-31.7288758]]},"properties":{"name":"QUINTA LOS AROMITOS"}},
{"type":"Feature","geometry":{"type":"LineString","coordinates":[[-60.4988778,-31.7331175],[-60.4987561,-31.7326181]]},"properties":{"highway":"service","service":"alley"}},
{"type":"Feature","geometry":{"type":"LineString","coordinates":[[-60.4941233,-31.7292061],[-60.4938829,-31.7292736],[-60.4941147,-31.7291678],[-60.4939473,-31.7289323],[-60.494149,-31.7288045],[-60.4939344,-31.7288812]]},"properties":{"layer":"1","bridge":"yes","footway":"sidewalk","highway":"footway"}},
{"type":"Feature","geometry":{"type":"LineString","coordinates":[[-60.4930499,-31.7273453],[-60.493136,-31.7277128]]},"properties":{"highway":"residential"}},
{"type":"Feature","geometry":{"type":"LineString","coordinates":[[-60.4925424,-31.727541],[-60.4922324,-31.727607]]},"properties":{"highway":"residential"}},
{"type":"Feature","geometry":{"type":"LineString","coordinates":[[-60.4914553,-31.7284568],[-60.4912623,-31.7276417],[-60.4917281,-31.7275522]]},"properties":{"highway":"residential"}},
{"type":"Feature","geometry":{"type":"LineString","coordinates":[[-60.4940682,-31.7303395],[-60.494006,-31.7300272]]},"properties":{"highway":"residential"}},
{"type":"Feature","geometry":{"type":"LineString","coordinates":[[-60.4983546,-31.7419025],[-60.4983323,-31.7421505],[-60.4975247,-31.7424622]]},"properties":{"highway":"living_street"}},
{"type":"Feature","geometry":{"type":"LineString","coordinates":[[-60.4996075,-31.7522061],[-60.5003339,-31.75298]]},"properties":{"name":"Osvaldo Magnasco","oneway":"no","highway":"residential"}},
{"type":"Feature","geometry":{"type":"LineString","coordinates":[[-60.5014553,-31.7522126],[-60.5012875,-31.7514914],[-60.5013342,-31.7514298],[-60.5012594,-31.7510665]]},"properties":{"highway":"residential"}},
{"type":"Feature","geometry":{"type":"LineString","coordinates":[[-60.4879449,-31.7264119],[-60.4885905,-31.726302]]},"properties":{"highway":"residential"}},
{"type":"Feature","geometry":{"type":"LineString","coordinates":[[-60.4840029,-31.7342149],[-60.4837471,-31.7329338]]},"properties":{"highway":"residential"}},
{"type":"Feature","geometry":{"type":"LineString","coordinates":[[-60.4803616,-31.7322942],[-60.4813429,-31.7321423],[-60.4821177,-31.7320225],[-60.4828884,-31.7319032],[-60.4836673,-31.7317827],[-60.4844207,-31.7316661]]},"properties":{"highway":"residential"}},
{"type":"Feature","geometry":{"type":"LineString","coordinates":[[-60.4846731,-31.7327868],[-60.4844207,-31.7316661],[-60.4841696,-31.7304542],[-60.4841053,-31.7301438],[-60.4839817,-31.7297704],[-60.4839263,-31.7297124],[-60.4838369,-31.7296472],[-60.4834376,-31.7294715],[-60.482618,-31.7291107]]},"properties":{"highway":"residential"}},
{"type":"Feature","geometry":{"type":"LineString","coordinates":[[-60.4841696,-31.7304542],[-60.4834032,-31.7305763],[-60.48264,-31.7306978],[-60.4818758,-31.7308196],[-60.4810794,-31.7309464],[-60.4801093,-31.7311012]]},"properties":{"highway":"residential"}},
{"type":"Feature","geometry":{"type":"LineString","coordinates":[[-60.4818758,-31.7308196],[-60.4821177,-31.7320225],[-60.4823446,-31.7331565],[-60.482604,-31.7344333],[-60.4828062,-31.7353631],[-60.4830704,-31.7365786],[-60.4831379,-31.7368891]]},"properties":{"highway":"residential"}},
{"type":"Feature","geometry":{"type":"LineString","coordinates":[[-60.4812948,-31.7368634],[-60.4822929,-31.7367033],[-60.4830704,-31.7365786],[-60.4838509,-31.7364417],[-60.4841309,-31.7363926]]},"properties":{"highway":"residential"}},
{"type":"Feature","geometry":{"type":"LineString","coordinates":[[-60.4839093,-31.7367622],[-60.4838509,-31.7364417],[-60.4835876,-31.735234],[-60.4833865,-31.7343111],[-60.4831203,-31.7330334],[-60.4828884,-31.7319032],[-60.48264,-31.7306978],[-60.482439,-31.7297813],[-60.482439,-31.7296726],[-60.482618,-31.7291107]]},"properties":{"highway":"residential"}},
{"type":"Feature","geometry":{"type":"LineString","coordinates":[[-60.482439,-31.7297813],[-60.4816378,-31.7296689]]},"properties":{"highway":"residential"}},
{"type":"Feature","geometry":{"type":"LineString","coordinates":[[-60.4834376,-31.7294715],[-60.4832871,-31.730006],[-60.4834032,-31.7305763],[-60.4836673,-31.7317827]]},"properties":{"highway":"residential"}},
{"type":"Feature","geometry":{"type":"LineString","coordinates":[[-60.4810794,-31.7309464],[-60.4813429,-31.7321423],[-60.4815764,-31.7332785],[-60.4818452,-31.7345517],[-60.4820385,-31.7354809],[-60.4822929,-31.7367033],[-60.482358,-31.737016]]},"properties":{"highway":"residential"}},
{"type":"Feature","geometry":{"type":"LineString","coordinates":[[-60.4838965,-31.7351856],[-60.4835876,-31.735234],[-60.4828062,-31.7353631],[-60.4820385,-31.7354809],[-60.481033,-31.7356324]]},"properties":{"highway":"residential"}},
{"type":"Feature","geometry":{"type":"LineString","coordinates":[[-60.4904418,-31.7355757],[-60.4900102,-31.7356464],[-60.489898,-31.7357159],[-60.4898375,-31.7357773],[-60.4896787,-31.7358209]]},"properties":{"highway":"service"}},
{"type":"Feature","geometry":{"type":"LineString","coordinates":[[-60.4935061,-31.7450129],[-60.4933063,-31.7441466]]},"properties":{"footway":"sidewalk","highway":"footway"}},
{"type":"Feature","geometry":{"type":"LineString","coordinates":[[-60.4881695,-31.7556638],[-60.4891003,-31.7554935]]},"properties":{"highway":"residential"}},
{"type":"Feature","geometry":{"type":"LineString","coordinates":[[-60.4774052,-31.746438],[-60.4788208,-31.7462076]]},"properties":{"highway":"residential"}},
{"type":"Feature","geometry":{"type":"LineString","coordinates":[[-60.4727089,-31.7518251],[-60.4735748,-31.7516731]]},"properties":{"highway":"residential"}},
{"type":"Feature","geometry":{"type":"LineString","coordinates":[[-60.4682665,-31.7543849],[-60.4689994,-31.7542743],[-60.4698345,-31.7541443]]},"properties":{"highway":"residential"}},
{"type":"Feature","geometry":{"type":"LineString","coordinates":[[-60.4691334,-31.7548896],[-60.4689994,-31.7542743],[-60.4688041,-31.7533361],[-60.4686194,-31.7524486],[-60.4685012,-31.751881]]},"properties":{"highway":"residential"}},
{"type":"Feature","geometry":{"type":"LineString","coordinates":[[-60.468013,-31.7525422],[-60.4686194,-31.7524486],[-60.4694314,-31.7523238]]},"properties":{"highway":"residential"}},
{"type":"Feature","geometry":{"type":"LineString","coordinates":[[-60.4696224,-31.7532136],[-60.4688041,-31.7533361],[-60.4680779,-31.7534446]]},"properties":{"highway":"residential"}},
{"type":"Feature","geometry":{"type":"LineString","coordinates":[[-60.4766079,-31.7601219],[-60.4764388,-31.7592819]]},"properties":{"highway":"residential"}},
{"type":"Feature","geometry":{"type":"LineString","coordinates":[[-60.4743182,-31.7595182],[-60.4739118,-31.7575013],[-60.4737586,-31.7568179],[-60.4736337,-31.7561732],[-60.4735417,-31.7557105],[-60.4734966,-31.7555085],[-60.4733161,-31.754701],[-60.4732388,-31.7543349],[-60.4727089,-31.7518251],[-60.4722797,-31.7497924],[-60.4712606,-31.7449656]]},"properties":{"name":"Juan Morath","highway":"residential","surface":"unpaved"}},
{"type":"Feature","geometry":{"type":"LineString","coordinates":[[-60.4627948,-31.7523802],[-60.4629569,-31.7532845],[-60.4631327,-31.7541547],[-60.4633018,-31.7550565]]},"properties":{"name":"Los Gladiolos","highway":"residential","surface":"unpaved"}},
{"type":"Feature","geometry":{"type":"LineString","coordinates":[[-60.4630357,-31.7613171],[-60.4621574,-31.7572565],[-60.4620175,-31.7564394]]},"properties":{"name":"Pedro Londero","highway":"residential","surface":"unpaved"}},
{"type":"Feature","geometry":{"type":"LineString","coordinates":[[-60.4596908,-31.7567828],[-60.4593637,-31.7553239]]},"properties":{"highway":"footway"}},
{"type":"Feature","geometry":{"type":"LineString","coordinates":[[-60.4796015,-31.7486501],[-60.4797236,-31.7489412],[-60.4796567,-31.7494986]]},"properties":{"highway":"footway"}},
{"type":"Feature","geometry":{"type":"LineString","coordinates":[[-60.4929487,-31.7451109],[-60.4930547,-31.7455713],[-60.4931566,-31.7460052]]},"properties":{"footway":"sidewalk","highway":"footway"}},
{"type":"Feature","geometry":{"type":"LineString","coordinates":[[-60.4922633,-31.7452312],[-60.492365,-31.7456808],[-60.4924583,-31.7461163],[-60.492567,-31.746627]]},"properties":{"footway":"sidewalk","highway":"footway"}},
{"type":"Feature","geometry":{"type":"LineString","coordinates":[[-60.4916036,-31.7435674],[-60.4916974,-31.7440047],[-60.4917921,-31.7444185],[-60.491893,-31.7448732],[-60.4919938,-31.7452736]]},"properties":{"footway":"sidewalk","highway":"footway"}},
{"type":"Feature","geometry":{"type":"LineString","coordinates":[[-60.492189,-31.7448224],[-60.491893,-31.7448732],[-60.4919938,-31.7452736],[-60.4926486,-31.7451609],[-60.4922146,-31.7449061],[-60.492189,-31.7448224]]},"properties":{"leisure":"park"}},
{"type":"Feature","geometry":{"type":"LineString","coordinates":[[-60.4933063,-31.7441466],[-60.4938659,-31.7440553]]},"properties":{"footway":"sidewalk","highway":"footway"}},
{"type":"Feature","geometry":{"type":"LineString","coordinates":[[-60.4927686,-31.7432524],[-60.4928749,-31.7437344]]},"properties":{"footway":"sidewalk","highway":"footway"}},
{"type":"Feature","geometry":{"type":"LineString","coordinates":[[-60.4777206,-31.7569639],[-60.4779856,-31.758417]]},"properties":{"highway":"footway"}},
{"type":"Feature","geometry":{"type":"LineString","coordinates":[[-60.4747939,-31.7549245],[-60.4750538,-31.7548871]]},"properties":{"highway":"footway"}},
{"type":"Feature","geometry":{"type":"LineString","coordinates":[[-60.4694314,-31.7523238],[-60.4696224,-31.7532136],[-60.4698345,-31.7541443]]},"properties":{"highway":"residential"}},
{"type":"Feature","geometry":{"type":"LineString","coordinates":[[-60.4900569,-31.7439297],[-60.4897735,-31.7443505],[-60.4894927,-31.7447676]]},"properties":{"footway":"sidewalk","highway":"footway"}},
{"type":"Feature","geometry":{"type":"LineString","coordinates":[[-60.4901962,-31.7446612],[-60.4897735,-31.7443505],[-60.4893513,-31.7440402]]},"properties":{"footway":"sidewalk","highway":"footway"}},
{"type":"Feature","geometry":{"type":"LineString","coordinates":[[-60.4877663,-31.743437],[-60.487863,-31.7438799],[-60.4873863,-31.7439562],[-60.4873191,-31.7435048],[-60.4877663,-31.743437]]},"properties":{"leisure":"park"}},
{"type":"Feature","geometry":{"type":"LineString","coordinates":[[-60.4888327,-31.7451722],[-60.4887774,-31.744931],[-60.488196,-31.7450237],[-60.4882481,-31.7452568],[-60.4888327,-31.7451722]]},"properties":{"leisure":"park"}},
{"type":"Feature","geometry":{"type":"LineString","coordinates":[[-60.4964236,-31.747085],[-60.4959778,-31.7471689],[-60.4958852,-31.7467757],[-60.4962546,-31.7467077],[-60.4963287,-31.7467309],[-60.4963546,-31.7467677],[-60.4964236,-31.747085]]},"properties":{"leisure":"park"}},
{"type":"Feature","geometry":{"type":"LineString","coordinates":[[-60.4945634,-31.7535877],[-60.4937912,-31.753595],[-60.4941683,-31.7539468],[-60.4943383,-31.7538882],[-60.4945634,-31.7535877]]},"properties":{"leisure":"park"}},
{"type":"Feature","geometry":{"type":"LineString","coordinates":[[-60.488774,-31.7487318],[-60.4888952,-31.7492363],[-60.4884167,-31.7493231],[-60.4883147,-31.7488077],[-60.488774,-31.7487318]]},"properties":{"building":"apartments"}},
{"type":"Feature","geometry":{"type":"LineString","coordinates":[[-60.4808973,-31.7535135],[-60.481071,-31.7543298]]},"properties":{"highway":"unclassified"}},
{"type":"Feature","geometry":{"type":"LineString","coordinates":[[-60.4938893,-31.7415433],[-60.4941308,-31.7427106],[-60.4930797,-31.7428628],[-60.4928219,-31.7416997],[-60.4938893,-31.7415433]]},"properties":{"name":"Changomás Paraná","landuse":"commercial"}},
{"type":"Feature","geometry":{"type":"LineString","coordinates":[[-60.4865989,-31.7430378],[-60.4859188,-31.7431542],[-60.4858206,-31.7427898],[-60.4862224,-31.7427316],[-60.4862685,-31.7429049],[-60.4865557,-31.742853],[-60.4865989,-31.7430378]]},"properties":{"leisure":"park"}},
{"type":"Feature","geometry":{"type":"LineString","coordinates":[[-60.494835,-31.7409143],[-60.4953264,-31.7408439],[-60.495378,-31.7411044],[-60.4948866,-31.7411748],[-60.494835,-31.7409143]]},"properties":{"building":"yes"}},
{"type":"Feature","geometry":{"type":"LineString","coordinates":[[-60.4949132,-31.7423427],[-60.4944598,-31.742408],[-60.4944953,-31.7425865],[-60.4944102,-31.7425987],[-60.4945083,-31.7430917],[-60.4947851,-31.7430519],[-60.4946964,-31.7426064],[-60.4948247,-31.742588],[-60.4947903,-31.7424149],[-60.4949237,-31.7423957],[-60.4949132,-31.7423427]]},"properties":{"building":"yes"}},
{"type":"Feature","geometry":{"type":"LineString","coordinates":[[-60.4949135,-31.7420016],[-60.4949401,-31.7421238],[-60.4944088,-31.7422074],[-60.4943968,-31.742152],[-60.4943436,-31.7421604],[-60.4943291,-31.7420935],[-60.4949135,-31.7420016]]},"properties":{"building":"yes"}},
{"type":"Feature","geometry":{"type":"LineString","coordinates":[[-60.4944631,-31.742242],[-60.4944812,-31.7423241],[-60.4943885,-31.7423388],[-60.4943704,-31.7422567],[-60.4944631,-31.742242]]},"properties":{"building":"yes"}},
{"type":"Feature","geometry":{"type":"LineString","coordinates":[[-60.5008161,-31.7410965],[-60.5008608,-31.7413111],[-60.5004536,-31.7413725],[-60.5004088,-31.7411579],[-60.5008161,-31.7410965]]},"properties":{"building":"yes"}},
{"type":"Feature","geometry":{"type":"LineString","coordinates":[[-60.4914719,-31.7298328],[-60.4914557,-31.729584],[-60.4914384,-31.7293182]]},"properties":{"name":"Blas Parera","oneway":"yes","highway":"residential","maxspeed":"50"}},
{"type":"Feature","geometry":{"type":"LineString","coordinates":[[-60.4914384,-31.7293182],[-60.4915626,-31.7297174],[-60.4915803,-31.7297846]]},"properties":{"name":"Blas Parera","oneway":"yes","highway":"residential","maxspeed":"50"}},
{"type":"Feature","geometry":{"type":"LineString","coordinates":[[-60.492009,-31.7364426],[-60.491973,-31.736158],[-60.4919582,-31.7360747]]},"properties":{"power":"line","wires":"single","cables":"3","voltage":"132000","frequency":"50"}},
{"type":"Feature","geometry":{"type":"LineString","coordinates":[[-60.4917412,-31.7352056],[-60.4917922,-31.7359027],[-60.4918131,-31.7360067],[-60.4918302,-31.7360908]]},"properties":{"power":"line","wires":"single","cables":"3","voltage":"132000","frequency":"50"}},
{"type":"Feature","geometry":{"type":"LineString","coordinates":[[-60.4914427,-31.7360579],[-60.4914929,-31.736051],[-60.4916137,-31.7360343],[-60.4918131,-31.7360067],[-60.4919471,-31.7359881],[-60.4920458,-31.7359744]]},"properties":{"power":"line","wires":"single","cables":"3","voltage":"132000","frequency":"50"}},
{"type":"Feature","geometry":{"type":"LineString","coordinates":[[-60.4920615,-31.7360609],[-60.4919582,-31.7360747],[-60.4918302,-31.7360908],[-60.4916283,-31.7361163],[-60.4915063,-31.7361317],[-60.4914532,-31.7361385]]},"properties":{"power":"line","wires":"single","cables":"3","voltage":"132000","frequency":"50"}},
{"type":"Feature","geometry":{"type":"LineString","coordinates":[[-60.4920721,-31.7361444],[-60.491973,-31.736158],[-60.491845,-31.7361756],[-60.4916439,-31.7362032],[-60.491521,-31.73622],[-60.4914743,-31.7362264]]},"properties":{"power":"line","wires":"single","cables":"3","voltage":"132000","frequency":"50"}},
{"type":"Feature","geometry":{"type":"LineString","coordinates":[[-60.4919582,-31.7360747],[-60.4919471,-31.7359881],[-60.4919287,-31.7358836],[-60.4917412,-31.7352056]]},"properties":{"power":"line","wires":"single","cables":"3","voltage":"132000","frequency":"50"}},
{"type":"Feature","geometry":{"type":"LineString","coordinates":[[-60.4918302,-31.7360908],[-60.491845,-31.7361756],[-60.4918897,-31.7364605]]},"properties":{"power":"line","wires":"single","cables":"3","voltage":"132000","frequency":"50"}},
{"type":"Feature","geometry":{"type":"LineString","coordinates":[[-60.4804887,-31.7405117],[-60.4823589,-31.7400439],[-60.4840321,-31.7392435],[-60.4908394,-31.7381582],[-60.4916479,-31.736948],[-60.4915391,-31.7363293],[-60.491521,-31.73622],[-60.4915063,-31.7361317],[-60.4914929,-31.736051]]},"properties":{"power":"line","wires":"single","cables":"3","voltage":"132000","frequency":"50"}},
{"type":"Feature","geometry":{"type":"MultiPolygon","coordinates":[[[[-60.4975051,-31.7306483],[-60.494656,-31.731129],[-60.4943215,-31.7294906],[-60.4969745,-31.728019],[-60.4975051,-31.7306483]]]]},"properties":{"name":"Escuela de Policias Salvador Macia","amenity":"police"}},
{"type":"Feature","geometry":{"type":"MultiPolygon","coordinates":[[[[-60.4968707,-31.7273323],[-60.4953422,-31.7279889],[-60.4951505,-31.7268627],[-60.4940844,-31.7270617],[-60.493923,-31.7264317],[-60.4965708,-31.7260372],[-60.4968707,-31.7273323]]]]},"properties":{"name":"Parana Rowing Club","sport":"multi","leisure":"sports_centre"}},
{"type":"Feature","geometry":{"type":"MultiPolygon","coordinates":[[[[-60.4989202,-31.7551497],[-60.498591,-31.755243],[-60.4983738,-31.7553304],[-60.4983388,-31.7552689],[-60.4988408,-31.7549313],[-60.4989202,-31.7551497]]]]},"properties":{"amenity":"parking"}},
{"type":"Feature","geometry":{"type":"MultiPolygon","coordinates":[[[[-60.45436,-31.7409827],[-60.4531103,-31.7411739],[-60.4529787,-31.7405518],[-60.4542283,-31.7403606],[-60.45436,-31.7409827]]]]},"properties":{"leisure":"pitch"}},
{"type":"Feature","geometry":{"type":"MultiPolygon","coordinates":[[[[-60.4546258,-31.7405759],[-60.454297,-31.7406185],[-60.454246500000007,-31.7403365],[-60.4545753,-31.7402939],[-60.4546258,-31.7405759]]]]},"properties":{"sport":"tennis","leisure":"pitch"}},
{"type":"Feature","geometry":{"type":"MultiPolygon","coordinates":[[[[-60.4541332,-31.7423105],[-60.4533222,-31.7424168],[-60.453119,-31.7412952],[-60.45393,-31.7411889],[-60.4541332,-31.7423105]]]]},"properties":{"leisure":"pitch"}},
{"type":"Feature","geometry":{"type":"MultiPolygon","coordinates":[[[[-60.4545406,-31.7409008],[-60.4543737,-31.7409231],[-60.4543201,-31.7406331],[-60.4544869,-31.7406108],[-60.4545406,-31.7409008]]]]},"properties":{"sport":"tennis","leisure":"pitch"}},
{"type":"Feature","geometry":{"type":"MultiPolygon","coordinates":[[[[-60.4541965,-31.7413696],[-60.4540911,-31.7413839],[-60.4540644,-31.7412415],[-60.4541697,-31.7412272],[-60.4541965,-31.7413696]]]]},"properties":{"building":"yes"}},
{"type":"Feature","geometry":{"type":"MultiPolygon","coordinates":[[[[-60.4982741,-31.7249819],[-60.496699,-31.7252694],[-60.4963205,-31.7234927],[-60.4978618,-31.7232569],[-60.4982741,-31.7249819]]]]},"properties":{"name":"Doctor Antonio Roballos","amenity":"hospital"}},
{"type":"Feature","geometry":{"type":"MultiPolygon","coordinates":[[[[-60.4901127,-31.7445992],[-60.489558100000007,-31.744704],[-60.4894287,-31.7440961],[-60.4899833,-31.7440123],[-60.4901127,-31.7445992]]]]},"properties":{"leisure":"park"}},
{"type":"Feature","geometry":{"type":"MultiPolygon","coordinates":[[[[-60.4751866,-31.7366169],[-60.4743726,-31.7367373],[-60.4741815,-31.7357199],[-60.4749884,-31.7355935],[-60.4751866,-31.7366169]]]]},"properties":{"name":"Estadio de Belgrano","sport":"soccer","leisure":"stadium"}},
{"type":"Feature","geometry":{"type":"MultiPolygon","coordinates":[[[[-60.4994697,-31.7538472],[-60.4994642,-31.7538685],[-60.4994507,-31.753887],[-60.4994309,-31.7539008],[-60.4994069,-31.7539083],[-60.4993813,-31.7539087],[-60.4993569,-31.753902],[-60.4993364,-31.7538889],[-60.4993222,-31.7538708],[-60.4993157,-31.7538501],[-60.4993173,-31.7538288],[-60.499327,-31.753809],[-60.4993436,-31.7537929],[-60.4993655,-31.7537822],[-60.4993902,-31.7537781],[-60.4994151,-31.7537809],[-60.4994377,-31.7537904],[-60.4994557,-31.7538059],[-60.4994668,-31.7538256],[-60.4994697,-31.7538472]]]]},"properties":{"area":"yes","name":"Estudio Contable Zanin","phone":"03434240156","addr:city":"Paraná","addr:street":"Almafuerte","addr:postcode":"3100","payment:bitcoin":"yes","addr:housenumber":"1488"}},
{"type":"Feature","geometry":{"type":"MultiPolygon","coordinates":[[[[-60.4958257,-31.7378832],[-60.4955268,-31.7379461],[-60.4954375,-31.7376185],[-60.4958011,-31.737574],[-60.4958257,-31.7378832]]]]},"properties":{"name":"Plazoleta","leisure":"playground"}},
{"type":"Feature","geometry":{"type":"MultiPolygon","coordinates":[[[[-60.4928166,-31.7364613],[-60.4912773,-31.7366864],[-60.4911142,-31.7358798],[-60.4926535,-31.7356547],[-60.4928166,-31.7364613]]]]},"properties":{"name":"Planta transformadora de energía ENERSA","power":"substation","operator":"ENERSA","substation":"transmission"}},
{"type":"Feature","geometry":{"type":"MultiPolygon","coordinates":[[[[-60.4942552,-31.7434278],[-60.4942257,-31.7434734],[-60.4934345,-31.7435897],[-60.4932923,-31.742967],[-60.4941211,-31.7428461],[-60.4942552,-31.7434278]]]]},"properties":{"name":"E.E.T. Nº 21 Libertador General San Martín","amenity":"school","short_name":"EET Nº 21 Libertador General San Martín","addr:street":"Fermín Garay","description":"Tipo de Institución: Secundario Técnico Orientación: Industrial Ámbito de Gestión: Estatal Tipo de Dependencia: Jurisdicción Educativa Provincial","operator:type":"government"}},
{"type":"Feature","geometry":{"type":"MultiPolygon","coordinates":[[[[-60.5014264,-31.7504823],[-60.5011114,-31.7505338],[-60.5012826,-31.7512918],[-60.5010972,-31.751322],[-60.5010738,-31.7512185],[-60.5010129,-31.7512285],[-60.5011576,-31.7518692],[-60.5013222,-31.7518424],[-60.5013876,-31.7521666],[-60.5012796,-31.7522388],[-60.5012257,-31.7520348],[-60.501123,-31.7520516],[-60.5009158,-31.7511347],[-60.5008481,-31.7508346],[-60.5006777,-31.7508624],[-60.5005946,-31.7504944],[-60.5013994,-31.7503629],[-60.5014264,-31.7504823]]]]},"properties":{"name":"Cotapa","landuse":"residential","building":"yes","addr:city":"Paraná","addr:street":"Almafuerte","addr:postcode":"3100"}},
{"type":"Feature","geometry":{"type":"MultiPolygon","coordinates":[[[[-60.4944835,-31.7272878],[-60.4943264,-31.7273526],[-60.4942785,-31.7272686],[-60.4942394,-31.7272848],[-60.4942046,-31.7272237],[-60.4942813,-31.7271921],[-60.4943159,-31.7272527],[-60.4943614,-31.7272339],[-60.4943238,-31.7271663],[-60.4944213,-31.7271272],[-60.494459,-31.7271952],[-60.494436,-31.7272045],[-60.4944835,-31.7272878]]]]},"properties":{"building":"yes"}},
{"type":"Feature","geometry":{"type":"MultiPolygon","coordinates":[[[[-60.4950944,-31.7274192],[-60.4947754,-31.7275526],[-60.4947341,-31.7274811],[-60.4947691,-31.7274665],[-60.4947586,-31.7274484],[-60.4946922,-31.7274761],[-60.4945582,-31.7272442],[-60.4946103,-31.7272224],[-60.494584,-31.7271769],[-60.4948737,-31.7270558],[-60.4948949,-31.7270925],[-60.4948434,-31.727114],[-60.4948555,-31.7271349],[-60.4949423,-31.7270986],[-60.4950637,-31.7273087],[-60.495037,-31.7273199],[-60.4950944,-31.7274192]],[[-60.4949551,-31.7273539],[-60.4948369,-31.7271495],[-60.4946945,-31.7272091],[-60.4948126,-31.7274135],[-60.4949551,-31.7273539]]]]},"properties":{"building":"school"}},
{"type":"Feature","geometry":{"type":"MultiPolygon","coordinates":[[[[-60.4953422,-31.7279889],[-60.4943776,-31.7283816],[-60.4940844,-31.7270617],[-60.4951505,-31.7268627],[-60.4953422,-31.7279889]]]]},"properties":{"name":"Escuela 206 Los Constituyentes","amenity":"school","isced:level":"1"}},
{"type":"Feature","geometry":{"type":"MultiPolygon","coordinates":[[[[-60.4771356,-31.7288758],[-60.4761164,-31.7290537],[-60.4759752,-31.7278264],[-60.4770803,-31.7277625],[-60.4771356,-31.7288758]]]]},"properties":{"name":"QUINTA LOS AROMITOS"}},
{"type":"Feature","geometry":{"type":"MultiPolygon","coordinates":[[[[-60.4926486,-31.7451609],[-60.4919938,-31.7452736],[-60.491893,-31.7448732],[-60.492189,-31.7448224],[-60.4922146,-31.7449061],[-60.4926486,-31.7451609]]]]},"properties":{"leisure":"park"}},
{"type":"Feature","geometry":{"type":"MultiPolygon","coordinates":[[[[-60.487863,-31.7438799],[-60.4873863,-31.7439562],[-60.4873191,-31.7435048],[-60.4877663,-31.743437],[-60.487863,-31.7438799]]]]},"properties":{"leisure":"park"}},
{"type":"Feature","geometry":{"type":"MultiPolygon","coordinates":[[[[-60.4888327,-31.7451722],[-60.4882481,-31.7452568],[-60.488196,-31.7450237],[-60.4887774,-31.744931],[-60.4888327,-31.7451722]]]]},"properties":{"leisure":"park"}},
{"type":"Feature","geometry":{"type":"MultiPolygon","coordinates":[[[[-60.4964236,-31.747085],[-60.4959778,-31.7471689],[-60.4958852,-31.7467757],[-60.4962546,-31.7467077],[-60.4963287,-31.7467309],[-60.4963546,-31.7467677],[-60.4964236,-31.747085]]]]},"properties":{"leisure":"park"}},
{"type":"Feature","geometry":{"type":"MultiPolygon","coordinates":[[[[-60.4945634,-31.7535877],[-60.4943383,-31.7538882],[-60.4941683,-31.7539468],[-60.4937912,-31.753595],[-60.4945634,-31.7535877]]]]},"properties":{"leisure":"park"}},
{"type":"Feature","geometry":{"type":"MultiPolygon","coordinates":[[[[-60.4888952,-31.7492363],[-60.4884167,-31.7493231],[-60.4883147,-31.7488077],[-60.488774,-31.7487318],[-60.4888952,-31.7492363]]]]},"properties":{"building":"apartments"}},
{"type":"Feature","geometry":{"type":"MultiPolygon","coordinates":[[[[-60.4941308,-31.7427106],[-60.4930797,-31.7428628],[-60.4928219,-31.7416997],[-60.4938893,-31.7415433],[-60.4941308,-31.7427106]]]]},"properties":{"name":"Changomás Paraná","landuse":"commercial"}},
{"type":"Feature","geometry":{"type":"MultiPolygon","coordinates":[[[[-60.4865989,-31.7430378],[-60.4859188,-31.7431542],[-60.4858206,-31.7427898],[-60.4862224,-31.7427316],[-60.4862685,-31.7429049],[-60.4865557,-31.742853],[-60.4865989,-31.7430378]]]]},"properties":{"leisure":"park"}},
{"type":"Feature","geometry":{"type":"MultiPolygon","coordinates":[[[[-60.4869337,-31.742991],[-60.4865989,-31.7430378],[-60.4865557,-31.742853],[-60.48652,-31.7426822],[-60.4868637,-31.7426278],[-60.4869337,-31.742991]]]]},"properties":{"area":"yes"}},
{"type":"Feature","geometry":{"type":"MultiPolygon","coordinates":[[[[-60.495378,-31.7411044],[-60.4948866,-31.7411748],[-60.494835,-31.7409143],[-60.4953264,-31.7408439],[-60.495378,-31.7411044]]]]},"properties":{"building":"yes"}},
{"type":"Feature","geometry":{"type":"MultiPolygon","coordinates":[[[[-60.4949237,-31.7423957],[-60.4947903,-31.7424149],[-60.4948247,-31.742588],[-60.4946964,-31.7426064],[-60.4947851,-31.7430519],[-60.4945083,-31.7430917],[-60.4944102,-31.7425987],[-60.4944953,-31.7425865],[-60.4944598,-31.742408],[-60.4949132,-31.7423427],[-60.4949237,-31.7423957]]]]},"properties":{"building":"yes"}},
{"type":"Feature","geometry":{"type":"MultiPolygon","coordinates":[[[[-60.4949401,-31.7421238],[-60.4944088,-31.7422074],[-60.4943968,-31.742152],[-60.4943436,-31.7421604],[-60.4943291,-31.7420935],[-60.4949135,-31.7420016],[-60.4949401,-31.7421238]]]]},"properties":{"building":"yes"}},
{"type":"Feature","geometry":{"type":"MultiPolygon","coordinates":[[[[-60.4944812,-31.7423241],[-60.4943885,-31.7423388],[-60.4943704,-31.7422567],[-60.4944631,-31.742242],[-60.4944812,-31.7423241]]]]},"properties":{"building":"yes"}},
{"type":"Feature","geometry":{"type":"MultiPolygon","coordinates":[[[[-60.5008608,-31.7413111],[-60.5004536,-31.7413725],[-60.5004088,-31.7411579],[-60.5008161,-31.7410965],[-60.5008608,-31.7413111]]]]},"properties":{"building":"yes"}}
]}
